{
	"type": "FeatureCollection",
	"features": [{
		"type": "Feature",
		"properties": {
			"project": "huzirina",
			"id_text": "P338360",
			"primary_publication": "STT 043",
			"museum_no": "AMM —",
			"provenience": "Sultantepe (Huzirina)",
			"excavation_no": "SU 1951, 110",
			"archive": "001 -  Qurdi-Nergal Archive",
			"date": "858-824",
			"atae_attribution": "Adapted from Alasdair Livingstone, Court Poetry and Literary Miscellanea (State Archives of Assyria, 3), 1989. Lemmatised by Mikko Luukko, 2019-20, as part of the research programme of the Alexander von Humboldt Chair in the Ancient History of the Near and Middle East at LMU Munich (Karen Radner, Humboldt Professorship 2015). The annotated edition is released under the Creative Commons Attribution Share-Alike license 3.0.",
			"cite_as": "Please cite this page as http://oracc.org/atae/P338360/.",
			"collection": "Anadolu Medeniyetleri Müzesi, Ankara, Turkey",
			"composite_witness": "witness",
			"credits": "Adapted from Alasdair Livingstone, Court Poetry and Literary Miscellanea (State Archives of Assyria, 3), 1989. Lemmatised by Mikko Luukko, 2019-20, as part of the research programme of the Alexander von Humboldt Chair in the Ancient History of the Near and Middle East at LMU Munich (Karen Radner, Humboldt Professorship 2015). The annotated edition is released under the Creative Commons Attribution Share-Alike license 3.0. Please cite this page as http://oracc.org/atae/P338360/.",
			"date_of_origin": "Shalmaneser3.000.00.00",
			"designation": "STT 043",
			"display_name": "SAA 03 017",
			"genre": "Literary Work",
			"has_date": "no",
			"language": "Akkadian",
			"last_mod_by": "Jamie Novotny",
			"last_modified": "30.01.2022",
			"list_name": "atae/huzirina:P338360",
			"material": "clay",
			"object_type": "tablet",
			"period": "Neo-Assyrian",
			"pleiades_id": "9249509021",
			"regnal_dates": "858–824 BC",
			"ruler": "Shalmaneser III",
			"script": "Neo-Babylonian",
			"script_remarks": "inscribed",
			"script_type": "Cuneiform",
			"ch_no": "Ch. 3",
			"ch_name": "Epical Poetry in Praise of Assyrian Kings",
			"ch_num_name": "Ch. 3 (Epical Poetry in Praise of Assyrian Kings)"
		},
		"geometry": {
			"type": "Point",
			"coordinates": [38.9061,37.05]
		}
	}, {
		"type": "Feature",
		"properties": {
			"project": "huzirina",
			"id_text": "P338361",
			"primary_publication": "STT 044",
			"museum_no": "AMM —",
			"provenience": "Sultantepe (Huzirina)",
			"excavation_no": "SU 1951, 117",
			"archive": "001 -  Qurdi-Nergal Archive",
			"date": "7th century",
			"atae_attribution": "Adapted from Laura Kataja and Robert M. Whiting, Grants, Decrees and Gifts of the Neo-Assyrian Period (State Archives of Assyria, 12), 1995.  Lemmatised by Mikko Luukko, 2018, as part of the research programme of the Alexander von Humboldt Chair in the Ancient History of the Near and Middle East at LMU Munich (Karen Radner, Humboldt Professorship 2015). The annotated edition is released under the Creative Commons Attribution Share-Alike license 3.0.",
			"cite_as": "Please cite this page as http://oracc.org/atae/P338361/.",
			"collection": "Anadolu Medeniyetleri Müzesi, Ankara, Turkey",
			"composite_witness": "witness",
			"credits": "Adapted from Laura Kataja and Robert M. Whiting, Grants, Decrees and Gifts of the Neo-Assyrian Period (State Archives of Assyria, 12), 1995.  Lemmatised by Mikko Luukko, 2018, as part of the research programme of the Alexander von Humboldt Chair in the Ancient History of the Near and Middle East at LMU Munich (Karen Radner, Humboldt Professorship 2015). The annotated edition is released under the Creative Commons Attribution Share-Alike license 3.0. Please cite this page as http://oracc.org/atae/P338361/.",
			"date_of_origin": "00.000.00.00",
			"designation": "STT 044",
			"display_name": "SAA 12 048",
			"genre": "Grant",
			"has_date": "no",
			"language": "Akkadian",
			"last_mod_by": "Jamie Novotny",
			"last_modified": "30.01.2022",
			"list_name": "atae/huzirina:P338361",
			"material": "clay",
			"object_type": "tablet",
			"period": "Neo-Assyrian",
			"pleiades_id": "9249509021",
			"ruler": "uncertain",
			"script": "Neo-Assyrian",
			"script_remarks": "inscribed",
			"script_type": "Cuneiform",
			"ch_no": "Ch. 3",
			"ch_name": "Fragments of Grants or Schedules to Grants",
			"ch_num_name": "Ch. 3 (Fragments of Grants or Schedules to Grants)"
		},
		"geometry": {
			"type": "Point",
			"coordinates": [38.9061,37.05]
		}
	}, {
		"type": "Feature",
		"properties": {
			"project": "huzirina",
			"id_text": "P338364",
			"primary_publication": "STT 046 + STT 348",
			"museum_no": "AMM —",
			"provenience": "Sultantepe (Huzirina)",
			"excavation_no": "SU 1952, 018 + SU 1952, 018A + SU 1952, 021 + SU 1952, 333 + SU 1952, 227",
			"archive": "001 -  Qurdi-Nergal Archive",
			"date": "after 765",
			"atae_attribution": "Adapted from Alan Millard (with a contribution by Robert Whiting), The Eponyms of the Assyrian Empire 910-612 BC (State Archives of Assyria Studies 2), 1994. Adapted and lemmatised by Nathan Morello, 2019, as part of the research programme of the Alexander von Humboldt Chair in the Ancient History of the Near and Middle East at LMU Munich (Karen Radner, Humboldt Professorship 2015). The annotated edition is released under the Creative Commons Attribution Share-Alike license 3.0.",
			"cite_as": "Please cite this page as http://oracc.org/atae/P338364/.",
			"collection": "Anadolu Medeniyetleri Müzesi, Ankara, Turkey",
			"composite_witness": "witness",
			"credits": "Adapted from Alan Millard (with a contribution by Robert Whiting), The Eponyms of the Assyrian Empire 910-612 BC (State Archives of Assyria Studies 2), 1994. Adapted and lemmatised by Nathan Morello, 2019, as part of the research programme of the Alexander von Humboldt Chair in the Ancient History of the Near and Middle East at LMU Munich (Karen Radner, Humboldt Professorship 2015). The annotated edition is released under the Creative Commons Attribution Share-Alike license 3.0. Please cite this page as http://oracc.org/atae/P338364/.",
			"date_of_origin": "Assur-dan3.000.00.00",
			"designation": "STT 046 + STT 348",
			"display_name": "SAAS 2 B10",
			"genre": "Eponym Chronicle",
			"has_date": "no",
			"language": "Akkadian",
			"last_mod_by": "Jamie Novotny",
			"last_modified": "30.01.2022",
			"list_name": "atae/huzirina:P338364",
			"material": "clay",
			"object_type": "tablet",
			"period": "Neo-Assyrian",
			"pleiades_id": "9249509021",
			"regnal_dates": "772–755 BC",
			"ruler": "Aššur-dān III",
			"script": "Neo-Assyrian",
			"script_remarks": "inscribed",
			"script_type": "Cuneiform",
			"ch_no": "2",
			"ch_name": "Assyrian Eponym Chronicle",
			"ch_num_name": "2 (Assyrian Eponym Chronicle)"
		},
		"geometry": {
			"type": "Point",
			"coordinates": [38.9061,37.05]
		}
	}, {
		"type": "Feature",
		"properties": {
			"project": "huzirina",
			"id_text": "P338365",
			"primary_publication": "STT 047",
			"museum_no": "AMM —",
			"provenience": "Sultantepe (Huzirina)",
			"excavation_no": "SU 1952, 150",
			"archive": "001 -  Qurdi-Nergal Archive",
			"date": "after 764",
			"atae_attribution": "Adapted from Alan Millard (with a contribution by Robert Whiting), The Eponyms of the Assyrian Empire 910-612 BC (State Archives of Assyria Studies 2), 1994. Adapted and lemmatised by Nathan Morello, 2019, as part of the research programme of the Alexander von Humboldt Chair in the Ancient History of the Near and Middle East at LMU Munich (Karen Radner, Humboldt Professorship 2015). The annotated edition is released under the Creative Commons Attribution Share-Alike license 3.0.",
			"cite_as": "Please cite this page as http://oracc.org/atae/P338365/.",
			"collection": "Anadolu Medeniyetleri Müzesi, Ankara, Turkey",
			"composite_witness": "witness",
			"credits": "Adapted from Alan Millard (with a contribution by Robert Whiting), The Eponyms of the Assyrian Empire 910-612 BC (State Archives of Assyria Studies 2), 1994. Adapted and lemmatised by Nathan Morello, 2019, as part of the research programme of the Alexander von Humboldt Chair in the Ancient History of the Near and Middle East at LMU Munich (Karen Radner, Humboldt Professorship 2015). The annotated edition is released under the Creative Commons Attribution Share-Alike license 3.0. Please cite this page as http://oracc.org/atae/P338365/.",
			"date_of_origin": "Assur-dan3.000.00.00",
			"designation": "STT 047",
			"display_name": "SAAS 2 A08",
			"genre": "Eponym List",
			"has_date": "no",
			"language": "Akkadian",
			"last_mod_by": "Jamie Novotny",
			"last_modified": "30.01.2022",
			"list_name": "atae/huzirina:P338365",
			"material": "clay",
			"object_type": "tablet",
			"period": "Neo-Assyrian",
			"pleiades_id": "9249509021",
			"regnal_dates": "772–755 BC",
			"ruler": "Aššur-dān III",
			"script": "Neo-Assyrian",
			"script_remarks": "inscribed",
			"script_type": "Cuneiform",
			"ch_no": "1",
			"ch_name": "Assyrian Eponym List",
			"ch_num_name": "1 (Assyrian Eponym List)"
		},
		"geometry": {
			"type": "Point",
			"coordinates": [38.9061,37.05]
		}
	}, {
		"type": "Feature",
		"properties": {
			"project": "huzirina",
			"id_text": "P338366",
			"primary_publication": "STT 048",
			"museum_no": "AMM —",
			"provenience": "Sultantepe (Huzirina)",
			"excavation_no": "SU 1952, 331",
			"archive": "001 -  Qurdi-Nergal Archive",
			"date": "after 635*",
			"atae_attribution": "Created and lemmatized by Greta Van Buylaere for the AHRC-funded Geography of Knowledge in Assyria and Babylonia: A Diachronic Analysis of Four Scholarly Libraries Project (GKAB), 2009, a sub-project of the Corpus of Ancient Mesopotamian Scholarship (CAMS) Project, directed by Eleanor Robson. The annotated edition is released under the Creative Commons Attribution Share-Alike license 3.0.",
			"cite_as": "Please cite this page as http://oracc.org/atae/P338366/.",
			"collection": "Anadolu Medeniyetleri Müzesi, Ankara, Turkey",
			"composite_witness": "witness",
			"credits": "Created and lemmatized by Greta Van Buylaere for the AHRC-funded Geography of Knowledge in Assyria and Babylonia: A Diachronic Analysis of Four Scholarly Libraries Project (GKAB), 2009, a sub-project of the Corpus of Ancient Mesopotamian Scholarship (CAMS) Project, directed by Eleanor Robson. The annotated edition is released under the Creative Commons Attribution Share-Alike license 3.0. Please cite this page as http://oracc.org/atae/P338366/.",
			"date_of_origin": "Assurbanipal.000.00.00",
			"designation": "STT 048",
			"display_name": "STT 048",
			"genre": "Administrative",
			"has_date": "no",
			"language": "Akkadian",
			"last_mod_by": "Jamie Novotny",
			"last_modified": "30.01.2022",
			"list_name": "atae/huzirina:P338366",
			"material": "clay",
			"object_type": "tablet",
			"period": "Neo-Assyrian",
			"pleiades_id": "9249509021",
			"regnal_dates": "668–ca. 631 BC",
			"ruler": "Ashurbanipal",
			"script": "Neo-Assyrian",
			"script_remarks": "inscribed",
			"script_type": "Cuneiform",
			"subgenre": "Accounts",
			"ch_no": "Ch. 8",
			"ch_name": "Temple Service and Takultu Manuals",
			"ch_num_name": "Ch. 8 (Temple Service and Takultu Manuals)"
		},
		"geometry": {
			"type": "Point",
			"coordinates": [38.9061,37.05]
		}
	}, {
		"type": "Feature",
		"properties": {
			"project": "huzirina",
			"id_text": "P338367",
			"primary_publication": "STT 049",
			"museum_no": "AMM —",
			"provenience": "Sultantepe (Huzirina)",
			"excavation_no": "SU 1951, 033 + SU 1952, 143",
			"archive": "001 -  Qurdi-Nergal Archive",
			"atae_attribution": "Adapted from Laura Kataja and Robert M. Whiting, Grants, Decrees and Gifts of the Neo-Assyrian Period (State Archives of Assyria, 12), 1995.  Lemmatised by Mikko Luukko, 2018, as part of the research programme of the Alexander von Humboldt Chair in the Ancient History of the Near and Middle East at LMU Munich (Karen Radner, Humboldt Professorship 2015). The annotated edition is released under the Creative Commons Attribution Share-Alike license 3.0.",
			"cite_as": "Please cite this page as http://oracc.org/atae/P338367/.",
			"collection": "Anadolu Medeniyetleri Müzesi, Ankara, Turkey",
			"composite_witness": "witness",
			"credits": "Adapted from Laura Kataja and Robert M. Whiting, Grants, Decrees and Gifts of the Neo-Assyrian Period (State Archives of Assyria, 12), 1995.  Lemmatised by Mikko Luukko, 2018, as part of the research programme of the Alexander von Humboldt Chair in the Ancient History of the Near and Middle East at LMU Munich (Karen Radner, Humboldt Professorship 2015). The annotated edition is released under the Creative Commons Attribution Share-Alike license 3.0. Please cite this page as http://oracc.org/atae/P338367/.",
			"date_of_origin": "Esarhaddon.000.00.00",
			"designation": "STT 049",
			"display_name": "SAA 12 024",
			"genre": "Grant",
			"has_date": "no",
			"language": "Akkadian",
			"last_mod_by": "Jamie Novotny",
			"last_modified": "30.01.2022",
			"list_name": "atae/huzirina:P338367",
			"material": "clay",
			"object_type": "tablet",
			"period": "Neo-Assyrian",
			"pleiades_id": "9249509021",
			"regnal_dates": "680–669 BC",
			"ruler": "Esarhaddon",
			"script": "Neo-Assyrian",
			"script_remarks": "inscribed",
			"script_type": "Cuneiform",
			"ch_no": "Ch. 2",
			"ch_name": "Grants of Sargon II and Later Kings",
			"ch_num_name": "Ch. 2 (Grants of Sargon II and Later Kings)"
		},
		"geometry": {
			"type": "Point",
			"coordinates": [38.9061,37.05]
		}
	}, {
		"type": "Feature",
		"properties": {
			"project": "huzirina",
			"id_text": "P338383",
			"primary_publication": "STT 065",
			"museum_no": "AMM —",
			"provenience": "Sultantepe (Huzirina)",
			"excavation_no": "SU 1952, 103",
			"archive": "001 -  Qurdi-Nergal Archive",
			"date": "668-ca. 631",
			"atae_attribution": "Adapted from Alasdair Livingstone, Court Poetry and Literary Miscellanea (State Archives of Assyria, 3), 1989. Lemmatised by Mikko Luukko, 2019-20, as part of the research programme of the Alexander von Humboldt Chair in the Ancient History of the Near and Middle East at LMU Munich (Karen Radner, Humboldt Professorship 2015). The annotated edition is released under the Creative Commons Attribution Share-Alike license 3.0.",
			"cite_as": "Please cite this page as http://oracc.org/atae/P338383/.",
			"collection": "Anadolu Medeniyetleri Müzesi, Ankara, Turkey",
			"composite_witness": "witness",
			"credits": "Adapted from Alasdair Livingstone, Court Poetry and Literary Miscellanea (State Archives of Assyria, 3), 1989. Lemmatised by Mikko Luukko, 2019-20, as part of the research programme of the Alexander von Humboldt Chair in the Ancient History of the Near and Middle East at LMU Munich (Karen Radner, Humboldt Professorship 2015). The annotated edition is released under the Creative Commons Attribution Share-Alike license 3.0. Please cite this page as http://oracc.org/atae/P338383/.",
			"date_of_origin": "Assurbanipal.000.00.00",
			"designation": "STT 065",
			"display_name": "SAA 03 012",
			"genre": "Literary Work",
			"has_date": "no",
			"language": "Akkadian",
			"last_mod_by": "Jamie Novotny",
			"last_modified": "30.01.2022",
			"list_name": "atae/huzirina:P338383",
			"material": "clay",
			"object_type": "tablet",
			"period": "Neo-Assyrian",
			"pleiades_id": "9249509021",
			"regnal_dates": "668–ca. 631 BC",
			"ruler": "Ashurbanipal",
			"script": "Neo-Assyrian",
			"script_remarks": "inscribed",
			"script_type": "Cuneiform",
			"ch_no": "Ch. 2",
			"ch_name": "Elegaic and Other Poetry",
			"ch_num_name": "Ch. 2 (Elegaic and Other Poetry)"
		},
		"geometry": {
			"type": "Point",
			"coordinates": [38.9061,37.05]
		}
	}, {
		"type": "Feature",
		"properties": {
			"project": "huzirina",
			"id_text": "P338404",
			"primary_publication": "STT 087",
			"museum_no": "AMM —",
			"provenience": "Sultantepe (Huzirina)",
			"excavation_no": "SU 1951, 124 + SU 1952, 154",
			"archive": "001 -  Qurdi-Nergal Archive",
			"date": "680-669",
			"ancient_author": "Mutaqqin-Aššur",
			"atae_attribution": "Adapted from Alasdair Livingstone, Court Poetry and Literary Miscellanea (State Archives of Assyria, 3), 1989. Lemmatised by Mikko Luukko, 2019-20, as part of the research programme of the Alexander von Humboldt Chair in the Ancient History of the Near and Middle East at LMU Munich (Karen Radner, Humboldt Professorship 2015). The annotated edition is released under the Creative Commons Attribution Share-Alike license 3.0.",
			"cite_as": "Please cite this page as http://oracc.org/atae/P338404/.",
			"collection": "Anadolu Medeniyetleri Müzesi, Ankara, Turkey",
			"composite_witness": "composite",
			"credits": "Adapted from Alasdair Livingstone, Court Poetry and Literary Miscellanea (State Archives of Assyria, 3), 1989. Lemmatised by Mikko Luukko, 2019-20, as part of the research programme of the Alexander von Humboldt Chair in the Ancient History of the Near and Middle East at LMU Munich (Karen Radner, Humboldt Professorship 2015). The annotated edition is released under the Creative Commons Attribution Share-Alike license 3.0. Please cite this page as http://oracc.org/atae/P338404/.",
			"date_of_origin": "Esarhaddon.000.00.00",
			"designation": "STT 087",
			"display_name": "SAA 03 010",
			"genre": "Literary Work",
			"has_date": "no",
			"language": "Akkadian",
			"last_mod_by": "Jamie Novotny",
			"last_modified": "30.01.2022",
			"list_name": "atae/huzirina:P338404",
			"material": "clay",
			"object_type": "tablet",
			"period": "Neo-Assyrian",
			"pleiades_id": "9249509021",
			"regnal_dates": "680–669 BC",
			"ruler": "Esarhaddon",
			"script": "Neo-Assyrian",
			"script_remarks": "inscribed",
			"script_type": "Cuneiform",
			"ch_no": "Ch. 1",
			"ch_name": "Hymns to Gods, Temples, Cities and Kings",
			"ch_num_name": "Ch. 1 (Hymns to Gods, Temples, Cities and Kings)"
		},
		"geometry": {
			"type": "Point",
			"coordinates": [38.9061,37.05]
		}
	}, {
		"type": "Feature",
		"properties": {
			"project": "huzirina",
			"id_text": "P338406",
			"primary_publication": "STT 088",
			"museum_no": "AMM —",
			"provenience": "Sultantepe (Huzirina)",
			"excavation_no": "SU 1951, 040 + SU 1951, 144 + SU 1951, 181 + SU 1951, 183 + SU 1951, 193 + SU 1951, 206 + SU 1952, 062",
			"archive": "001 -  Qurdi-Nergal Archive",
			"date": "704-681",
			"atae_attribution": "Adapted from Simo Parpola, Assyrian Royal Rituals and Cultic Texts (State Archives of Assyria, 20), 2017. Adapted by Jamie Novotny and lemmatised by Mikko Luukko, 2017, as part of the research programme of the Alexander von Humboldt Chair in the Ancient History of the Near and Middle East at LMU Munich (Karen Radner, Humboldt Professorship 2015). The annotated edition is released under the Creative Commons Attribution Share-Alike license 3.0.",
			"cite_as": "Please cite this page as http://oracc.org/atae/P338406/.",
			"collection": "Anadolu Medeniyetleri Müzesi, Ankara, Turkey",
			"composite_witness": "witness",
			"credits": "Adapted from Simo Parpola, Assyrian Royal Rituals and Cultic Texts (State Archives of Assyria, 20), 2017. Adapted by Jamie Novotny and lemmatised by Mikko Luukko, 2017, as part of the research programme of the Alexander von Humboldt Chair in the Ancient History of the Near and Middle East at LMU Munich (Karen Radner, Humboldt Professorship 2015). The annotated edition is released under the Creative Commons Attribution Share-Alike license 3.0. Please cite this page as http://oracc.org/atae/P338406/.",
			"date_of_origin": "Sennacherib.000.00.00",
			"designation": "STT 088",
			"display_name": "SAA 20 038",
			"genre": "Royal Ritual",
			"has_date": "no",
			"language": "Akkadian",
			"last_mod_by": "Jamie Novotny",
			"last_modified": "30.01.2022",
			"list_name": "atae/huzirina:P338406",
			"material": "clay",
			"object_type": "tablet",
			"period": "Neo-Assyrian",
			"pleiades_id": "9249509021",
			"regnal_dates": "704–681 BC",
			"ruler": "Sennacherib",
			"script": "Neo-Assyrian",
			"script_remarks": "inscribed",
			"script_type": "Cuneiform",
			"ch_no": "Ch. 8",
			"ch_name": "Temple Service and Takultu Manuals",
			"ch_num_name": "Ch. 8 (Temple Service and Takultu Manuals)"
		},
		"geometry": {
			"type": "Point",
			"coordinates": [38.9061,37.05]
		}
	}, {
		"type": "Feature",
		"properties": {
			"project": "huzirina",
			"id_text": "X200001",
			"primary_publication": "STT 088B",
			"museum_no": "AMM —",
			"provenience": "Sultantepe (Huzirina)",
			"excavation_no": "SU 1951, 206",
			"archive": "001 -  Qurdi-Nergal Archive",
			"date": "7th century",
			"atae_attribution": "Adapted from Simo Parpola, Assyrian Royal Rituals and Cultic Texts (State Archives of Assyria, 20), 2017. Adapted by Jamie Novotny and lemmatised by Mikko Luukko, 2017, as part of the research programme of the Alexander von Humboldt Chair in the Ancient History of the Near and Middle East at LMU Munich (Karen Radner, Humboldt Professorship 2015). The annotated edition is released under the Creative Commons Attribution Share-Alike license 3.0.",
			"cite_as": "Please cite this page as http://oracc.org/atae/X200001/.",
			"collection": "Anadolu Medeniyetleri Müzesi, Ankara, Turkey",
			"composite_witness": "witness",
			"credits": "Adapted from Simo Parpola, Assyrian Royal Rituals and Cultic Texts (State Archives of Assyria, 20), 2017. Adapted by Jamie Novotny and lemmatised by Mikko Luukko, 2017, as part of the research programme of the Alexander von Humboldt Chair in the Ancient History of the Near and Middle East at LMU Munich (Karen Radner, Humboldt Professorship 2015). The annotated edition is released under the Creative Commons Attribution Share-Alike license 3.0. Please cite this page as http://oracc.org/atae/X200001/.",
			"date_of_origin": "00.000.00.00",
			"designation": "STT 088B",
			"display_name": "SAA 20 048",
			"external_id": "X200001",
			"genre": "Royal Ritual",
			"has_date": "no",
			"language": "Akkadian",
			"last_mod_by": "Jamie Novotny",
			"last_modified": "30.01.2022",
			"list_name": "atae/huzirina:X200001",
			"material": "clay",
			"object_type": "tablet",
			"period": "Neo-Assyrian",
			"pleiades_id": "9249509021",
			"ruler": "uncertain",
			"script": "Neo-Assyrian",
			"script_remarks": "inscribed",
			"script_type": "Cuneiform",
			"ch_no": "Ch. 8",
			"ch_name": "Temple Service and Takultu Manuals",
			"ch_num_name": "Ch. 8 (Temple Service and Takultu Manuals)"
		},
		"geometry": {
			"type": "Point",
			"coordinates": [38.9061,37.05]
		}
	}, {
		"type": "Feature",
		"properties": {
			"project": "huzirina",
			"id_text": "P338675",
			"primary_publication": "STT 360",
			"museum_no": "AMM —",
			"provenience": "Sultantepe (Huzirina)",
			"excavation_no": "SU 1952, 233",
			"archive": "001 -  Qurdi-Nergal Archive",
			"date": "7th century",
			"atae_attribution": "Adapted from Alasdair Livingstone, Court Poetry and Literary Miscellanea (State Archives of Assyria, 3), 1989. Lemmatised by Mikko Luukko, 2019-20, as part of the research programme of the Alexander von Humboldt Chair in the Ancient History of the Near and Middle East at LMU Munich (Karen Radner, Humboldt Professorship 2015). The annotated edition is released under the Creative Commons Attribution Share-Alike license 3.0.",
			"cite_as": "Please cite this page as http://oracc.org/atae/P338675/.",
			"collection": "Anadolu Medeniyetleri Müzesi, Ankara, Turkey",
			"composite_witness": "witness",
			"credits": "Adapted from Alasdair Livingstone, Court Poetry and Literary Miscellanea (State Archives of Assyria, 3), 1989. Lemmatised by Mikko Luukko, 2019-20, as part of the research programme of the Alexander von Humboldt Chair in the Ancient History of the Near and Middle East at LMU Munich (Karen Radner, Humboldt Professorship 2015). The annotated edition is released under the Creative Commons Attribution Share-Alike license 3.0. Please cite this page as http://oracc.org/atae/P338675/.",
			"date_of_origin": "00.000.00.00",
			"designation": "STT 360",
			"display_name": "SAA 03 016",
			"genre": "Literary Work",
			"has_date": "no",
			"language": "Akkadian",
			"last_mod_by": "Jamie Novotny",
			"last_modified": "30.01.2022",
			"list_name": "atae/huzirina:P338675",
			"material": "clay",
			"object_type": "tablet",
			"period": "Neo-Assyrian",
			"pleiades_id": "9249509021",
			"ruler": "uncertain",
			"script": "Neo-Assyrian",
			"script_remarks": "inscribed",
			"script_type": "Cuneiform",
			"ch_no": "Ch. 2",
			"ch_name": "Elegaic and Other Poetry",
			"ch_num_name": "Ch. 2 (Elegaic and Other Poetry)"
		},
		"geometry": {
			"type": "Point",
			"coordinates": [38.9061,37.05]
		}
	}, {
		"type": "Feature",
		"properties": {
			"project": "huzirina",
			"id_text": "P338681",
			"primary_publication": "STT 366",
			"museum_no": "AMM —",
			"provenience": "Sultantepe (Huzirina)",
			"excavation_no": "SU 1951, 003",
			"archive": "001 -  Qurdi-Nergal Archive",
			"date": "7th century",
			"atae_attribution": "Adapted from Alasdair Livingstone, Court Poetry and Literary Miscellanea (State Archives of Assyria, 3), 1989. Lemmatised by Mikko Luukko, 2019-20, as part of the research programme of the Alexander von Humboldt Chair in the Ancient History of the Near and Middle East at LMU Munich (Karen Radner, Humboldt Professorship 2015). The annotated edition is released under the Creative Commons Attribution Share-Alike license 3.0.",
			"cite_as": "Please cite this page as http://oracc.org/atae/P338681/.",
			"collection": "Anadolu Medeniyetleri Müzesi, Ankara, Turkey",
			"composite_witness": "witness",
			"credits": "Adapted from Alasdair Livingstone, Court Poetry and Literary Miscellanea (State Archives of Assyria, 3), 1989. Lemmatised by Mikko Luukko, 2019-20, as part of the research programme of the Alexander von Humboldt Chair in the Ancient History of the Near and Middle East at LMU Munich (Karen Radner, Humboldt Professorship 2015). The annotated edition is released under the Creative Commons Attribution Share-Alike license 3.0. Please cite this page as http://oracc.org/atae/P338681/.",
			"date_of_origin": "00.000.00.00",
			"designation": "STT 366",
			"display_name": "SAA 03 050",
			"genre": "Literary Work",
			"has_date": "no",
			"language": "Akkadian",
			"last_mod_by": "Jamie Novotny",
			"last_modified": "30.01.2022",
			"list_name": "atae/huzirina:P338681",
			"material": "clay",
			"object_type": "tablet",
			"period": "Neo-Assyrian",
			"pleiades_id": "9249509021",
			"ruler": "uncertain",
			"script": "Neo-Babylonian",
			"script_remarks": "inscribed",
			"script_type": "Cuneiform",
			"ch_no": "Ch. 8",
			"ch_name": "Varia",
			"ch_num_name": "Ch. 8 (Varia)"
		},
		"geometry": {
			"type": "Point",
			"coordinates": [38.9061,37.05]
		}
	}, {
		"type": "Feature",
		"properties": {
			"project": "huzirina",
			"id_text": "P338689",
			"primary_publication": "STT 374",
			"museum_no": "AMM —",
			"provenience": "Sultantepe (Huzirina)",
			"excavation_no": "SU 1952, 305",
			"archive": "001 -  Qurdi-Nergal Archive",
			"date": "680-669",
			"atae_attribution": "Adapted from Simo Parpola, Assyrian Royal Rituals and Cultic Texts (State Archives of Assyria, 20), 2017. Adapted by Jamie Novotny and lemmatised by Mikko Luukko, 2017, as part of the research programme of the Alexander von Humboldt Chair in the Ancient History of the Near and Middle East at LMU Munich (Karen Radner, Humboldt Professorship 2015). The annotated edition is released under the Creative Commons Attribution Share-Alike license 3.0.",
			"cite_as": "Please cite this page as http://oracc.org/atae/P338689/.",
			"collection": "Anadolu Medeniyetleri Müzesi, Ankara, Turkey",
			"composite_witness": "witness",
			"credits": "Adapted from Simo Parpola, Assyrian Royal Rituals and Cultic Texts (State Archives of Assyria, 20), 2017. Adapted by Jamie Novotny and lemmatised by Mikko Luukko, 2017, as part of the research programme of the Alexander von Humboldt Chair in the Ancient History of the Near and Middle East at LMU Munich (Karen Radner, Humboldt Professorship 2015). The annotated edition is released under the Creative Commons Attribution Share-Alike license 3.0. Please cite this page as http://oracc.org/atae/P338689/.",
			"date_of_origin": "Esarhaddon.000.00.00",
			"designation": "STT 374",
			"display_name": "SAA 20 039",
			"genre": "Royal Ritual",
			"has_date": "no",
			"language": "Akkadian",
			"last_mod_by": "Jamie Novotny",
			"last_modified": "30.01.2022",
			"list_name": "atae/huzirina:P338689",
			"material": "clay",
			"object_type": "tablet",
			"period": "Neo-Assyrian",
			"pleiades_id": "9249509021",
			"regnal_dates": "680–669 BC",
			"ruler": "Esarhaddon",
			"script": "Neo-Assyrian",
			"script_remarks": "inscribed",
			"script_type": "Cuneiform",
			"ch_no": "Ch. 8",
			"ch_name": "Temple Service and Takultu Manuals",
			"ch_num_name": "Ch. 8 (Temple Service and Takultu Manuals)"
		},
		"geometry": {
			"type": "Point",
			"coordinates": [38.9061,37.05]
		}
	}, {
		"type": "Feature",
		"properties": {
			"project": "huzirina",
			"id_text": "P338719",
			"primary_publication": "STT 405",
			"museum_no": "AMM —",
			"provenience": "Sultantepe (Huzirina)",
			"excavation_no": "SU 1952, 220",
			"archive": "001 -  Qurdi-Nergal Archive",
			"atae_attribution": "Created and lemmatized by Greta Van Buylaere for the AHRC-funded Geography of Knowledge in Assyria and Babylonia: A Diachronic Analysis of Four Scholarly Libraries Project (GKAB), 2009, a sub-project of the Corpus of Ancient Mesopotamian Scholarship (CAMS) Project, directed by Eleanor Robson. The annotated edition is released under the Creative Commons Attribution Share-Alike license 3.0.",
			"cite_as": "Please cite this page as http://oracc.org/atae/P338719/.",
			"collection": "Anadolu Medeniyetleri Müzesi, Ankara, Turkey",
			"composite_witness": "witness",
			"credits": "Created and lemmatized by Greta Van Buylaere for the AHRC-funded Geography of Knowledge in Assyria and Babylonia: A Diachronic Analysis of Four Scholarly Libraries Project (GKAB), 2009, a sub-project of the Corpus of Ancient Mesopotamian Scholarship (CAMS) Project, directed by Eleanor Robson. The annotated edition is released under the Creative Commons Attribution Share-Alike license 3.0. Please cite this page as http://oracc.org/atae/P338719/.",
			"date_of_origin": "00.000.00.00",
			"designation": "STT 405",
			"display_name": "STT 405",
			"genre": "Administrative",
			"has_date": "no",
			"language": "Akkadian",
			"last_mod_by": "Jamie Novotny",
			"last_modified": "30.01.2022",
			"list_name": "atae/huzirina:P338719",
			"material": "clay",
			"object_type": "tablet",
			"period": "Neo-Assyrian",
			"pleiades_id": "9249509021",
			"script": "Neo-Assyrian",
			"script_remarks": "inscribed",
			"script_type": "Cuneiform",
			"subgenre": "Account of 30 homers",
			"ch_no": "Ch. 8",
			"ch_name": "Temple Service and Takultu Manuals",
			"ch_num_name": "Ch. 8 (Temple Service and Takultu Manuals)"
		},
		"geometry": {
			"type": "Point",
			"coordinates": [38.9061,37.05]
		}
	}, {
		"type": "Feature",
		"properties": {
			"project": "huzirina",
			"id_text": "P338720",
			"primary_publication": "STT 406+",
			"museum_no": "AMM —",
			"provenience": "Sultantepe (Huzirina)",
			"excavation_no": "SU 1951, 118 + SU 1951, 147b + SU 1951, 184 + SU 1951, 057",
			"archive": "001 -  Qurdi-Nergal Archive",
			"date": "668-ca. 631",
			"atae_attribution": "Adapted from Laura Kataja and Robert M. Whiting, Grants, Decrees and Gifts of the Neo-Assyrian Period (State Archives of Assyria, 12), 1995.  Lemmatised by Mikko Luukko, 2018, as part of the research programme of the Alexander von Humboldt Chair in the Ancient History of the Near and Middle East at LMU Munich (Karen Radner, Humboldt Professorship 2015). The annotated edition is released under the Creative Commons Attribution Share-Alike license 3.0.",
			"cite_as": "Please cite this page as http://oracc.org/atae/P338720/.",
			"collection": "Anadolu Medeniyetleri Müzesi, Ankara, Turkey",
			"composite_witness": "witness",
			"credits": "Adapted from Laura Kataja and Robert M. Whiting, Grants, Decrees and Gifts of the Neo-Assyrian Period (State Archives of Assyria, 12), 1995.  Lemmatised by Mikko Luukko, 2018, as part of the research programme of the Alexander von Humboldt Chair in the Ancient History of the Near and Middle East at LMU Munich (Karen Radner, Humboldt Professorship 2015). The annotated edition is released under the Creative Commons Attribution Share-Alike license 3.0. Please cite this page as http://oracc.org/atae/P338720/.",
			"date_of_origin": "Assurbanipal.000.00.00",
			"designation": "STT 406+",
			"display_name": "SAA 12 091",
			"genre": "Votive Donation",
			"has_date": "no",
			"language": "Akkadian",
			"last_mod_by": "Jamie Novotny",
			"last_modified": "30.01.2022",
			"list_name": "atae/huzirina:P338720",
			"material": "clay",
			"object_type": "tablet",
			"period": "Neo-Assyrian",
			"pleiades_id": "9249509021",
			"regnal_dates": "668–ca. 631 BC",
			"ruler": "Ashurbanipal",
			"script": "Neo-Assyrian",
			"script_remarks": "inscribed",
			"script_type": "Cuneiform",
			"ch_no": "Ch. 6",
			"ch_name": "Royal Votive Donations and Gifts",
			"ch_num_name": "Ch. 6 (Royal Votive Donations and Gifts)"
		},
		"geometry": {
			"type": "Point",
			"coordinates": [38.9061,37.05]
		}
	}, {
		"type": "Feature",
		"properties": {
			"project": "huzirina",
			"id_text": "P338308",
			"primary_publication": "SU 1951, 036",
			"museum_no": "AMM —",
			"provenience": "Sultantepe (Huzirina)",
			"excavation_no": "SU 1951, 036",
			"archive": "099 - Miscellaneous",
			"date": "[...]-V-24",
			"long_date": "[Ab]u 24th, epony[my of ...]",
			"atae_attribution": "Adapted from J.J. Finkelstein, &quot;Assyrian Contracts from Sultantepe,” Anatolian Studies 7 (1957): 137-145, by Jamie Novotny and Poppy Tushingham (2021) for the Munich Open-access Cuneiform Corpus Initiative (MOCCI), which is funded by LMU Munich and the Alexander von Humboldt Foundation at the Historisches Seminar - Abteilung Alte Geschichte of Ludwig-Maximilians-Universität München. The online edition is released under the Creative Commons Attribution Share-Alike license 3.0.",
			"cite_as": "Please cite this page as http://oracc.org/atae/P338308/.",
			"collection": "Anadolu Medeniyetleri Müzesi, Ankara, Turkey",
			"composite_witness": "witness",
			"credits": "Adapted from J.J. Finkelstein, &quot;Assyrian Contracts from Sultantepe,” Anatolian Studies 7 (1957): 137-145, by Jamie Novotny and Poppy Tushingham (2021) for the Munich Open-access Cuneiform Corpus Initiative (MOCCI), which is funded by LMU Munich and the Alexander von Humboldt Foundation at the Historisches Seminar - Abteilung Alte Geschichte of Ludwig-Maximilians-Universität München. The online edition is released under the Creative Commons Attribution Share-Alike license 3.0. Please cite this page as http://oracc.org/atae/P338308/.",
			"date_gen": "[...]-V-24",
			"date_of_origin": "00.000.05.24",
			"day": "24",
			"designation": "SU 1951, 036",
			"display_name": "SU 1951, 036",
			"genre": "Administrative",
			"has_date": "yes, but date partially preserved",
			"language": "Akkadian",
			"last_mod_by": "Jamie Novotny",
			"last_modified": "05.04.2021",
			"list_name": "atae/huzirina:P338308",
			"long_date_gen": "Abu 24th, [eponymy of ...]",
			"material": "clay",
			"month": "V",
			"object_type": "tablet",
			"period": "Neo-Assyrian",
			"pleiades_id": "9249509021",
			"script": "Neo-Assyrian",
			"script_remarks": "inscribed",
			"script_type": "Cuneiform",
			"year": "[...]",
			"ch_no": "Ch. 1",
			"ch_name": "Hymns to Gods, Temples, Cities and Kings",
			"ch_num_name": "Ch. 1 (Hymns to Gods, Temples, Cities and Kings)"
		},
		"geometry": {
			"type": "Point",
			"coordinates": [38.9061,37.05]
		}
	}, {
		"type": "Feature",
		"properties": {
			"project": "huzirina",
			"id_text": "P338309",
			"primary_publication": "SU 1951, 043",
			"museum_no": "AMM —",
			"provenience": "Sultantepe (Huzirina)",
			"excavation_no": "SU 1951, 043",
			"archive": "099 - Miscellaneous",
			"date": "674-II-16",
			"long_date": "Ayyāru 16th, [ep]onymy of Šarru-nūri,  governor of Barhalzi",
			"atae_attribution": "Adapted from J.J. Finkelstein, &quot;Assyrian Contracts from Sultantepe,” Anatolian Studies 7 (1957): 137-145, by Jamie Novotny and Poppy Tushingham (2021) for the Munich Open-access Cuneiform Corpus Initiative (MOCCI), which is funded by LMU Munich and the Alexander von Humboldt Foundation at the Historisches Seminar - Abteilung Alte Geschichte of Ludwig-Maximilians-Universität München. The online edition is released under the Creative Commons Attribution Share-Alike license 3.0.",
			"cite_as": "Please cite this page as http://oracc.org/atae/P338309/.",
			"collection": "Anadolu Medeniyetleri Müzesi, Ankara, Turkey",
			"composite_witness": "witness",
			"credits": "Adapted from J.J. Finkelstein, &quot;Assyrian Contracts from Sultantepe,” Anatolian Studies 7 (1957): 137-145, by Jamie Novotny and Poppy Tushingham (2021) for the Munich Open-access Cuneiform Corpus Initiative (MOCCI), which is funded by LMU Munich and the Alexander von Humboldt Foundation at the Historisches Seminar - Abteilung Alte Geschichte of Ludwig-Maximilians-Universität München. The online edition is released under the Creative Commons Attribution Share-Alike license 3.0. Please cite this page as http://oracc.org/atae/P338309/.",
			"date_gen": "674-II-16",
			"date_of_origin": "Esarhaddon.limu Sharru-nuri.02.16",
			"day": "16",
			"designation": "SU 1951, 043",
			"display_name": "SU 1951, 043",
			"eponym": "Šarru-nūrī",
			"genre": "Administrative",
			"has_date": "yes",
			"language": "Akkadian",
			"last_mod_by": "Jamie Novotny",
			"last_modified": "05.04.2021",
			"list_name": "atae/huzirina:P338309",
			"long_date_gen": "Ayyāru 16th, eponymy of Šarru-nūrī",
			"material": "clay",
			"month": "II",
			"object_type": "tablet",
			"period": "Neo-Assyrian",
			"pleiades_id": "9249509021",
			"regnal_dates": "680–669 BC",
			"ruler": "Esarhaddon",
			"script": "Neo-Assyrian",
			"script_remarks": "inscribed",
			"script_type": "Cuneiform",
			"year": "674",
			"ch_no": "Ch. 1",
			"ch_name": "Hymns to Gods, Temples, Cities and Kings",
			"ch_num_name": "Ch. 1 (Hymns to Gods, Temples, Cities and Kings)"
		},
		"geometry": {
			"type": "Point",
			"coordinates": [38.9061,37.05]
		}
	}, {
		"type": "Feature",
		"properties": {
			"project": "huzirina",
			"id_text": "X195702",
			"primary_publication": "SU 1951, 043a",
			"museum_no": "AMM —",
			"provenience": "Sultantepe (Huzirina)",
			"excavation_no": "SU 1951, 043a",
			"archive": "099 - Miscellaneous",
			"date": "684-VII-28",
			"long_date": "Tašrītu 28th, eponymy of Manza[rnê], governor of Kulla[nia].",
			"atae_attribution": "Adapted from J.J. Finkelstein, &quot;Assyrian Contracts from Sultantepe,” Anatolian Studies 7 (1957): 137-145, by Jamie Novotny and Poppy Tushingham (2021) for the Munich Open-access Cuneiform Corpus Initiative (MOCCI), which is funded by LMU Munich and the Alexander von Humboldt Foundation at the Historisches Seminar - Abteilung Alte Geschichte of Ludwig-Maximilians-Universität München. The online edition is released under the Creative Commons Attribution Share-Alike license 3.0.",
			"cite_as": "Please cite this page as http://oracc.org/atae/X195702/.",
			"collection": "Anadolu Medeniyetleri Müzesi, Ankara, Turkey",
			"composite_witness": "witness",
			"credits": "Adapted from J.J. Finkelstein, &quot;Assyrian Contracts from Sultantepe,” Anatolian Studies 7 (1957): 137-145, by Jamie Novotny and Poppy Tushingham (2021) for the Munich Open-access Cuneiform Corpus Initiative (MOCCI), which is funded by LMU Munich and the Alexander von Humboldt Foundation at the Historisches Seminar - Abteilung Alte Geschichte of Ludwig-Maximilians-Universität München. The online edition is released under the Creative Commons Attribution Share-Alike license 3.0. Please cite this page as http://oracc.org/atae/X195702/.",
			"date_gen": "684-VII-28",
			"date_of_origin": "Sennacherib.limu Manzerne.07.28",
			"day": "28",
			"designation": "SU 1951, 043a",
			"display_name": "SU 1951, 043a",
			"eponym": "Manzernê",
			"external_id": "X195702",
			"genre": "Administrative",
			"has_date": "yes",
			"language": "Akkadian",
			"last_mod_by": "Jamie Novotny",
			"last_modified": "30.01.2022",
			"list_name": "atae/huzirina:X195702",
			"long_date_gen": "Tašrītu 28th, eponymy of Manzernê",
			"material": "clay",
			"month": "VII",
			"object_type": "tablet",
			"period": "Neo-Assyrian",
			"pleiades_id": "9249509021",
			"regnal_dates": "704–681 BC",
			"ruler": "Sennacherib",
			"script": "Neo-Assyrian",
			"script_remarks": "inscribed",
			"script_type": "Cuneiform",
			"temp_id": "X195702",
			"year": "684",
			"ch_no": "Ch. 1",
			"ch_name": "Hymns to Gods, Temples, Cities and Kings",
			"ch_num_name": "Ch. 1 (Hymns to Gods, Temples, Cities and Kings)"
		},
		"geometry": {
			"type": "Point",
			"coordinates": [38.9061,37.05]
		}
	}, {
		"type": "Feature",
		"properties": {
			"project": "huzirina",
			"id_text": "X195701",
			"primary_publication": "SU 1951, 044",
			"museum_no": "AMM —",
			"provenience": "Sultantepe (Huzirina)",
			"excavation_no": "SU 1951, 044",
			"archive": "099 - Miscellaneous",
			"atae_attribution": "Adapted from J.J. Finkelstein, &quot;Assyrian Contracts from Sultantepe,” Anatolian Studies 7 (1957): 137-145, by Jamie Novotny and Poppy Tushingham (2021) for the Munich Open-access Cuneiform Corpus Initiative (MOCCI), which is funded by LMU Munich and the Alexander von Humboldt Foundation at the Historisches Seminar - Abteilung Alte Geschichte of Ludwig-Maximilians-Universität München. The online edition is released under the Creative Commons Attribution Share-Alike license 3.0.",
			"cite_as": "Please cite this page as http://oracc.org/atae/X195701/.",
			"collection": "Anadolu Medeniyetleri Müzesi, Ankara, Turkey",
			"composite_witness": "witness",
			"credits": "Adapted from J.J. Finkelstein, &quot;Assyrian Contracts from Sultantepe,” Anatolian Studies 7 (1957): 137-145, by Jamie Novotny and Poppy Tushingham (2021) for the Munich Open-access Cuneiform Corpus Initiative (MOCCI), which is funded by LMU Munich and the Alexander von Humboldt Foundation at the Historisches Seminar - Abteilung Alte Geschichte of Ludwig-Maximilians-Universität München. The online edition is released under the Creative Commons Attribution Share-Alike license 3.0. Please cite this page as http://oracc.org/atae/X195701/.",
			"date_of_origin": "00.000.00.00",
			"designation": "SU 1951, 044",
			"display_name": "SU 1951, 044",
			"external_id": "X195701",
			"genre": "Administrative",
			"has_date": "no",
			"language": "Akkadian",
			"last_mod_by": "Jamie Novotny",
			"last_modified": "27.03.2021",
			"list_name": "atae/huzirina:X195701",
			"material": "clay",
			"object_type": "tablet",
			"period": "Neo-Assyrian",
			"pleiades_id": "9249509021",
			"script": "Neo-Assyrian",
			"script_remarks": "inscribed",
			"script_type": "Cuneiform",
			"temp_id": "X195701",
			"ch_no": "Ch. 1",
			"ch_name": "Hymns to Gods, Temples, Cities and Kings",
			"ch_num_name": "Ch. 1 (Hymns to Gods, Temples, Cities and Kings)"
		},
		"geometry": {
			"type": "Point",
			"coordinates": [38.9061,37.05]
		}
	}]
}
