{
	"type": "FeatureCollection",
	"features": [{
		"type": "Feature",
		"properties": {
			"designation": "SAA 02 001",
			"atae_lists": "atae/saao:P240211",
			"has_date": "unknown",
			"accession_no": "Rm 2, 427",
			"archive": "099 - Miscellaneous",
			"cdli_accession_no": "Rm 2, 427",
			"cdli_id": "P240211",
			"cdli_museum_no": "BM —",
			"ch_name": "Treaties of the Ninth and Eighth Centuries B.C.",
			"ch_no": "Ch. 1",
			"ch_num_name": "Ch. 1 (Treaties of the Ninth and Eighth Centuries B.C.)",
			"collection": "British Museum, London, UK",
			"comp_wit": "witness",
			"credits": "Adapted from Simo Parpola and Kazuko Watanabe, Neo-Assyrian Treaties and Loyalty Oaths (State Archives of Assyria, 2), 1988. Lemmatised by Mikko Luukko, 2016, as part of the research programme of the Alexander von Humboldt Chair in the Ancient History of the Near and Middle East at LMU Munich (Karen Radner, Humboldt Professorship 2015). The annotated edition is released under the Creative Commons Attribution Share-Alike license 3.0. Please cite this page as http://oracc.org/saao/P240211/.",
			"date_of_origin": "Shamshi-Adad5.000.00.00",
			"display_name": "SAA 02 001",
			"edited_twice": "no",
			"genre": "Treaty",
			"id_text": "P240211",
			"language": "Akkadian",
			"material": "clay",
			"museum_no": "BM —",
			"object_type": "tablet",
			"oracc_header": "&amp;P240211 = SAA 02 001#project: saao/saa22#atf: lang nb#key: file=SAA22/SAA22.saa#key: musno=Rm 2, 427#key: cdli=Rm 2, 427#key: date=Šamši-Adad V#key: writer=#key: preservation=",
			"other_pub": "AfO 08 28",
			"period": "Neo-Assyrian",
			"please_cite": "Please cite this page as http://oracc.org/saao/P240211/.",
			"pleiades_id": "874621",
			"primary_publication": "AfO 08 28",
			"project": "saa02",
			"proposed_date": "(ca. 822)",
			"provenience": "Kuyunjik (Nineveh)",
			"publication_history": "SAA 02, 001",
			"regnal_dates": "823–811 BC",
			"rework": "no",
			"ruler": "Šamši-Adad V",
			"saa_attribution": "Adapted from Simo Parpola and Kazuko Watanabe, Neo-Assyrian Treaties and Loyalty Oaths (State Archives of Assyria, 2), 1988. Lemmatised by Mikko Luukko, 2016, as part of the research programme of the Alexander von Humboldt Chair in the Ancient History of the Near and Middle East at LMU Munich (Karen Radner, Humboldt Professorship 2015). The annotated edition is released under the Creative Commons Attribution Share-Alike license 3.0.",
			"saa_cdli_accession": "yes",
			"saa_cdli_id": "yes",
			"saa_cdli_museum": "yes",
			"saao_lists": "saao/saa02:P240211",
			"script": "Neo-Babylonian",
			"script_remarks": "inscribed",
			"script_type": "Cuneiform",
			"secondary_record": "no",
			"short_title": "Treaties and Loyalty Oaths",
			"title": "Treaty of Šamši-Adad V with Marduk-zakir-šumi, King of Babylon",
			"vol_title": "Neo-Assyrian Treaties and Loyalty Oaths",
			"volume": "SAA 2"
		},
		"geometry": {
			"type": "Point",
			"coordinates": [43.151937,36.358684]
		}
	}, {
		"type": "Feature",
		"properties": {
			"designation": "SAA 02 002",
			"atae_lists": "atae/saao:P336039",
			"has_date": "unknown",
			"accession_no": "K 15272 + Rm 0120 + Rm 0274  (+) 1879-07-08, 0195 (+) 1932-12-12, 0591",
			"archive": "099 - Miscellaneous",
			"cdli_accession_no": "K 15272 + Rm 0120 + Rm 0274  (+) 1879-07-08, 0195 (+) 1932-12-12, 0591",
			"cdli_id": "P336039",
			"cdli_museum_no": "BM 134596",
			"ch_name": "Treaties of the Ninth and Eighth Centuries B.C.",
			"ch_no": "Ch. 1",
			"ch_num_name": "Ch. 1 (Treaties of the Ninth and Eighth Centuries B.C.)",
			"collection": "British Museum, London, UK",
			"comp_wit": "witness",
			"credits": "Adapted from Simo Parpola and Kazuko Watanabe, Neo-Assyrian Treaties and Loyalty Oaths (State Archives of Assyria, 2), 1988. Lemmatised by Mikko Luukko, 2016, as part of the research programme of the Alexander von Humboldt Chair in the Ancient History of the Near and Middle East at LMU Munich (Karen Radner, Humboldt Professorship 2015). The annotated edition is released under the Creative Commons Attribution Share-Alike license 3.0. Please cite this page as http://oracc.org/saao/P336039/.",
			"date_of_origin": "00.000.00.00",
			"display_name": "SAA 02 002",
			"edited_twice": "no",
			"genre": "Treaty",
			"id_text": "P336039",
			"language": "Akkadian",
			"material": "clay",
			"museum_no": "BM 134596",
			"object_type": "tablet",
			"oracc_header": "&amp;P336039 = SAA 02 002#project: saao/saa22#atf: lang nb#key: file=SAA22/SAA22.saa#key: musno=K 15272 + Rm 0120 + Rm 0274  (+) 1879-07-08, 0195 (+) 1932-12-12, 0591#key: cdli=K 15272 + Rm 0120 + Rm 0274  (+) 1879-07-08, 0195 (+) 1932-12-12, 0591#key: date=Aššur-nerari V#key: writer=#key: preservation=",
			"other_pub": "AfO 08 17+",
			"period": "Neo-Assyrian",
			"please_cite": "Please cite this page as http://oracc.org/saao/P336039/.",
			"pleiades_id": "874621",
			"primary_publication": "AfO 08 17+",
			"project": "saa02",
			"proposed_date": "(ca. 754)",
			"provenience": "Kuyunjik (Nineveh)",
			"publication_history": "SAA 02, 002",
			"rework": "no",
			"ruler": "Aššur-nerari V",
			"saa_attribution": "Adapted from Simo Parpola and Kazuko Watanabe, Neo-Assyrian Treaties and Loyalty Oaths (State Archives of Assyria, 2), 1988. Lemmatised by Mikko Luukko, 2016, as part of the research programme of the Alexander von Humboldt Chair in the Ancient History of the Near and Middle East at LMU Munich (Karen Radner, Humboldt Professorship 2015). The annotated edition is released under the Creative Commons Attribution Share-Alike license 3.0.",
			"saa_cdli_accession": "yes",
			"saa_cdli_id": "yes",
			"saa_cdli_museum": "yes",
			"saao_lists": "saao/saa02:P336039",
			"script": "Neo-Assyrian",
			"script_remarks": "inscribed",
			"script_type": "Cuneiform",
			"secondary_record": "no",
			"short_title": "Treaties and Loyalty Oaths",
			"title": "Treaty of Aššur-nerari V with Mati’-ilu, King of Arpad",
			"vol_title": "Neo-Assyrian Treaties and Loyalty Oaths",
			"volume": "SAA 2"
		},
		"geometry": {
			"type": "Point",
			"coordinates": [43.151937,36.358684]
		}
	}, {
		"type": "Feature",
		"properties": {
			"designation": "SAA 02 003",
			"atae_lists": "atae/saao:P336317",
			"has_date": "unknown",
			"archive": "099 - Miscellaneous",
			"cdli_id": "P336317",
			"cdli_museum_no": "VAT 11449",
			"ch_name": "Treaties of the Seventh Century B.C.",
			"ch_no": "Ch. 2",
			"ch_num_name": "Ch. 2 (Treaties of the Seventh Century B.C.)",
			"collection": "Vorderasiatisches Museum, Berlin, Germany",
			"comp_wit": "witness",
			"credits": "Adapted from Simo Parpola and Kazuko Watanabe, Neo-Assyrian Treaties and Loyalty Oaths (State Archives of Assyria, 2), 1988. Lemmatised by Mikko Luukko, 2016, as part of the research programme of the Alexander von Humboldt Chair in the Ancient History of the Near and Middle East at LMU Munich (Karen Radner, Humboldt Professorship 2015). The annotated edition is released under the Creative Commons Attribution Share-Alike license 3.0. Please cite this page as http://oracc.org/saao/P336317/.",
			"date_of_origin": "Sennacherib.000.00.00",
			"display_name": "SAA 02 003",
			"edited_twice": "no",
			"genre": "Treaty",
			"id_text": "P336317",
			"language": "Akkadian",
			"material": "clay",
			"museum_no": "VAT 11449",
			"object_type": "tablet",
			"oracc_header": "&amp;P336317 = SAA 02 003#project: saao/saa22#atf: lang nb#key: file=SAA22/SAA22.saa#key: musno=#key: cdli=#key: date=Sennacherib#key: writer=#key: preservation=",
			"period": "Neo-Assyrian",
			"pkta_no": "PKTA 31",
			"please_cite": "Please cite this page as http://oracc.org/saao/P336317/.",
			"pleiades_id": "893945",
			"primary_publication": "PKTA 31",
			"project": "saa02",
			"proposed_date": "(683 or 682)",
			"provenience": "Qalat Sherqat (Assur)",
			"publication_history": "SAA 02, 003",
			"regnal_dates": "704–681 BC",
			"rework": "no",
			"ruler": "Sennacherib",
			"saa_attribution": "Adapted from Simo Parpola and Kazuko Watanabe, Neo-Assyrian Treaties and Loyalty Oaths (State Archives of Assyria, 2), 1988. Lemmatised by Mikko Luukko, 2016, as part of the research programme of the Alexander von Humboldt Chair in the Ancient History of the Near and Middle East at LMU Munich (Karen Radner, Humboldt Professorship 2015). The annotated edition is released under the Creative Commons Attribution Share-Alike license 3.0.",
			"saa_cdli_id": "yes",
			"saa_cdli_museum": "yes",
			"saao_lists": "saao/saa02:P336317",
			"script": "Neo-Assyrian",
			"script_remarks": "inscribed",
			"script_type": "Cuneiform",
			"secondary_record": "no",
			"short_title": "Treaties and Loyalty Oaths",
			"title": "Sennacherib’s Succession Treaty",
			"vol_title": "Neo-Assyrian Treaties and Loyalty Oaths",
			"volume": "SAA 2"
		},
		"geometry": {
			"type": "Point",
			"coordinates": [43.262037,35.458121]
		}
	}, {
		"type": "Feature",
		"properties": {
			"designation": "SAA 02 004",
			"atae_lists": "atae/saao:P314346",
			"has_date": "unknown",
			"accession_no": "1883-01-18, 0420 (+) 1883-01-18, 0493 (+) 1891-05-09 Bu, 0131",
			"archive": "099 - Miscellaneous",
			"cdli_accession_no": "1883-01-18, 0420 (+) 1883-01-18, 0493 (+) 1891-05-09 Bu, 0131",
			"cdli_id": "P314346",
			"cdli_museum_no": "BM —",
			"ch_name": "Treaties of the Seventh Century B.C.",
			"ch_no": "Ch. 2",
			"ch_num_name": "Ch. 2 (Treaties of the Seventh Century B.C.)",
			"collection": "British Museum, London, UK",
			"comp_wit": "witness",
			"credits": "Adapted from Simo Parpola and Kazuko Watanabe, Neo-Assyrian Treaties and Loyalty Oaths (State Archives of Assyria, 2), 1988. Lemmatised by Mikko Luukko, 2016, as part of the research programme of the Alexander von Humboldt Chair in the Ancient History of the Near and Middle East at LMU Munich (Karen Radner, Humboldt Professorship 2015). The annotated edition is released under the Creative Commons Attribution Share-Alike license 3.0. Please cite this page as http://oracc.org/saao/P314346/.",
			"date_of_origin": "Esarhaddon.000.00.00",
			"display_name": "SAA 02 004",
			"edited_twice": "no",
			"genre": "Treaty",
			"id_text": "P314346",
			"language": "Akkadian",
			"material": "clay",
			"museum_no": "BM —",
			"object_type": "tablet",
			"oracc_header": "&amp;P314346 = SAA 02 004#project: saao/saa22#atf: lang nb#key: file=SAA22/SAA22.saa#key: musno=1883-01-18, 0420 (+) 1883-01-18, 0493 (+) 1891-05-09 Bu, 0131#key: cdli=1883-01-18, 0420 (+) 1883-01-18, 0493 (+) 1891-05-09 Bu, 0131#key: date=Esarhaddon#key: writer=#key: preservation=",
			"other_pub": "JCS 39 187",
			"period": "Neo-Assyrian",
			"please_cite": "Please cite this page as http://oracc.org/saao/P314346/.",
			"pleiades_id": "874621",
			"primary_publication": "JCS 39 187",
			"project": "saa02",
			"proposed_date": "(681)",
			"provenience": "Kuyunjik (Nineveh)",
			"publication_history": "SAA 02, 004",
			"regnal_dates": "680–669 BC",
			"rework": "no",
			"ruler": "Esarhaddon",
			"saa_attribution": "Adapted from Simo Parpola and Kazuko Watanabe, Neo-Assyrian Treaties and Loyalty Oaths (State Archives of Assyria, 2), 1988. Lemmatised by Mikko Luukko, 2016, as part of the research programme of the Alexander von Humboldt Chair in the Ancient History of the Near and Middle East at LMU Munich (Karen Radner, Humboldt Professorship 2015). The annotated edition is released under the Creative Commons Attribution Share-Alike license 3.0.",
			"saa_cdli_accession": "yes",
			"saa_cdli_id": "yes",
			"saa_cdli_museum": "yes",
			"saao_lists": "saao/saa02:P314346",
			"script": "Neo-Assyrian",
			"script_remarks": "inscribed",
			"script_type": "Cuneiform",
			"secondary_record": "no",
			"short_title": "Treaties and Loyalty Oaths",
			"title": "Accession Treaty of Esarhaddon",
			"vol_title": "Neo-Assyrian Treaties and Loyalty Oaths",
			"volume": "SAA 2"
		},
		"geometry": {
			"type": "Point",
			"coordinates": [43.151937,36.358684]
		}
	}, {
		"type": "Feature",
		"properties": {
			"designation": "SAA 02 005",
			"atae_lists": "atae/saao:P336126",
			"has_date": "no",
			"accession_no": "K 03500 + K 04444 + K 10235 (+) Sm 0964",
			"archive": "099 - Miscellaneous",
			"cdli_accession_no": "K 03500 + K 04444 + K 10235 (+) Sm 0964",
			"cdli_id": "P336126",
			"cdli_museum_no": "BM —",
			"ch_name": "Treaties of the Seventh Century B.C.",
			"ch_no": "Ch. 2",
			"ch_num_name": "Ch. 2 (Treaties of the Seventh Century B.C.)",
			"collection": "British Museum, London, UK",
			"comp_wit": "witness",
			"credits": "Adapted from Simo Parpola and Kazuko Watanabe, Neo-Assyrian Treaties and Loyalty Oaths (State Archives of Assyria, 2), 1988. Lemmatised by Mikko Luukko, 2016, as part of the research programme of the Alexander von Humboldt Chair in the Ancient History of the Near and Middle East at LMU Munich (Karen Radner, Humboldt Professorship 2015). The annotated edition is released under the Creative Commons Attribution Share-Alike license 3.0. Please cite this page as http://oracc.org/saao/P336126/.",
			"date_of_origin": "Esarhaddon.000.00.00",
			"display_name": "SAA 02 005",
			"edited_twice": "no",
			"genre": "Treaty",
			"id_text": "P336126",
			"language": "Akkadian",
			"material": "clay",
			"museum_no": "BM —",
			"object_type": "tablet",
			"oracc_header": "&amp;P336126 = SAA 02 005#project: saao/saa22#atf: lang nb#key: file=SAA22/SAA22.saa#key: musno=K 03500 + K 04444 + K 10235 (+) Sm 0964#key: cdli=K 03500 + K 04444 + K 10235 (+) Sm 0964#key: date=Esarhaddon#key: writer=#key: preservation=",
			"other_pub": "Ash pl. 3+",
			"period": "Neo-Assyrian",
			"please_cite": "Please cite this page as http://oracc.org/saao/P336126/.",
			"pleiades_id": "874621",
			"primary_publication": "Ash pl. 3+",
			"project": "saa02",
			"proposed_date": "(676)",
			"provenience": "Kuyunjik (Nineveh)",
			"publication_history": "SAA 02, 005",
			"regnal_dates": "680–669 BC",
			"rework": "no",
			"ruler": "Esarhaddon",
			"saa_attribution": "Adapted from Simo Parpola and Kazuko Watanabe, Neo-Assyrian Treaties and Loyalty Oaths (State Archives of Assyria, 2), 1988. Lemmatised by Mikko Luukko, 2016, as part of the research programme of the Alexander von Humboldt Chair in the Ancient History of the Near and Middle East at LMU Munich (Karen Radner, Humboldt Professorship 2015). The annotated edition is released under the Creative Commons Attribution Share-Alike license 3.0.",
			"saa_cdli_accession": "yes",
			"saa_cdli_id": "yes",
			"saa_cdli_museum": "yes",
			"saao_lists": "saao/saa02:P336126",
			"script": "Neo-Assyrian",
			"script_remarks": "inscribed",
			"script_type": "Cuneiform",
			"secondary_record": "no",
			"short_title": "Treaties and Loyalty Oaths",
			"title": "Esarhaddon’s Treaty with Baal, King of Tyre",
			"vol_title": "Neo-Assyrian Treaties and Loyalty Oaths",
			"volume": "SAA 2"
		},
		"geometry": {
			"type": "Point",
			"coordinates": [43.151937,36.358684]
		}
	}, {
		"type": "Feature",
		"properties": {
			"designation": "SAA 02 006",
			"atae_lists": "atae/saao:Q009186",
			"has_date": "yes",
			"date": "672-II-18",
			"year": "672",
			"month": "II",
			"day": "18",
			"archive": "099 - Miscellaneous",
			"cdli_accession_no": "1959-04-14, 0009",
			"cdli_excavation_no": "ND 04336",
			"cdli_id": "P336598",
			"cdli_museum_no": "BM 132548",
			"ch_name": "Treaties of the Seventh Century B.C.",
			"ch_no": "Ch. 2",
			"ch_num_name": "Ch. 2 (Treaties of the Seventh Century B.C.)",
			"comp_wit": "composite",
			"credits": "Adapted from Simo Parpola and Kazuko Watanabe, Neo-Assyrian Treaties and Loyalty Oaths (State Archives of Assyria, 2), 1988. Lemmatised by Mikko Luukko, 2016, as part of the research programme of the Alexander von Humboldt Chair in the Ancient History of the Near and Middle East at LMU Munich (Karen Radner, Humboldt Professorship 2015). The annotated edition is released under the Creative Commons Attribution Share-Alike license 3.0. Please cite this page as http://oracc.org/saao/Q009186/.",
			"date_gen": "672-II-18",
			"date_of_origin": "Esarhaddon.limu Nabu-belu-usur.02.18",
			"display_name": "SAA 02 006",
			"edited_twice": "no",
			"eponym": "Nabû-bēlu-uṣur",
			"genre": "Treaty",
			"id_text": "Q009186",
			"language": "Akkadian",
			"long_date": "Ayyāru 18th, eponymy of Nabû-bēlu-uṣur, governor of Dūr-Šarrukku",
			"long_date_gen": "Ayyāru 18th, eponymy of Nabû-bēlu-uṣur",
			"material": "clay",
			"object_type": "tablet",
			"oracc_header": "&amp;Q009186 = SAA 02 006#project: saao/saa22#atf: lang nb#key: file=SAA22/SAA22.saa#key: musno=#key: cdli=#key: date=Esarhaddon#key: writer=#key: preservation=",
			"other_pub": "VTE",
			"period": "Neo-Assyrian",
			"please_cite": "Please cite this page as http://oracc.org/saao/Q009186/.",
			"pleiades_id": "894019",
			"primary_publication": "VTE",
			"project": "saa02",
			"proposed_date": "(672)",
			"provenience": "Nimrud (Kalhu)",
			"publication_history": "SAA 02, 006",
			"regnal_dates": "680–669 BC",
			"rework": "no",
			"ruler": "Esarhaddon",
			"saa_attribution": "Adapted from Simo Parpola and Kazuko Watanabe, Neo-Assyrian Treaties and Loyalty Oaths (State Archives of Assyria, 2), 1988. Lemmatised by Mikko Luukko, 2016, as part of the research programme of the Alexander von Humboldt Chair in the Ancient History of the Near and Middle East at LMU Munich (Karen Radner, Humboldt Professorship 2015). The annotated edition is released under the Creative Commons Attribution Share-Alike license 3.0.",
			"saa_cdli_accession": "no",
			"saa_cdli_excavation": "no",
			"saa_cdli_id": "no",
			"saa_cdli_museum": "no",
			"saao_lists": "saao/saa02:Q009186",
			"script": "Neo-Assyrian",
			"script_remarks": "inscribed",
			"script_type": "Cuneiform",
			"secondary_record": "no",
			"short_title": "Treaties and Loyalty Oaths",
			"title": "Esarhaddon’s Succession Treaty",
			"vol_title": "Neo-Assyrian Treaties and Loyalty Oaths",
			"volume": "SAA 2"
		},
		"geometry": {
			"type": "Point",
			"coordinates": [43.3275,36.099167]
		}
	}, {
		"type": "Feature",
		"properties": {
			"designation": "SAA 02 007",
			"atae_lists": "atae/saao:P336218",
			"has_date": "unknown",
			"accession_no": "1891-05-09 Bu, 0022",
			"archive": "099 - Miscellaneous",
			"cdli_accession_no": "1891-05-09 Bu, 0022",
			"cdli_id": "P336218",
			"cdli_museum_no": "BM —",
			"ch_name": "Treaties of the Seventh Century B.C.",
			"ch_no": "Ch. 2",
			"ch_num_name": "Ch. 2 (Treaties of the Seventh Century B.C.)",
			"collection": "British Museum, London, UK",
			"comp_wit": "witness",
			"credits": "Adapted from Simo Parpola and Kazuko Watanabe, Neo-Assyrian Treaties and Loyalty Oaths (State Archives of Assyria, 2), 1988. Lemmatised by Mikko Luukko, 2016, as part of the research programme of the Alexander von Humboldt Chair in the Ancient History of the Near and Middle East at LMU Munich (Karen Radner, Humboldt Professorship 2015). The annotated edition is released under the Creative Commons Attribution Share-Alike license 3.0. Please cite this page as http://oracc.org/saao/P336218/.",
			"date_of_origin": "Esarhaddon.000.00.00",
			"display_name": "SAA 02 007",
			"edited_twice": "no",
			"genre": "Treaty",
			"id_text": "P336218",
			"language": "Akkadian",
			"material": "clay",
			"museum_no": "BM —",
			"object_type": "tablet",
			"oracc_header": "&amp;P336218 = SAA 02 007#project: saao/saa22#atf: lang nb#key: file=SAA22/SAA22.saa#key: musno=1891-05-09 Bu, 0022#key: cdli=1891-05-09 Bu, 0022#key: date=Esarhaddon#key: writer=#key: preservation=",
			"other_pub": "JCS 39 174",
			"period": "Neo-Assyrian",
			"please_cite": "Please cite this page as http://oracc.org/saao/P336218/.",
			"pleiades_id": "874621",
			"primary_publication": "JCS 39 174",
			"project": "saa02",
			"proposed_date": "(ca. 670)",
			"provenience": "Kuyunjik (Nineveh)",
			"publication_history": "SAA 02, 007",
			"regnal_dates": "680–669 BC",
			"rework": "no",
			"ruler": "Esarhaddon",
			"saa_attribution": "Adapted from Simo Parpola and Kazuko Watanabe, Neo-Assyrian Treaties and Loyalty Oaths (State Archives of Assyria, 2), 1988. Lemmatised by Mikko Luukko, 2016, as part of the research programme of the Alexander von Humboldt Chair in the Ancient History of the Near and Middle East at LMU Munich (Karen Radner, Humboldt Professorship 2015). The annotated edition is released under the Creative Commons Attribution Share-Alike license 3.0.",
			"saa_cdli_accession": "yes",
			"saa_cdli_id": "yes",
			"saa_cdli_museum": "yes",
			"saao_lists": "saao/saa02:P336218",
			"script": "Neo-Assyrian",
			"script_remarks": "inscribed",
			"script_type": "Cuneiform",
			"secondary_record": "no",
			"short_title": "Treaties and Loyalty Oaths",
			"title": "Oath of Loyalty to Esarhaddon",
			"vol_title": "Neo-Assyrian Treaties and Loyalty Oaths",
			"volume": "SAA 2"
		},
		"geometry": {
			"type": "Point",
			"coordinates": [43.151937,36.358684]
		}
	}, {
		"type": "Feature",
		"properties": {
			"designation": "SAA 02 008",
			"atae_lists": "atae/saao:P334814",
			"has_date": "no",
			"abl_no": "ABL 1239+",
			"accession_no": "1883-01-18, 0045 + 1883-01-18, 0266",
			"archive": "099 - Miscellaneous",
			"cdli_accession_no": "1883-01-18, 0045 + 1883-01-18, 0266",
			"cdli_id": "P334814",
			"cdli_museum_no": "BM —",
			"ch_name": "Treaties of the Seventh Century B.C.",
			"ch_no": "Ch. 2",
			"ch_num_name": "Ch. 2 (Treaties of the Seventh Century B.C.)",
			"collection": "British Museum, London, UK",
			"comp_wit": "witness",
			"credits": "Adapted from Simo Parpola and Kazuko Watanabe, Neo-Assyrian Treaties and Loyalty Oaths (State Archives of Assyria, 2), 1988. Lemmatised by Mikko Luukko, 2016, as part of the research programme of the Alexander von Humboldt Chair in the Ancient History of the Near and Middle East at LMU Munich (Karen Radner, Humboldt Professorship 2015). The annotated edition is released under the Creative Commons Attribution Share-Alike license 3.0. Please cite this page as http://oracc.org/saao/P334814/.",
			"date_of_origin": "Assurbanipal.000.00.00",
			"display_name": "SAA 02 008",
			"edited_twice": "no",
			"genre": "Treaty",
			"id_text": "P334814",
			"language": "Akkadian",
			"material": "clay",
			"museum_no": "BM —",
			"object_type": "tablet",
			"oracc_header": "&amp;P334814 = SAA 02 008#project: saao/saa22#atf: lang nb#key: file=SAA22/SAA22.saa#key: musno=1883-01-18, 0045 + 1883-01-18, 0266#key: cdli=1883-01-18, 0045 + 1883-01-18, 0266#key: date=Ashurbanipal#key: writer=#key: preservation=",
			"period": "Neo-Assyrian",
			"please_cite": "Please cite this page as http://oracc.org/saao/P334814/.",
			"pleiades_id": "874621",
			"primary_publication": "ABL 1239+",
			"project": "saa02",
			"proposed_date": "(669)",
			"provenience": "Kuyunjik (Nineveh)",
			"publication_history": "SAA 02, 008",
			"regnal_dates": "668–ca. 631 BC",
			"rework": "no",
			"ruler": "Ashurbanipal",
			"saa_attribution": "Adapted from Simo Parpola and Kazuko Watanabe, Neo-Assyrian Treaties and Loyalty Oaths (State Archives of Assyria, 2), 1988. Lemmatised by Mikko Luukko, 2016, as part of the research programme of the Alexander von Humboldt Chair in the Ancient History of the Near and Middle East at LMU Munich (Karen Radner, Humboldt Professorship 2015). The annotated edition is released under the Creative Commons Attribution Share-Alike license 3.0.",
			"saa_cdli_accession": "yes",
			"saa_cdli_id": "yes",
			"saa_cdli_museum": "yes",
			"saao_lists": "saao/saa02:P334814",
			"script": "Neo-Assyrian",
			"script_remarks": "inscribed",
			"script_type": "Cuneiform",
			"secondary_record": "no",
			"short_title": "Treaties and Loyalty Oaths",
			"title": "Zakutu Treaty",
			"vol_title": "Neo-Assyrian Treaties and Loyalty Oaths",
			"volume": "SAA 2"
		},
		"geometry": {
			"type": "Point",
			"coordinates": [43.151937,36.358684]
		}
	}, {
		"type": "Feature",
		"properties": {
			"designation": "SAA 02 009",
			"atae_lists": "atae/saao:P237185",
			"has_date": "unknown",
			"abl_no": "ABL 1105",
			"accession_no": "1882-05-22, 0130",
			"archive": "099 - Miscellaneous",
			"cdli_accession_no": "1882-05-22, 0130",
			"cdli_id": "P237185",
			"cdli_museum_no": "BM —",
			"ch_name": "Treaties of the Seventh Century B.C.",
			"ch_no": "Ch. 2",
			"ch_num_name": "Ch. 2 (Treaties of the Seventh Century B.C.)",
			"collection": "British Museum, London, UK",
			"comp_wit": "witness",
			"credits": "Adapted from Simo Parpola and Kazuko Watanabe, Neo-Assyrian Treaties and Loyalty Oaths (State Archives of Assyria, 2), 1988. Lemmatised by Mikko Luukko, 2016, as part of the research programme of the Alexander von Humboldt Chair in the Ancient History of the Near and Middle East at LMU Munich (Karen Radner, Humboldt Professorship 2015). The annotated edition is released under the Creative Commons Attribution Share-Alike license 3.0. Please cite this page as http://oracc.org/saao/P237185/.",
			"date_of_origin": "Assurbanipal.000.00.00",
			"display_name": "SAA 02 009",
			"edited_twice": "no",
			"genre": "Treaty",
			"id_text": "P237185",
			"language": "Akkadian",
			"material": "clay",
			"museum_no": "BM —",
			"object_type": "tablet",
			"oracc_header": "&amp;P237185 = SAA 02 009#project: saao/saa22#atf: lang nb#key: file=SAA22/SAA22.saa#key: musno=1882-05-22, 0130#key: cdli=1882-05-22, 0130#key: date=Ashurbanipal#key: writer=#key: preservation=",
			"period": "Neo-Assyrian",
			"please_cite": "Please cite this page as http://oracc.org/saao/P237185/.",
			"pleiades_id": "874621",
			"primary_publication": "ABL 1105",
			"project": "saa02",
			"proposed_date": "(ca. 650)",
			"provenience": "Kuyunjik (Nineveh)",
			"publication_history": "SAA 02, 009",
			"regnal_dates": "668–ca. 631 BC",
			"rework": "no",
			"ruler": "Ashurbanipal",
			"saa_attribution": "Adapted from Simo Parpola and Kazuko Watanabe, Neo-Assyrian Treaties and Loyalty Oaths (State Archives of Assyria, 2), 1988. Lemmatised by Mikko Luukko, 2016, as part of the research programme of the Alexander von Humboldt Chair in the Ancient History of the Near and Middle East at LMU Munich (Karen Radner, Humboldt Professorship 2015). The annotated edition is released under the Creative Commons Attribution Share-Alike license 3.0.",
			"saa_cdli_accession": "yes",
			"saa_cdli_id": "yes",
			"saa_cdli_museum": "yes",
			"saao_lists": "saao/saa02:P237185",
			"script": "Neo-Assyrian",
			"script_remarks": "inscribed",
			"script_type": "Cuneiform",
			"secondary_record": "no",
			"short_title": "Treaties and Loyalty Oaths",
			"title": "Assurbanipal’s Treaty with Babylonian Allies",
			"vol_title": "Neo-Assyrian Treaties and Loyalty Oaths",
			"volume": "SAA 2"
		},
		"geometry": {
			"type": "Point",
			"coordinates": [43.151937,36.358684]
		}
	}, {
		"type": "Feature",
		"properties": {
			"designation": "SAA 02 010",
			"atae_lists": "atae/saao:P336217",
			"has_date": "unknown",
			"accession_no": "1891-05-09 Bu, 0178",
			"archive": "099 - Miscellaneous",
			"cdli_accession_no": "1891-05-09 Bu, 0178",
			"cdli_id": "P336217",
			"cdli_museum_no": "BM —",
			"ch_name": "Treaties of the Seventh Century B.C.",
			"ch_no": "Ch. 2",
			"ch_num_name": "Ch. 2 (Treaties of the Seventh Century B.C.)",
			"collection": "British Museum, London, UK",
			"comp_wit": "witness",
			"credits": "Adapted from Simo Parpola and Kazuko Watanabe, Neo-Assyrian Treaties and Loyalty Oaths (State Archives of Assyria, 2), 1988. Lemmatised by Mikko Luukko, 2016, as part of the research programme of the Alexander von Humboldt Chair in the Ancient History of the Near and Middle East at LMU Munich (Karen Radner, Humboldt Professorship 2015). The annotated edition is released under the Creative Commons Attribution Share-Alike license 3.0. Please cite this page as http://oracc.org/saao/P336217/.",
			"date_of_origin": "Assurbanipal.000.00.00",
			"display_name": "SAA 02 010",
			"edited_twice": "no",
			"genre": "Treaty",
			"id_text": "P336217",
			"language": "Akkadian",
			"material": "clay",
			"museum_no": "BM —",
			"object_type": "tablet",
			"oracc_header": "&amp;P336217 = SAA 02 010#project: saao/saa22#atf: lang nb#key: file=SAA22/SAA22.saa#key: musno=1891-05-09 Bu, 0178#key: cdli=1891-05-09 Bu, 0178#key: date=Ashurbanipal#key: writer=#key: preservation=",
			"other_pub": "JCS 39 159",
			"period": "Neo-Assyrian",
			"please_cite": "Please cite this page as http://oracc.org/saao/P336217/.",
			"pleiades_id": "874621",
			"primary_publication": "JCS 39 159",
			"project": "saa02",
			"proposed_date": "(652)",
			"provenience": "Kuyunjik (Nineveh)",
			"publication_history": "SAA 02, 010",
			"regnal_dates": "668–ca. 631 BC",
			"rework": "no",
			"ruler": "Ashurbanipal",
			"saa_attribution": "Adapted from Simo Parpola and Kazuko Watanabe, Neo-Assyrian Treaties and Loyalty Oaths (State Archives of Assyria, 2), 1988. Lemmatised by Mikko Luukko, 2016, as part of the research programme of the Alexander von Humboldt Chair in the Ancient History of the Near and Middle East at LMU Munich (Karen Radner, Humboldt Professorship 2015). The annotated edition is released under the Creative Commons Attribution Share-Alike license 3.0.",
			"saa_cdli_accession": "yes",
			"saa_cdli_id": "yes",
			"saa_cdli_museum": "yes",
			"saao_lists": "saao/saa02:P336217",
			"script": "Neo-Assyrian",
			"script_remarks": "inscribed",
			"script_type": "Cuneiform",
			"secondary_record": "no",
			"short_title": "Treaties and Loyalty Oaths",
			"title": "Assurbanipal’s Treaty with the Qedar Tribe",
			"vol_title": "Neo-Assyrian Treaties and Loyalty Oaths",
			"volume": "SAA 2"
		},
		"geometry": {
			"type": "Point",
			"coordinates": [43.151937,36.358684]
		}
	}, {
		"type": "Feature",
		"properties": {
			"designation": "SAA 02 011",
			"atae_lists": "atae/saao:P296062",
			"has_date": "no",
			"archive": "099 - Miscellaneous",
			"cdli_id": "P296062",
			"cdli_museum_no": "MLC 01302",
			"ch_name": "Treaties of the Seventh Century B.C.",
			"ch_no": "Ch. 2",
			"ch_num_name": "Ch. 2 (Treaties of the Seventh Century B.C.)",
			"collection": "J. Pierpont Morgan Library Collection, Yale Babylonian Collection, New Haven, Connecticut, USA",
			"comp_wit": "witness",
			"credits": "Adapted from Simo Parpola and Kazuko Watanabe, Neo-Assyrian Treaties and Loyalty Oaths (State Archives of Assyria, 2), 1988. Lemmatised by Mikko Luukko, 2016, as part of the research programme of the Alexander von Humboldt Chair in the Ancient History of the Near and Middle East at LMU Munich (Karen Radner, Humboldt Professorship 2015). The annotated edition is released under the Creative Commons Attribution Share-Alike license 3.0. Please cite this page as http://oracc.org/saao/P296062/.",
			"date_of_origin": "Sin-sharru-ishkun.000.00.00",
			"display_name": "SAA 02 011",
			"edited_twice": "no",
			"genre": "Treaty",
			"id_text": "P296062",
			"language": "Akkadian",
			"material": "clay",
			"museum_no": "MLC 01302",
			"object_type": "tablet",
			"oracc_header": "&amp;P296062 = SAA 02 011#project: saao/saa22#atf: lang nb#key: file=SAA22/SAA22.saa#key: musno=#key: cdli=#key: date=Sîn-šarru-iškun#key: writer=#key: preservation=",
			"other_pub": "BRM 4 50",
			"period": "Neo-Assyrian",
			"please_cite": "Please cite this page as http://oracc.org/saao/P296062/.",
			"pleiades_id": "874621",
			"primary_publication": "BRM 4 50",
			"project": "saa02",
			"proposed_date": "(ca. 626)",
			"provenience": "Kuyunjik (Nineveh)",
			"publication_history": "Scheil, ZA 11, 1896, 47-49 (C, T, Tr);Borger, WZKM 55, 1959, 73f (partial Tr); cf id, JCS 19, 1965, 76; Grayson, JCS39, 1987, 150-54, No7 (T, Tr); SAA 02, 011",
			"regnal_dates": "ca. 626–612 BC",
			"rework": "no",
			"ruler": "Sîn-šarru-iškun",
			"saa_attribution": "Adapted from Simo Parpola and Kazuko Watanabe, Neo-Assyrian Treaties and Loyalty Oaths (State Archives of Assyria, 2), 1988. Lemmatised by Mikko Luukko, 2016, as part of the research programme of the Alexander von Humboldt Chair in the Ancient History of the Near and Middle East at LMU Munich (Karen Radner, Humboldt Professorship 2015). The annotated edition is released under the Creative Commons Attribution Share-Alike license 3.0.",
			"saa_cdli_id": "yes",
			"saa_cdli_museum": "yes",
			"saao_lists": "saao/saa02:P296062",
			"script": "Neo-Assyrian",
			"script_remarks": "inscribed",
			"script_type": "Cuneiform",
			"secondary_record": "no",
			"short_title": "Treaties and Loyalty Oaths",
			"title": "Sin-šarru-iškun’s Treaty with Babylonian Allies",
			"vol_title": "Neo-Assyrian Treaties and Loyalty Oaths",
			"volume": "SAA 2"
		},
		"geometry": {
			"type": "Point",
			"coordinates": [43.151937,36.358684]
		}
	}, {
		"type": "Feature",
		"properties": {
			"designation": "SAA 02 012",
			"atae_lists": "atae/saao:P336040",
			"has_date": "no",
			"archive": "020 - N 04 Archive",
			"cdli_excavation_no": "Ass 13955z",
			"cdli_id": "P336040",
			"cdli_museum_no": "unknown",
			"ch_name": "Treaties of the Seventh Century B.C.",
			"ch_no": "Ch. 2",
			"ch_num_name": "Ch. 2 (Treaties of the Seventh Century B.C.)",
			"collection": "unlocated",
			"comp_wit": "witness",
			"credits": "Adapted from Simo Parpola and Kazuko Watanabe, Neo-Assyrian Treaties and Loyalty Oaths (State Archives of Assyria, 2), 1988. Lemmatised by Mikko Luukko, 2016, as part of the research programme of the Alexander von Humboldt Chair in the Ancient History of the Near and Middle East at LMU Munich (Karen Radner, Humboldt Professorship 2015). The annotated edition is released under the Creative Commons Attribution Share-Alike license 3.0. Please cite this page as http://oracc.org/saao/P336040/.",
			"date_of_origin": "Sin-sharru-ishkun.000.00.00",
			"display_name": "SAA 02 012",
			"edited_twice": "no",
			"excavation_no": "Ass 13955z",
			"genre": "Treaty",
			"id_text": "P336040",
			"language": "Akkadian",
			"material": "clay",
			"museum_no": "unknown",
			"object_type": "tablet",
			"oracc_header": "&amp;P336040 = SAA 02 012#project: saao/saa22#atf: lang nb#key: file=SAA22/SAA22.saa#key: musno=#key: cdli=#key: date=Sîn-šarru-iškun#key: writer=#key: preservation=",
			"other_pub": "AfO 13 T14",
			"period": "Neo-Assyrian",
			"please_cite": "Please cite this page as http://oracc.org/saao/P336040/.",
			"pleiades_id": "893945",
			"primary_publication": "AfO 13 T14",
			"project": "saa02",
			"proposed_date": "(ca. 626)",
			"provenience": "Qalat Sherqat (Assur)",
			"publication_history": "SAA 02, 012",
			"regnal_dates": "ca. 626–612 BC",
			"rework": "no",
			"ruler": "Sîn-šarru-iškun",
			"saa_attribution": "Adapted from Simo Parpola and Kazuko Watanabe, Neo-Assyrian Treaties and Loyalty Oaths (State Archives of Assyria, 2), 1988. Lemmatised by Mikko Luukko, 2016, as part of the research programme of the Alexander von Humboldt Chair in the Ancient History of the Near and Middle East at LMU Munich (Karen Radner, Humboldt Professorship 2015). The annotated edition is released under the Creative Commons Attribution Share-Alike license 3.0.",
			"saa_cdli_excavation": "yes",
			"saa_cdli_id": "yes",
			"saa_cdli_museum": "yes",
			"saao_lists": "saao/saa02:P336040",
			"script": "Neo-Assyrian",
			"script_remarks": "inscribed",
			"script_type": "Cuneiform",
			"secondary_record": "no",
			"short_title": "Treaties and Loyalty Oaths",
			"title": "Extract from a Treaty of Sin-šarru-iškun",
			"vol_title": "Neo-Assyrian Treaties and Loyalty Oaths",
			"volume": "SAA 2"
		},
		"geometry": {
			"type": "Point",
			"coordinates": [43.262037,35.458121]
		}
	}, {
		"type": "Feature",
		"properties": {
			"designation": "SAA 02 013",
			"atae_lists": "atae/saao:P336220",
			"has_date": "unknown",
			"accession_no": "K 04439",
			"archive": "099 - Miscellaneous",
			"cdli_accession_no": "K 04439",
			"cdli_id": "P336220",
			"cdli_museum_no": "BM —",
			"ch_name": "Treaties of the Seventh Century B.C.",
			"ch_no": "Ch. 2",
			"ch_num_name": "Ch. 2 (Treaties of the Seventh Century B.C.)",
			"collection": "British Museum, London, UK",
			"comp_wit": "witness",
			"credits": "Adapted from Simo Parpola and Kazuko Watanabe, Neo-Assyrian Treaties and Loyalty Oaths (State Archives of Assyria, 2), 1988. Lemmatised by Mikko Luukko, 2016, as part of the research programme of the Alexander von Humboldt Chair in the Ancient History of the Near and Middle East at LMU Munich (Karen Radner, Humboldt Professorship 2015). The annotated edition is released under the Creative Commons Attribution Share-Alike license 3.0. Please cite this page as http://oracc.org/saao/P336220/.",
			"date_of_origin": "00.000.00.00",
			"display_name": "SAA 02 013",
			"edited_twice": "no",
			"genre": "Treaty",
			"id_text": "P336220",
			"language": "Akkadian",
			"material": "clay",
			"museum_no": "BM —",
			"object_type": "tablet",
			"oracc_header": "&amp;P336220 = SAA 02 013#project: saao/saa22#atf: lang nb#key: file=SAA22/SAA22.saa#key: musno=K 04439#key: cdli=K 04439#key: date=uncertain#key: writer=#key: preservation=",
			"other_pub": "JCS 39 175",
			"period": "Neo-Assyrian",
			"please_cite": "Please cite this page as http://oracc.org/saao/P336220/.",
			"pleiades_id": "874621",
			"primary_publication": "JCS 39 175",
			"project": "saa02",
			"proposed_date": "(7th century)",
			"provenience": "Kuyunjik (Nineveh)",
			"publication_history": "SAA 02, 013",
			"rework": "no",
			"ruler": "uncertain",
			"saa_attribution": "Adapted from Simo Parpola and Kazuko Watanabe, Neo-Assyrian Treaties and Loyalty Oaths (State Archives of Assyria, 2), 1988. Lemmatised by Mikko Luukko, 2016, as part of the research programme of the Alexander von Humboldt Chair in the Ancient History of the Near and Middle East at LMU Munich (Karen Radner, Humboldt Professorship 2015). The annotated edition is released under the Creative Commons Attribution Share-Alike license 3.0.",
			"saa_cdli_accession": "yes",
			"saa_cdli_id": "yes",
			"saa_cdli_museum": "yes",
			"saao_lists": "saao/saa02:P336220",
			"script": "Neo-Assyrian",
			"script_remarks": "inscribed",
			"script_type": "Cuneiform",
			"secondary_record": "no",
			"short_title": "Treaties and Loyalty Oaths",
			"title": "A Vassal Treaty",
			"vol_title": "Neo-Assyrian Treaties and Loyalty Oaths",
			"volume": "SAA 2"
		},
		"geometry": {
			"type": "Point",
			"coordinates": [43.151937,36.358684]
		}
	}, {
		"type": "Feature",
		"properties": {
			"designation": "SAA 02 014",
			"atae_lists": "atae/saao:P336216",
			"has_date": "no",
			"archive": "099 - Miscellaneous",
			"cdli_id": "P336216",
			"cdli_museum_no": "BM 050666 + BM 050857 + BM 053678 + BM 053728 (+) BM 051098",
			"ch_name": "Treaties of the Seventh Century B.C.",
			"ch_no": "Ch. 2",
			"ch_num_name": "Ch. 2 (Treaties of the Seventh Century B.C.)",
			"collection": "British Museum, London, UK",
			"comp_wit": "witness",
			"credits": "Adapted from Simo Parpola and Kazuko Watanabe, Neo-Assyrian Treaties and Loyalty Oaths (State Archives of Assyria, 2), 1988. Lemmatised by Mikko Luukko, 2016, as part of the research programme of the Alexander von Humboldt Chair in the Ancient History of the Near and Middle East at LMU Munich (Karen Radner, Humboldt Professorship 2015). The annotated edition is released under the Creative Commons Attribution Share-Alike license 3.0. Please cite this page as http://oracc.org/saao/P336216/.",
			"date_of_origin": "Esarhaddon.000.00.00",
			"display_name": "SAA 02 014",
			"edited_twice": "no",
			"genre": "Treaty",
			"id_text": "P336216",
			"language": "Akkadian",
			"material": "clay",
			"museum_no": "BM 050666 + BM 050857 + BM 053678 + BM 053728 (+) BM 051098",
			"object_type": "tablet",
			"oracc_header": "&amp;P336216 = SAA 02 014#project: saao/saa22#atf: lang nb#key: file=SAA22/SAA22.saa#key: musno=#key: cdli=#key: date=Esarhaddon#key: writer=#key: preservation=",
			"other_pub": "JCS 39 158",
			"period": "Neo-Assyrian",
			"please_cite": "Please cite this page as http://oracc.org/saao/P336216/.",
			"pleiades_id": "894089",
			"primary_publication": "JCS 39 158",
			"project": "saa02",
			"proposed_date": "(672)",
			"provenience": "Tell Abu Habbah (Sippar-Yahrurum)",
			"publication_history": "SAA 02, 014",
			"regnal_dates": "680–669 BC",
			"rework": "no",
			"ruler": "Esarhaddon",
			"saa_attribution": "Adapted from Simo Parpola and Kazuko Watanabe, Neo-Assyrian Treaties and Loyalty Oaths (State Archives of Assyria, 2), 1988. Lemmatised by Mikko Luukko, 2016, as part of the research programme of the Alexander von Humboldt Chair in the Ancient History of the Near and Middle East at LMU Munich (Karen Radner, Humboldt Professorship 2015). The annotated edition is released under the Creative Commons Attribution Share-Alike license 3.0.",
			"saa_cdli_id": "yes",
			"saa_cdli_museum": "yes",
			"saao_lists": "saao/saa02:P336216",
			"script": "Neo-Assyrian",
			"script_remarks": "inscribed",
			"script_type": "Cuneiform",
			"secondary_record": "no",
			"short_title": "Treaties and Loyalty Oaths",
			"title": "Esarhaddon’s Treaty Inscription",
			"vol_title": "Neo-Assyrian Treaties and Loyalty Oaths",
			"volume": "SAA 2"
		},
		"geometry": {
			"type": "Point",
			"coordinates": [44.253809,33.059195]
		}
	}]
}
