{
	"type": "FeatureCollection",
	"features": [{
		"type": "Feature",
		"properties": {
			"cdli_id": "P469064",
			"collection": "Private Collection: Chappée, France; Private Collection: Adam, London, UK; Private Collection: Ligabue Venice, Italy; Private Collection: Foroughi, Teheran, Iran; Louvre Museum, Paris, France",
			"credits": "Based on Grant Frame, Rulers of Babylonia: From the Second Dynasty of Isin to the End of Assyrian Domination (1157-612 BC) (RIMB 2; Toronto, 1995). Digitized, lemmatized, and updated by Alexa Bartelmus, 2015-16, for the Munich Open-access Cuneiform Corpus Initiative (MOCCI), a corpus-building initiative funded by LMU Munich and the Alexander von Humboldt Foundation (through the establishment of the Alexander von Humboldt Chair for Ancient History of the Near and Middle East) and based at the Historisches Seminar - Abteilung Alte Geschichte of Ludwig-Maximilians-Universität München. The annotated edition is released under the Creative Commons Attribution Share-Alike license 3.0. Please cite this page as http://oracc.org/ribo/Q006282/.",
			"date_of_origin": "1004-988",
			"designation": "Eulmaš-šakin-šumi 1",
			"display_name": "RIBo Eulmaš-šakin-šumi 1",
			"dynastic_seat": "Babylon",
			"exemplars": "Chappée -; Foroughi -; formerly Adam collection no. 225B; AO 25212; AO 26245",
			"genre": "Royal Inscription",
			"id_composite": "Q006282",
			"language": "Akkadian",
			"material": "metal",
			"object_type": "arrow head",
			"period": "Middle Babylonian",
			"pleiades_id": "191400484",
			"popular_name": "RIMB 2 B.4.1.1",
			"primary_publication": "Eulmaš-šakin-šumi 1",
			"provenience": "Luristan",
			"ruler": "Eulmaš-šakin-šumi",
			"script": "Neo-Babylonian",
			"script_remarks": "inscribed",
			"script_type": "Cuneiform",
			"subgenre": "Eulmaš-šakin-šumi",
			"supergenre": "LIT"
		},
		"geometry": {
			"type": "Point",
			"coordinates": [48.4,33.6]
		}
	}, {
		"type": "Feature",
		"properties": {
			"cdli_id": "P469065",
			"collection": "Private Collection: Ligabue Venice, Italy",
			"credits": "Based on Grant Frame, Rulers of Babylonia: From the Second Dynasty of Isin to the End of Assyrian Domination (1157-612 BC) (RIMB 2; Toronto, 1995). Digitized, lemmatized, and updated by Alexa Bartelmus, 2015-16, for the Munich Open-access Cuneiform Corpus Initiative (MOCCI), a corpus-building initiative funded by LMU Munich and the Alexander von Humboldt Foundation (through the establishment of the Alexander von Humboldt Chair for Ancient History of the Near and Middle East) and based at the Historisches Seminar - Abteilung Alte Geschichte of Ludwig-Maximilians-Universität München. The annotated edition is released under the Creative Commons Attribution Share-Alike license 3.0. Please cite this page as http://oracc.org/ribo/Q006283/.",
			"date_of_origin": "1004-988",
			"designation": "Eulmaš-šakin-šumi 2",
			"display_name": "RIBo Eulmaš-šakin-šumi 2",
			"dynastic_seat": "Babylon",
			"exemplars": "Ligabue -",
			"genre": "Royal Inscription",
			"id_composite": "Q006283",
			"language": "Akkadian",
			"material": "metal",
			"object_type": "dagger",
			"period": "Middle Babylonian",
			"pleiades_id": "191400484",
			"popular_name": "RIMB 2 B.4.1.2",
			"primary_publication": "Eulmaš-šakin-šumi 2",
			"provenience": "Luristan",
			"ruler": "Eulmaš-šakin-šumi",
			"script": "Neo-Babylonian",
			"script_remarks": "inscribed",
			"script_type": "Cuneiform",
			"subgenre": "Eulmaš-šakin-šumi",
			"supergenre": "LIT"
		},
		"geometry": {
			"type": "Point",
			"coordinates": [48.4,33.6]
		}
	}, {
		"type": "Feature",
		"properties": {
			"cdli_id": "P469066",
			"collection": "Private Collection: Foroughi, Teheran, Iran",
			"credits": "Based on Grant Frame, Rulers of Babylonia: From the Second Dynasty of Isin to the End of Assyrian Domination (1157-612 BC) (RIMB 2; Toronto, 1995). Digitized, lemmatized, and updated by Alexa Bartelmus, 2015-16, for the Munich Open-access Cuneiform Corpus Initiative (MOCCI), a corpus-building initiative funded by LMU Munich and the Alexander von Humboldt Foundation (through the establishment of the Alexander von Humboldt Chair for Ancient History of the Near and Middle East) and based at the Historisches Seminar - Abteilung Alte Geschichte of Ludwig-Maximilians-Universität München. The annotated edition is released under the Creative Commons Attribution Share-Alike license 3.0. Please cite this page as http://oracc.org/ribo/Q006284/.",
			"date_of_origin": "987-985",
			"designation": "Ninurta-kudurri-usur I 1001",
			"display_name": "RIBo Ninurta-kudurri-usur I 1001",
			"dynastic_seat": "Babylon",
			"exemplars": "Foroughi -",
			"genre": "Royal Inscription",
			"id_composite": "Q006284",
			"language": "Akkadian",
			"material": "metal",
			"object_type": "arrow head",
			"period": "Middle Babylonian",
			"pleiades_id": "191400484",
			"popular_name": "RIMB 2 B.4.2.1001",
			"primary_publication": "Ninurta-kudurri-usur I 1001",
			"provenience": "Luristan",
			"ruler": "Ninurta-kudurri-usur I",
			"script": "Neo-Babylonian",
			"script_remarks": "inscribed",
			"script_type": "Cuneiform",
			"subgenre": "Ninurta-kudurri-usur I",
			"supergenre": "LIT"
		},
		"geometry": {
			"type": "Point",
			"coordinates": [48.4,33.6]
		}
	}, {
		"type": "Feature",
		"properties": {
			"cdli_id": "P469067",
			"collection": "Louvre Museum, Paris, France",
			"credits": "Based on Grant Frame, Rulers of Babylonia: From the Second Dynasty of Isin to the End of Assyrian Domination (1157-612 BC) (RIMB 2; Toronto, 1995). Digitized, lemmatized, and updated by Alexa Bartelmus, 2015-16, for the Munich Open-access Cuneiform Corpus Initiative (MOCCI), a corpus-building initiative funded by LMU Munich and the Alexander von Humboldt Foundation (through the establishment of the Alexander von Humboldt Chair for Ancient History of the Near and Middle East) and based at the Historisches Seminar - Abteilung Alte Geschichte of Ludwig-Maximilians-Universität München. The annotated edition is released under the Creative Commons Attribution Share-Alike license 3.0. Please cite this page as http://oracc.org/ribo/Q006285/.",
			"date_of_origin": "early 10th century",
			"designation": "Bazi Dynasty Unidentified Ruler 2001",
			"display_name": "RIBo Bazi Dynasty Unidentified Ruler 2001",
			"dynastic_seat": "Babylon",
			"exemplars": "AO 07038",
			"genre": "Royal Inscription",
			"id_composite": "Q006285",
			"language": "Akkadian",
			"material": "clay",
			"object_type": "tablet",
			"period": "Middle Babylonian",
			"pleiades_id": "912986",
			"popular_name": "RIMB 2 B.4.0.2001",
			"primary_publication": "Bazi Dynasty Unidentified Ruler 2001",
			"provenience": "Uruk",
			"ruler": "uncertain",
			"script": "Neo-Babylonian",
			"script_remarks": "inscribed",
			"script_type": "Cuneiform",
			"subgenre": "Unidentified",
			"supergenre": "LIT"
		},
		"geometry": {
			"type": "Point",
			"coordinates": [45.638752,31.32446]
		}
	}, {
		"type": "Feature",
		"properties": {
			"cdli_id": "P469068",
			"collection": "Private Collection: Foroughi, Teheran, Iran",
			"credits": "Based on Grant Frame, Rulers of Babylonia: From the Second Dynasty of Isin to the End of Assyrian Domination (1157-612 BC) (RIMB 2; Toronto, 1995). Digitized, lemmatized, and updated by Alexa Bartelmus, 2015-16, for the Munich Open-access Cuneiform Corpus Initiative (MOCCI), a corpus-building initiative funded by LMU Munich and the Alexander von Humboldt Foundation (through the establishment of the Alexander von Humboldt Chair for Ancient History of the Near and Middle East) and based at the Historisches Seminar - Abteilung Alte Geschichte of Ludwig-Maximilians-Universität München. The annotated edition is released under the Creative Commons Attribution Share-Alike license 3.0. Please cite this page as http://oracc.org/ribo/Q006286/.",
			"date_of_origin": "early 10th century",
			"designation": "Bazi Dynasty Unidentified Ruler 2002",
			"display_name": "RIBo Bazi Dynasty Unidentified Ruler 2002",
			"dynastic_seat": "Babylon",
			"exemplars": "Foroughi -",
			"genre": "Royal Inscription",
			"id_composite": "Q006286",
			"language": "Akkadian",
			"material": "metal",
			"object_type": "arrow head",
			"period": "Middle Babylonian",
			"pleiades_id": "191400484",
			"popular_name": "RIMB 2 B.4.0.2002",
			"primary_publication": "Bazi Dynasty Unidentified Ruler 2002",
			"provenience": "Luristan",
			"ruler": "uncertain",
			"script": "Neo-Babylonian",
			"script_remarks": "inscribed",
			"script_type": "Cuneiform",
			"subgenre": "Unidentified",
			"supergenre": "LIT"
		},
		"geometry": {
			"type": "Point",
			"coordinates": [48.4,33.6]
		}
	}, {
		"type": "Feature",
		"properties": {
			"cdli_id": "P469069",
			"collection": "Private Collection: Foroughi, Teheran, Iran",
			"credits": "Based on Grant Frame, Rulers of Babylonia: From the Second Dynasty of Isin to the End of Assyrian Domination (1157-612 BC) (RIMB 2; Toronto, 1995). Digitized, lemmatized, and updated by Alexa Bartelmus, 2015-16, for the Munich Open-access Cuneiform Corpus Initiative (MOCCI), a corpus-building initiative funded by LMU Munich and the Alexander von Humboldt Foundation (through the establishment of the Alexander von Humboldt Chair for Ancient History of the Near and Middle East) and based at the Historisches Seminar - Abteilung Alte Geschichte of Ludwig-Maximilians-Universität München. The annotated edition is released under the Creative Commons Attribution Share-Alike license 3.0. Please cite this page as http://oracc.org/ribo/Q006287/.",
			"date_of_origin": "early 10th century",
			"designation": "Bazi Dynasty Unidentified Ruler 2003",
			"display_name": "RIBo Bazi Dynasty Unidentified Ruler 2003",
			"dynastic_seat": "Babylon",
			"exemplars": "Foroughi -",
			"genre": "Royal Inscription",
			"id_composite": "Q006287",
			"language": "Akkadian",
			"material": "metal",
			"object_type": "arrow head",
			"period": "Middle Babylonian",
			"pleiades_id": "191400484",
			"popular_name": "RIMB 2 B.4.0.2003",
			"primary_publication": "Bazi Dynasty Unidentified Ruler 2003",
			"provenience": "Luristan",
			"ruler": "uncertain",
			"script": "Neo-Babylonian",
			"script_remarks": "inscribed",
			"script_type": "Cuneiform",
			"subgenre": "Unidentified",
			"supergenre": "LIT"
		},
		"geometry": {
			"type": "Point",
			"coordinates": [48.4,33.6]
		}
	}]
}
