{
	"type": "FeatureCollection",
	"features": [{
		"type": "Feature",
		"properties": {
			"accession_no": "1880-06-17, 0001",
			"cdli_id": "P498384",
			"collection": "British Museum, London, UK",
			"credits": "Created by Kathryn Stevens and adapted by Jamie Novotny from material published online by Kathryn Stevens on the Oracc-based Seleucid Building Inscriptions for the Munich Open-access Cuneiform Corpus Initiative (MOCCI), a corpus-building initiative funded by LMU Munich and the Alexander von Humboldt Foundation (through the establishment of the Alexander von Humboldt Chair for Ancient History of the Near and Middle East) and based at the Historisches Seminar - Abteilung Alte Geschichte of Ludwig-Maximilians-Universität München. The annotated edition is released under the Creative Commons Attribution Share-Alike license 3.0. Please cite this page as http://oracc.org/ribo/Q004179/.",
			"date_of_origin": "281-261",
			"designation": "Antiochus I 01",
			"display_name": "RIBo Antiochus I 01",
			"dynastic_seat": "Babylon",
			"exemplars": "BM 036277 (1880-06-17, 0001)",
			"genre": "Royal Inscription",
			"id_composite": "Q004179",
			"language": "Akkadian",
			"material": "clay",
			"museum_no": "BM 036277",
			"object_type": "cylinder",
			"period": "Hellenistic",
			"pleiades_id": "893964",
			"popular_name": "Antiochus Cylinder",
			"primary_publication": "Antiochus I 01",
			"provenience": "Borsippa",
			"ruler": "Antiochus I Soter",
			"script": "Neo-Babylonian",
			"script_remarks": "inscribed",
			"script_type": "Cuneiform",
			"subgenre": "Antiochus I",
			"supergenre": "LIT"
		},
		"geometry": {
			"type": "Point",
			"coordinates": [44.344757,32.390721]
		}
	}]
}
