{
	"type": "FeatureCollection",
	"features": [{
		"type": "Feature",
		"properties": {
			"project": "rfdn17",
			"id_text": "P522456",
			"primary_publication": "al-Rafidan 17 01",
			"accession_no": "Shelf no. 0912",
			"provenience": "Qalat Sherqat (Assur)",
			"excavation_no": "Assur 01",
			"archive": "053 - Aššur-matu-taqqin Archive",
			"date": "642*-XII-17",
			"long_date": "Addaru 17th day, eponymy of Nabû-da&apos;&apos;inanni",
			"atae_attribution": "Adapted from Ali Yaseen Ahmad&apos;s article &quot;The Archive of Aššur-mātu-taqqin Found in the New Town of Aššur and Dated Mainly by Post-canonical Eponyms,&quot; al-Rāfidān 17 (1996), pp. 207–288, by Jamie Novotny and Poppy Tushingham (2021) for the Munich Open-access Cuneiform Corpus Initiative (MOCCI), which is funded by LMU Munich and the Alexander von Humboldt Foundation at the Historisches Seminar - Abteilung Alte Geschichte of Ludwig-Maximilians-Universität München. The online edition is released under the Creative Commons Attribution Share-Alike license 3.0.",
			"cite_as": "Please cite this page as http://oracc.org/atae/P522456/.",
			"collection": "National Museum of Iraq, Baghdad, Iraq",
			"composite_witness": "witness",
			"credits": "Adapted from Ali Yaseen Ahmad&apos;s article &quot;The Archive of Aššur-mātu-taqqin Found in the New Town of Aššur and Dated Mainly by Post-canonical Eponyms,&quot; al-Rāfidān 17 (1996), pp. 207–288, by Jamie Novotny and Poppy Tushingham (2021) for the Munich Open-access Cuneiform Corpus Initiative (MOCCI), which is funded by LMU Munich and the Alexander von Humboldt Foundation at the Historisches Seminar - Abteilung Alte Geschichte of Ludwig-Maximilians-Universität München. The online edition is released under the Creative Commons Attribution Share-Alike license 3.0. Please cite this page as http://oracc.org/atae/P522456/.",
			"date_gen": "642*-XII-17",
			"date_of_origin": "Assurbanipal.limu Nabu-da’’inanni.12.17",
			"day": "17",
			"designation": "al-Rafidan 17 01",
			"dialect": "Neo-Assyrian",
			"eponym": "Nabû-da’’inanni",
			"genre": "Legal Transaction",
			"has_date": "yes",
			"language": "Akkadian",
			"last_mod_by": "Tushingham",
			"last_modified": "02.11.2021",
			"list_name": "atae/rfdn17:P522456",
			"long_date_gen": "Addaru 17th, eponymy of Nabû-da’’inanni",
			"material": "clay",
			"month": "XII",
			"object_type": "tablet",
			"period": "Neo-Assyrian",
			"pleiades_id": "893945",
			"regnal_dates": "668–ca. 631 BC",
			"ruler": "Ashurbanipal",
			"script": "Neo-Assyrian",
			"script_remarks": "inscribed",
			"script_type": "Cuneiform",
			"year": "642*",
			"ch_no": "01",
			"ch_name": "The Archive of Aššur-mātu-taqqin found in the new town of Aššur and dated mainly by Post-Canonical Eponyms",
			"ch_num_name": "01 (The Archive of Aššur-mātu-taqqin found in the new town of Aššur and dated mainly by Post-Canonical Eponyms)"
		},
		"geometry": {
			"type": "Point",
			"coordinates": [43.262037,35.458121]
		}
	}, {
		"type": "Feature",
		"properties": {
			"project": "rfdn17",
			"id_text": "P522457",
			"primary_publication": "al-Rafidan 17 02",
			"accession_no": "Shelf no. 0913",
			"provenience": "Qalat Sherqat (Assur)",
			"excavation_no": "Assur 02",
			"archive": "053 - Aššur-matu-taqqin Archive",
			"date": "630*-X-16",
			"long_date": "Kanunu 16th, eponymy of Ṣalmu-sarru-iqbi",
			"atae_attribution": "Adapted from Ali Yaseen Ahmad&apos;s article &quot;The Archive of Aššur-mātu-taqqin Found in the New Town of Aššur and Dated Mainly by Post-canonical Eponyms,&quot; al-Rāfidān 17 (1996), pp. 207–288, by Jamie Novotny and Poppy Tushingham (2021) for the Munich Open-access Cuneiform Corpus Initiative (MOCCI), which is funded by LMU Munich and the Alexander von Humboldt Foundation at the Historisches Seminar - Abteilung Alte Geschichte of Ludwig-Maximilians-Universität München. The online edition is released under the Creative Commons Attribution Share-Alike license 3.0.",
			"cite_as": "Please cite this page as http://oracc.org/atae/P522457/.",
			"collection": "National Museum of Iraq, Baghdad, Iraq",
			"composite_witness": "witness",
			"credits": "Adapted from Ali Yaseen Ahmad&apos;s article &quot;The Archive of Aššur-mātu-taqqin Found in the New Town of Aššur and Dated Mainly by Post-canonical Eponyms,&quot; al-Rāfidān 17 (1996), pp. 207–288, by Jamie Novotny and Poppy Tushingham (2021) for the Munich Open-access Cuneiform Corpus Initiative (MOCCI), which is funded by LMU Munich and the Alexander von Humboldt Foundation at the Historisches Seminar - Abteilung Alte Geschichte of Ludwig-Maximilians-Universität München. The online edition is released under the Creative Commons Attribution Share-Alike license 3.0. Please cite this page as http://oracc.org/atae/P522457/.",
			"date_gen": "630*-X-16",
			"date_of_origin": "Assur-etel-ilani.limu Salmu-sharru-iqbi.10.16",
			"day": "16",
			"designation": "al-Rafidan 17 02",
			"dialect": "Neo-Assyrian",
			"eponym": "Ṣalmu-šarru-iqbi",
			"genre": "Legal Transaction",
			"has_date": "yes",
			"language": "Akkadian",
			"last_mod_by": "Tushingham",
			"last_modified": "02.11.2021",
			"list_name": "atae/rfdn17:P522457",
			"long_date_gen": "Kanūnu 16th, eponymy of Ṣalmu-šarru-iqbi",
			"material": "clay",
			"month": "X",
			"object_type": "tablet",
			"period": "Neo-Assyrian",
			"pleiades_id": "893945",
			"regnal_dates": "ca. 630–627 BC",
			"ruler": "Aššur-etel-ilāni",
			"script": "Neo-Assyrian",
			"script_remarks": "inscribed",
			"script_type": "Cuneiform",
			"year": "630*",
			"ch_no": "01",
			"ch_name": "The Archive of Aššur-mātu-taqqin found in the new town of Aššur and dated mainly by Post-Canonical Eponyms",
			"ch_num_name": "01 (The Archive of Aššur-mātu-taqqin found in the new town of Aššur and dated mainly by Post-Canonical Eponyms)"
		},
		"geometry": {
			"type": "Point",
			"coordinates": [43.262037,35.458121]
		}
	}, {
		"type": "Feature",
		"properties": {
			"project": "rfdn17",
			"id_text": "P522458",
			"primary_publication": "al-Rafidan 17 03",
			"accession_no": "Shelf no. 0914",
			"provenience": "Qalat Sherqat (Assur)",
			"excavation_no": "Assur 03",
			"archive": "053 - Aššur-matu-taqqin Archive",
			"date": "616*-VII-[...]",
			"long_date": "Tašritu, eponymy of B[el-iq]bi, governor of [Tušhan].",
			"atae_attribution": "Adapted from Ali Yaseen Ahmad&apos;s article &quot;The Archive of Aššur-mātu-taqqin Found in the New Town of Aššur and Dated Mainly by Post-canonical Eponyms,&quot; al-Rāfidān 17 (1996), pp. 207–288, by Jamie Novotny and Poppy Tushingham (2021) for the Munich Open-access Cuneiform Corpus Initiative (MOCCI), which is funded by LMU Munich and the Alexander von Humboldt Foundation at the Historisches Seminar - Abteilung Alte Geschichte of Ludwig-Maximilians-Universität München. The online edition is released under the Creative Commons Attribution Share-Alike license 3.0.",
			"cite_as": "Please cite this page as http://oracc.org/atae/P522458/.",
			"collection": "National Museum of Iraq, Baghdad, Iraq",
			"composite_witness": "witness",
			"credits": "Adapted from Ali Yaseen Ahmad&apos;s article &quot;The Archive of Aššur-mātu-taqqin Found in the New Town of Aššur and Dated Mainly by Post-canonical Eponyms,&quot; al-Rāfidān 17 (1996), pp. 207–288, by Jamie Novotny and Poppy Tushingham (2021) for the Munich Open-access Cuneiform Corpus Initiative (MOCCI), which is funded by LMU Munich and the Alexander von Humboldt Foundation at the Historisches Seminar - Abteilung Alte Geschichte of Ludwig-Maximilians-Universität München. The online edition is released under the Creative Commons Attribution Share-Alike license 3.0. Please cite this page as http://oracc.org/atae/P522458/.",
			"date_gen": "621*-VII-[...]",
			"date_of_origin": "Sin-sharru-ishkun.limu Bel-iqbi.07.00",
			"day": "[...]",
			"designation": "al-Rafidan 17 03",
			"dialect": "Neo-Assyrian",
			"eponym": "Bēl-iqbi",
			"genre": "Legal Transaction",
			"has_date": "yes, but date partially preserved",
			"language": "Akkadian",
			"last_mod_by": "Tushingham",
			"last_modified": "02.11.2021",
			"list_name": "atae/rfdn17:P522458",
			"long_date_gen": "Tašrītu ...th, eponymy of Bēl-iqbi",
			"material": "clay",
			"month": "VII",
			"object_type": "tablet",
			"period": "Neo-Assyrian",
			"pleiades_id": "893945",
			"regnal_dates": "ca. 626–612 BC",
			"ruler": "Sîn-šarru-iškun",
			"script": "Neo-Assyrian",
			"script_remarks": "inscribed",
			"script_type": "Cuneiform",
			"year": "621*",
			"ch_no": "01",
			"ch_name": "The Archive of Aššur-mātu-taqqin found in the new town of Aššur and dated mainly by Post-Canonical Eponyms",
			"ch_num_name": "01 (The Archive of Aššur-mātu-taqqin found in the new town of Aššur and dated mainly by Post-Canonical Eponyms)"
		},
		"geometry": {
			"type": "Point",
			"coordinates": [43.262037,35.458121]
		}
	}, {
		"type": "Feature",
		"properties": {
			"project": "rfdn17",
			"id_text": "P522459",
			"primary_publication": "al-Rafidan 17 04",
			"accession_no": "Shelf no. 0915",
			"provenience": "Qalat Sherqat (Assur)",
			"excavation_no": "Assur 04",
			"archive": "053 - Aššur-matu-taqqin Archive",
			"date": "631*-I-15",
			"long_date": "Nisannu 15th, eponymy of Adad-remanni",
			"atae_attribution": "Adapted from Ali Yaseen Ahmad&apos;s article &quot;The Archive of Aššur-mātu-taqqin Found in the New Town of Aššur and Dated Mainly by Post-canonical Eponyms,&quot; al-Rāfidān 17 (1996), pp. 207–288, by Jamie Novotny and Poppy Tushingham (2021) for the Munich Open-access Cuneiform Corpus Initiative (MOCCI), which is funded by LMU Munich and the Alexander von Humboldt Foundation at the Historisches Seminar - Abteilung Alte Geschichte of Ludwig-Maximilians-Universität München. The online edition is released under the Creative Commons Attribution Share-Alike license 3.0.",
			"cite_as": "Please cite this page as http://oracc.org/atae/P522459/.",
			"collection": "National Museum of Iraq, Baghdad, Iraq",
			"composite_witness": "witness",
			"credits": "Adapted from Ali Yaseen Ahmad&apos;s article &quot;The Archive of Aššur-mātu-taqqin Found in the New Town of Aššur and Dated Mainly by Post-canonical Eponyms,&quot; al-Rāfidān 17 (1996), pp. 207–288, by Jamie Novotny and Poppy Tushingham (2021) for the Munich Open-access Cuneiform Corpus Initiative (MOCCI), which is funded by LMU Munich and the Alexander von Humboldt Foundation at the Historisches Seminar - Abteilung Alte Geschichte of Ludwig-Maximilians-Universität München. The online edition is released under the Creative Commons Attribution Share-Alike license 3.0. Please cite this page as http://oracc.org/atae/P522459/.",
			"date_gen": "631*-I-15",
			"date_of_origin": "Assurbanipal.limu Adad-remanni.01.15",
			"day": "15",
			"designation": "al-Rafidan 17 04",
			"dialect": "Neo-Assyrian",
			"eponym": "Adad-rēmanni",
			"genre": "Legal Transaction",
			"has_date": "yes",
			"language": "Akkadian",
			"last_mod_by": "Tushingham",
			"last_modified": "02.11.2021",
			"list_name": "atae/rfdn17:P522459",
			"long_date_gen": "Nisannu 15th, eponymy of Adad-rēmanni",
			"material": "clay",
			"month": "I",
			"object_type": "tablet",
			"period": "Neo-Assyrian",
			"pleiades_id": "893945",
			"regnal_dates": "668–ca. 631 BC",
			"ruler": "Ashurbanipal",
			"script": "Neo-Assyrian",
			"script_remarks": "inscribed",
			"script_type": "Cuneiform",
			"year": "631*",
			"ch_no": "01",
			"ch_name": "The Archive of Aššur-mātu-taqqin found in the new town of Aššur and dated mainly by Post-Canonical Eponyms",
			"ch_num_name": "01 (The Archive of Aššur-mātu-taqqin found in the new town of Aššur and dated mainly by Post-Canonical Eponyms)"
		},
		"geometry": {
			"type": "Point",
			"coordinates": [43.262037,35.458121]
		}
	}, {
		"type": "Feature",
		"properties": {
			"project": "rfdn17",
			"id_text": "P522460",
			"primary_publication": "al-Rafidan 17 05",
			"accession_no": "Shelf no. 0917",
			"provenience": "Qalat Sherqat (Assur)",
			"excavation_no": "Assur 06",
			"archive": "053 - Aššur-matu-taqqin Archive",
			"date": "666-0-22",
			"long_date": "(blank) 22nd, eponymy of Kanunayu of the New Palace",
			"atae_attribution": "Adapted from Ali Yaseen Ahmad&apos;s article &quot;The Archive of Aššur-mātu-taqqin Found in the New Town of Aššur and Dated Mainly by Post-canonical Eponyms,&quot; al-Rāfidān 17 (1996), pp. 207–288, by Jamie Novotny and Poppy Tushingham (2021) for the Munich Open-access Cuneiform Corpus Initiative (MOCCI), which is funded by LMU Munich and the Alexander von Humboldt Foundation at the Historisches Seminar - Abteilung Alte Geschichte of Ludwig-Maximilians-Universität München. The online edition is released under the Creative Commons Attribution Share-Alike license 3.0.",
			"cite_as": "Please cite this page as http://oracc.org/atae/P522460/.",
			"collection": "National Museum of Iraq, Baghdad, Iraq",
			"composite_witness": "witness",
			"credits": "Adapted from Ali Yaseen Ahmad&apos;s article &quot;The Archive of Aššur-mātu-taqqin Found in the New Town of Aššur and Dated Mainly by Post-canonical Eponyms,&quot; al-Rāfidān 17 (1996), pp. 207–288, by Jamie Novotny and Poppy Tushingham (2021) for the Munich Open-access Cuneiform Corpus Initiative (MOCCI), which is funded by LMU Munich and the Alexander von Humboldt Foundation at the Historisches Seminar - Abteilung Alte Geschichte of Ludwig-Maximilians-Universität München. The online edition is released under the Creative Commons Attribution Share-Alike license 3.0. Please cite this page as http://oracc.org/atae/P522460/.",
			"date_gen": "666-[...]-22",
			"date_of_origin": "Assurbanipal.limu Kanunayu.00.22",
			"day": "22",
			"designation": "al-Rafidan 17 05",
			"dialect": "Neo-Assyrian",
			"eponym": "Kanūnāyu",
			"genre": "Legal Transaction",
			"has_date": "yes, but date partially preserved",
			"language": "Akkadian",
			"last_mod_by": "Tushingham",
			"last_modified": "02.11.2021",
			"list_name": "atae/rfdn17:P522460",
			"long_date_gen": "... 22nd, eponymy of Kanūnāyu",
			"material": "clay",
			"month": "[...]",
			"object_type": "tablet",
			"period": "Neo-Assyrian",
			"pleiades_id": "893945",
			"regnal_dates": "668–ca. 631 BC",
			"ruler": "Ashurbanipal",
			"script": "Neo-Assyrian",
			"script_remarks": "inscribed",
			"script_type": "Cuneiform",
			"year": "666",
			"ch_no": "01",
			"ch_name": "The Archive of Aššur-mātu-taqqin found in the new town of Aššur and dated mainly by Post-Canonical Eponyms",
			"ch_num_name": "01 (The Archive of Aššur-mātu-taqqin found in the new town of Aššur and dated mainly by Post-Canonical Eponyms)"
		},
		"geometry": {
			"type": "Point",
			"coordinates": [43.262037,35.458121]
		}
	}, {
		"type": "Feature",
		"properties": {
			"project": "rfdn17",
			"id_text": "P522461",
			"primary_publication": "al-Rafidan 17 06",
			"accession_no": "Shelf no. 0918",
			"provenience": "Qalat Sherqat (Assur)",
			"excavation_no": "Assur 07",
			"archive": "053 - Aššur-matu-taqqin Archive",
			"date": "679-X-28",
			"long_date": "Kanunu 28th, eponym of Itti-Adad-anenu",
			"atae_attribution": "Adapted from Ali Yaseen Ahmad&apos;s article &quot;The Archive of Aššur-mātu-taqqin Found in the New Town of Aššur and Dated Mainly by Post-canonical Eponyms,&quot; al-Rāfidān 17 (1996), pp. 207–288, by Jamie Novotny and Poppy Tushingham (2021) for the Munich Open-access Cuneiform Corpus Initiative (MOCCI), which is funded by LMU Munich and the Alexander von Humboldt Foundation at the Historisches Seminar - Abteilung Alte Geschichte of Ludwig-Maximilians-Universität München. The online edition is released under the Creative Commons Attribution Share-Alike license 3.0.",
			"cite_as": "Please cite this page as http://oracc.org/atae/P522461/.",
			"collection": "National Museum of Iraq, Baghdad, Iraq",
			"composite_witness": "witness",
			"credits": "Adapted from Ali Yaseen Ahmad&apos;s article &quot;The Archive of Aššur-mātu-taqqin Found in the New Town of Aššur and Dated Mainly by Post-canonical Eponyms,&quot; al-Rāfidān 17 (1996), pp. 207–288, by Jamie Novotny and Poppy Tushingham (2021) for the Munich Open-access Cuneiform Corpus Initiative (MOCCI), which is funded by LMU Munich and the Alexander von Humboldt Foundation at the Historisches Seminar - Abteilung Alte Geschichte of Ludwig-Maximilians-Universität München. The online edition is released under the Creative Commons Attribution Share-Alike license 3.0. Please cite this page as http://oracc.org/atae/P522461/.",
			"date_gen": "679-X-28",
			"date_of_origin": "Esarhaddon.limu Itti-Adad-anenu.10.28",
			"day": "28",
			"designation": "al-Rafidan 17 06",
			"dialect": "Neo-Assyrian",
			"eponym": "Itti-Adad-anēnu",
			"genre": "Legal Transaction",
			"has_date": "yes",
			"language": "Akkadian",
			"last_mod_by": "Tushingham",
			"last_modified": "02.11.2021",
			"list_name": "atae/rfdn17:P522461",
			"long_date_gen": "Kanūnu 28th, eponymy of Itti-Adad-anēnu",
			"material": "clay",
			"month": "X",
			"object_type": "tablet",
			"period": "Neo-Assyrian",
			"pleiades_id": "893945",
			"regnal_dates": "680–669 BC",
			"ruler": "Esarhaddon",
			"script": "Neo-Assyrian",
			"script_remarks": "inscribed",
			"script_type": "Cuneiform",
			"year": "679",
			"ch_no": "01",
			"ch_name": "The Archive of Aššur-mātu-taqqin found in the new town of Aššur and dated mainly by Post-Canonical Eponyms",
			"ch_num_name": "01 (The Archive of Aššur-mātu-taqqin found in the new town of Aššur and dated mainly by Post-Canonical Eponyms)"
		},
		"geometry": {
			"type": "Point",
			"coordinates": [43.262037,35.458121]
		}
	}, {
		"type": "Feature",
		"properties": {
			"project": "rfdn17",
			"id_text": "P522462",
			"primary_publication": "al-Rafidan 17 07",
			"accession_no": "Shelf no. 0919",
			"provenience": "Qalat Sherqat (Assur)",
			"excavation_no": "Assur 08",
			"archive": "053 - Aššur-matu-taqqin Archive",
			"date": "613*-XII₂-13",
			"long_date": "Intercalary Addaru 13th, eponymy of Nabû-tapputu-alik, chief eunuch",
			"atae_attribution": "Adapted from Ali Yaseen Ahmad&apos;s article &quot;The Archive of Aššur-mātu-taqqin Found in the New Town of Aššur and Dated Mainly by Post-canonical Eponyms,&quot; al-Rāfidān 17 (1996), pp. 207–288, by Jamie Novotny and Poppy Tushingham (2021) for the Munich Open-access Cuneiform Corpus Initiative (MOCCI), which is funded by LMU Munich and the Alexander von Humboldt Foundation at the Historisches Seminar - Abteilung Alte Geschichte of Ludwig-Maximilians-Universität München. The online edition is released under the Creative Commons Attribution Share-Alike license 3.0.",
			"cite_as": "Please cite this page as http://oracc.org/atae/P522462/.",
			"collection": "National Museum of Iraq, Baghdad, Iraq",
			"composite_witness": "witness",
			"credits": "Adapted from Ali Yaseen Ahmad&apos;s article &quot;The Archive of Aššur-mātu-taqqin Found in the New Town of Aššur and Dated Mainly by Post-canonical Eponyms,&quot; al-Rāfidān 17 (1996), pp. 207–288, by Jamie Novotny and Poppy Tushingham (2021) for the Munich Open-access Cuneiform Corpus Initiative (MOCCI), which is funded by LMU Munich and the Alexander von Humboldt Foundation at the Historisches Seminar - Abteilung Alte Geschichte of Ludwig-Maximilians-Universität München. The online edition is released under the Creative Commons Attribution Share-Alike license 3.0. Please cite this page as http://oracc.org/atae/P522462/.",
			"date_gen": "613*-XII₂-13",
			"date_of_origin": "Sin-sharru-ishkun.limu Nabu-tapputi-alik.12/2.13",
			"day": "13",
			"designation": "al-Rafidan 17 07",
			"dialect": "Neo-Assyrian",
			"eponym": "Nabû-tappūtī-alik",
			"genre": "Legal Transaction",
			"has_date": "yes",
			"language": "Akkadian",
			"last_mod_by": "Tushingham",
			"last_modified": "02.11.2021",
			"list_name": "atae/rfdn17:P522462",
			"long_date_gen": "Intercalary Addaru 13th, eponymy of Nabû-tappūtī-alik",
			"material": "clay",
			"month": "XII₂",
			"object_type": "tablet",
			"period": "Neo-Assyrian",
			"pleiades_id": "893945",
			"regnal_dates": "ca. 626–612 BC",
			"ruler": "Sîn-šarru-iškun",
			"script": "Neo-Assyrian",
			"script_remarks": "inscribed",
			"script_type": "Cuneiform",
			"year": "613*",
			"ch_no": "01",
			"ch_name": "The Archive of Aššur-mātu-taqqin found in the new town of Aššur and dated mainly by Post-Canonical Eponyms",
			"ch_num_name": "01 (The Archive of Aššur-mātu-taqqin found in the new town of Aššur and dated mainly by Post-Canonical Eponyms)"
		},
		"geometry": {
			"type": "Point",
			"coordinates": [43.262037,35.458121]
		}
	}, {
		"type": "Feature",
		"properties": {
			"project": "rfdn17",
			"id_text": "P522463",
			"primary_publication": "al-Rafidan 17 08",
			"accession_no": "Shelf no. 0920",
			"provenience": "Qalat Sherqat (Assur)",
			"excavation_no": "Assur 09",
			"archive": "053 - Aššur-matu-taqqin Archive",
			"date": "622*-I-10",
			"long_date": "Nisannu 10th, eponymy of Daddî",
			"atae_attribution": "Adapted from Ali Yaseen Ahmad&apos;s article &quot;The Archive of Aššur-mātu-taqqin Found in the New Town of Aššur and Dated Mainly by Post-canonical Eponyms,&quot; al-Rāfidān 17 (1996), pp. 207–288, by Jamie Novotny and Poppy Tushingham (2021) for the Munich Open-access Cuneiform Corpus Initiative (MOCCI), which is funded by LMU Munich and the Alexander von Humboldt Foundation at the Historisches Seminar - Abteilung Alte Geschichte of Ludwig-Maximilians-Universität München. The online edition is released under the Creative Commons Attribution Share-Alike license 3.0.",
			"cite_as": "Please cite this page as http://oracc.org/atae/P522463/.",
			"collection": "National Museum of Iraq, Baghdad, Iraq",
			"composite_witness": "witness",
			"credits": "Adapted from Ali Yaseen Ahmad&apos;s article &quot;The Archive of Aššur-mātu-taqqin Found in the New Town of Aššur and Dated Mainly by Post-canonical Eponyms,&quot; al-Rāfidān 17 (1996), pp. 207–288, by Jamie Novotny and Poppy Tushingham (2021) for the Munich Open-access Cuneiform Corpus Initiative (MOCCI), which is funded by LMU Munich and the Alexander von Humboldt Foundation at the Historisches Seminar - Abteilung Alte Geschichte of Ludwig-Maximilians-Universität München. The online edition is released under the Creative Commons Attribution Share-Alike license 3.0. Please cite this page as http://oracc.org/atae/P522463/.",
			"date_gen": "622*-I-10",
			"date_of_origin": "Sin-sharru-ishkun.limu Dadi.01.10",
			"day": "10",
			"designation": "al-Rafidan 17 08",
			"dialect": "Neo-Assyrian",
			"eponym": "Dādî",
			"genre": "Legal Transaction",
			"has_date": "yes",
			"language": "Akkadian",
			"last_mod_by": "Tushingham",
			"last_modified": "02.11.2021",
			"list_name": "atae/rfdn17:P522463",
			"long_date_gen": "Nisannu 10th, eponymy of Dādî",
			"material": "clay",
			"month": "I",
			"object_type": "tablet",
			"period": "Neo-Assyrian",
			"pleiades_id": "893945",
			"regnal_dates": "ca. 626–612 BC",
			"ruler": "Sîn-šarru-iškun",
			"script": "Neo-Assyrian",
			"script_remarks": "inscribed",
			"script_type": "Cuneiform",
			"year": "622*",
			"ch_no": "01",
			"ch_name": "The Archive of Aššur-mātu-taqqin found in the new town of Aššur and dated mainly by Post-Canonical Eponyms",
			"ch_num_name": "01 (The Archive of Aššur-mātu-taqqin found in the new town of Aššur and dated mainly by Post-Canonical Eponyms)"
		},
		"geometry": {
			"type": "Point",
			"coordinates": [43.262037,35.458121]
		}
	}, {
		"type": "Feature",
		"properties": {
			"project": "rfdn17",
			"id_text": "P522464",
			"primary_publication": "al-Rafidan 17 09",
			"accession_no": "Shelf no. 0922",
			"provenience": "Qalat Sherqat (Assur)",
			"excavation_no": "Assur 11",
			"archive": "053 - Aššur-matu-taqqin Archive",
			"date": "639*-VIII-01",
			"long_date": "Arahsamna 1st, eponymy of Mušallim-Aššur",
			"atae_attribution": "Adapted from Ali Yaseen Ahmad&apos;s article &quot;The Archive of Aššur-mātu-taqqin Found in the New Town of Aššur and Dated Mainly by Post-canonical Eponyms,&quot; al-Rāfidān 17 (1996), pp. 207–288, by Jamie Novotny and Poppy Tushingham (2021) for the Munich Open-access Cuneiform Corpus Initiative (MOCCI), which is funded by LMU Munich and the Alexander von Humboldt Foundation at the Historisches Seminar - Abteilung Alte Geschichte of Ludwig-Maximilians-Universität München. The online edition is released under the Creative Commons Attribution Share-Alike license 3.0.",
			"cite_as": "Please cite this page as http://oracc.org/atae/P522464/.",
			"collection": "National Museum of Iraq, Baghdad, Iraq",
			"composite_witness": "witness",
			"credits": "Adapted from Ali Yaseen Ahmad&apos;s article &quot;The Archive of Aššur-mātu-taqqin Found in the New Town of Aššur and Dated Mainly by Post-canonical Eponyms,&quot; al-Rāfidān 17 (1996), pp. 207–288, by Jamie Novotny and Poppy Tushingham (2021) for the Munich Open-access Cuneiform Corpus Initiative (MOCCI), which is funded by LMU Munich and the Alexander von Humboldt Foundation at the Historisches Seminar - Abteilung Alte Geschichte of Ludwig-Maximilians-Universität München. The online edition is released under the Creative Commons Attribution Share-Alike license 3.0. Please cite this page as http://oracc.org/atae/P522464/.",
			"date_gen": "639*-VIII-01",
			"date_of_origin": "Assurbanipal.limu Mushallim-Assur.08.01",
			"day": "01",
			"designation": "al-Rafidan 17 09",
			"dialect": "Neo-Assyrian",
			"eponym": "Mušallim-Aššur",
			"genre": "Legal Transaction",
			"has_date": "yes",
			"language": "Akkadian",
			"last_mod_by": "Tushingham",
			"last_modified": "02.11.2021",
			"list_name": "atae/rfdn17:P522464",
			"long_date_gen": "Arahsamna 1st, eponymy of Mušallim-Aššur",
			"material": "clay",
			"month": "VIII",
			"object_type": "tablet",
			"period": "Neo-Assyrian",
			"pleiades_id": "893945",
			"regnal_dates": "668–ca. 631 BC",
			"ruler": "Ashurbanipal",
			"script": "Neo-Assyrian",
			"script_remarks": "inscribed",
			"script_type": "Cuneiform",
			"year": "639*",
			"ch_no": "01",
			"ch_name": "The Archive of Aššur-mātu-taqqin found in the new town of Aššur and dated mainly by Post-Canonical Eponyms",
			"ch_num_name": "01 (The Archive of Aššur-mātu-taqqin found in the new town of Aššur and dated mainly by Post-Canonical Eponyms)"
		},
		"geometry": {
			"type": "Point",
			"coordinates": [43.262037,35.458121]
		}
	}, {
		"type": "Feature",
		"properties": {
			"project": "rfdn17",
			"id_text": "P522465",
			"primary_publication": "al-Rafidan 17 10",
			"accession_no": "Shelf no. 0938",
			"provenience": "Qalat Sherqat (Assur)",
			"excavation_no": "Assur 28",
			"archive": "053 - Aššur-matu-taqqin Archive",
			"date": "612*-VII-11",
			"long_date": "Tašritu11th, eponymy of Šamaš-šarru-ibni, commander-in-chief",
			"atae_attribution": "Adapted from Ali Yaseen Ahmad&apos;s article &quot;The Archive of Aššur-mātu-taqqin Found in the New Town of Aššur and Dated Mainly by Post-canonical Eponyms,&quot; al-Rāfidān 17 (1996), pp. 207–288, by Jamie Novotny and Poppy Tushingham (2021) for the Munich Open-access Cuneiform Corpus Initiative (MOCCI), which is funded by LMU Munich and the Alexander von Humboldt Foundation at the Historisches Seminar - Abteilung Alte Geschichte of Ludwig-Maximilians-Universität München. The online edition is released under the Creative Commons Attribution Share-Alike license 3.0.",
			"cite_as": "Please cite this page as http://oracc.org/atae/P522465/.",
			"collection": "National Museum of Iraq, Baghdad, Iraq",
			"composite_witness": "witness",
			"credits": "Adapted from Ali Yaseen Ahmad&apos;s article &quot;The Archive of Aššur-mātu-taqqin Found in the New Town of Aššur and Dated Mainly by Post-canonical Eponyms,&quot; al-Rāfidān 17 (1996), pp. 207–288, by Jamie Novotny and Poppy Tushingham (2021) for the Munich Open-access Cuneiform Corpus Initiative (MOCCI), which is funded by LMU Munich and the Alexander von Humboldt Foundation at the Historisches Seminar - Abteilung Alte Geschichte of Ludwig-Maximilians-Universität München. The online edition is released under the Creative Commons Attribution Share-Alike license 3.0. Please cite this page as http://oracc.org/atae/P522465/.",
			"date_gen": "612*-VII-11",
			"date_of_origin": "Sin-sharru-ishkun.limu Shamash-sharru-ibni.07.11",
			"day": "11",
			"designation": "al-Rafidan 17 10",
			"dialect": "Neo-Assyrian",
			"eponym": "Šamaš-šarru-ibni",
			"genre": "Legal Transaction",
			"has_date": "yes",
			"language": "Akkadian",
			"last_mod_by": "Tushingham",
			"last_modified": "02.11.2021",
			"list_name": "atae/rfdn17:P522465",
			"long_date_gen": "Tašrītu 11th, eponymy of Šamaš-šarru-ibni",
			"material": "clay",
			"month": "VII",
			"object_type": "tablet",
			"period": "Neo-Assyrian",
			"pleiades_id": "893945",
			"regnal_dates": "ca. 626–612 BC",
			"ruler": "Sîn-šarru-iškun",
			"script": "Neo-Assyrian",
			"script_remarks": "inscribed",
			"script_type": "Cuneiform",
			"year": "612*",
			"ch_no": "01",
			"ch_name": "The Archive of Aššur-mātu-taqqin found in the new town of Aššur and dated mainly by Post-Canonical Eponyms",
			"ch_num_name": "01 (The Archive of Aššur-mātu-taqqin found in the new town of Aššur and dated mainly by Post-Canonical Eponyms)"
		},
		"geometry": {
			"type": "Point",
			"coordinates": [43.262037,35.458121]
		}
	}, {
		"type": "Feature",
		"properties": {
			"project": "rfdn17",
			"id_text": "P522466",
			"primary_publication": "al-Rafidan 17 11",
			"accession_no": "Shelf no. 0941",
			"provenience": "Qalat Sherqat (Assur)",
			"excavation_no": "Assur 30",
			"archive": "053 - Aššur-matu-taqqin Archive",
			"date": "638*-II-10",
			"long_date": "Ayyaru 10th, eponymy of Aššur-gimilli-terre",
			"atae_attribution": "Adapted from Ali Yaseen Ahmad&apos;s article &quot;The Archive of Aššur-mātu-taqqin Found in the New Town of Aššur and Dated Mainly by Post-canonical Eponyms,&quot; al-Rāfidān 17 (1996), pp. 207–288, by Jamie Novotny and Poppy Tushingham (2021) for the Munich Open-access Cuneiform Corpus Initiative (MOCCI), which is funded by LMU Munich and the Alexander von Humboldt Foundation at the Historisches Seminar - Abteilung Alte Geschichte of Ludwig-Maximilians-Universität München. The online edition is released under the Creative Commons Attribution Share-Alike license 3.0.",
			"cite_as": "Please cite this page as http://oracc.org/atae/P522466/.",
			"collection": "National Museum of Iraq, Baghdad, Iraq",
			"composite_witness": "witness",
			"credits": "Adapted from Ali Yaseen Ahmad&apos;s article &quot;The Archive of Aššur-mātu-taqqin Found in the New Town of Aššur and Dated Mainly by Post-canonical Eponyms,&quot; al-Rāfidān 17 (1996), pp. 207–288, by Jamie Novotny and Poppy Tushingham (2021) for the Munich Open-access Cuneiform Corpus Initiative (MOCCI), which is funded by LMU Munich and the Alexander von Humboldt Foundation at the Historisches Seminar - Abteilung Alte Geschichte of Ludwig-Maximilians-Universität München. The online edition is released under the Creative Commons Attribution Share-Alike license 3.0. Please cite this page as http://oracc.org/atae/P522466/.",
			"date_gen": "638*-II-10",
			"date_of_origin": "Assurbanipal.limu Assur-gimilli-tere.02.10",
			"day": "10",
			"designation": "al-Rafidan 17 11",
			"dialect": "Neo-Assyrian",
			"eponym": "Aššur-gimilli-tēre",
			"genre": "Legal Transaction",
			"has_date": "yes",
			"language": "Akkadian",
			"last_mod_by": "Tushingham",
			"last_modified": "02.11.2021",
			"list_name": "atae/rfdn17:P522466",
			"long_date_gen": "Ayyāru 10th, eponymy of Aššur-gimilli-tēre",
			"material": "clay",
			"month": "II",
			"object_type": "tablet",
			"period": "Neo-Assyrian",
			"pleiades_id": "893945",
			"regnal_dates": "668–ca. 631 BC",
			"ruler": "Ashurbanipal",
			"script": "Neo-Assyrian",
			"script_remarks": "inscribed",
			"script_type": "Cuneiform",
			"year": "638*",
			"ch_no": "01",
			"ch_name": "The Archive of Aššur-mātu-taqqin found in the new town of Aššur and dated mainly by Post-Canonical Eponyms",
			"ch_num_name": "01 (The Archive of Aššur-mātu-taqqin found in the new town of Aššur and dated mainly by Post-Canonical Eponyms)"
		},
		"geometry": {
			"type": "Point",
			"coordinates": [43.262037,35.458121]
		}
	}, {
		"type": "Feature",
		"properties": {
			"project": "rfdn17",
			"id_text": "P522467",
			"primary_publication": "al-Rafidan 17 12",
			"museum_no": "IM 129288",
			"accession_no": "Shelf no. 0942",
			"provenience": "Qalat Sherqat (Assur)",
			"excavation_no": "Assur 31",
			"archive": "053 - Aššur-matu-taqqin Archive",
			"atae_attribution": "Adapted from Ali Yaseen Ahmad&apos;s article &quot;The Archive of Aššur-mātu-taqqin Found in the New Town of Aššur and Dated Mainly by Post-canonical Eponyms,&quot; al-Rāfidān 17 (1996), pp. 207–288, by Jamie Novotny and Poppy Tushingham (2021) for the Munich Open-access Cuneiform Corpus Initiative (MOCCI), which is funded by LMU Munich and the Alexander von Humboldt Foundation at the Historisches Seminar - Abteilung Alte Geschichte of Ludwig-Maximilians-Universität München. The online edition is released under the Creative Commons Attribution Share-Alike license 3.0.",
			"cite_as": "Please cite this page as http://oracc.org/atae/P522467/.",
			"collection": "National Museum of Iraq, Baghdad, Iraq",
			"composite_witness": "witness",
			"credits": "Adapted from Ali Yaseen Ahmad&apos;s article &quot;The Archive of Aššur-mātu-taqqin Found in the New Town of Aššur and Dated Mainly by Post-canonical Eponyms,&quot; al-Rāfidān 17 (1996), pp. 207–288, by Jamie Novotny and Poppy Tushingham (2021) for the Munich Open-access Cuneiform Corpus Initiative (MOCCI), which is funded by LMU Munich and the Alexander von Humboldt Foundation at the Historisches Seminar - Abteilung Alte Geschichte of Ludwig-Maximilians-Universität München. The online edition is released under the Creative Commons Attribution Share-Alike license 3.0. Please cite this page as http://oracc.org/atae/P522467/.",
			"date_of_origin": "00.000.00.00",
			"designation": "al-Rafidan 17 12",
			"dialect": "Neo-Assyrian",
			"genre": "Legal Transaction",
			"has_date": "yes, but date completely destroyed",
			"language": "Akkadian",
			"last_mod_by": "Tushingham",
			"last_modified": "02.11.2021",
			"list_name": "atae/rfdn17:P522467",
			"material": "clay",
			"object_type": "tablet, envelope",
			"period": "Neo-Assyrian",
			"pleiades_id": "893945",
			"script": "Neo-Assyrian",
			"script_remarks": "inscribed",
			"script_type": "Cuneiform",
			"ch_no": "01",
			"ch_name": "The Archive of Aššur-mātu-taqqin found in the new town of Aššur and dated mainly by Post-Canonical Eponyms",
			"ch_num_name": "01 (The Archive of Aššur-mātu-taqqin found in the new town of Aššur and dated mainly by Post-Canonical Eponyms)"
		},
		"geometry": {
			"type": "Point",
			"coordinates": [43.262037,35.458121]
		}
	}, {
		"type": "Feature",
		"properties": {
			"project": "rfdn17",
			"id_text": "P522468",
			"primary_publication": "al-Rafidan 17 13",
			"accession_no": "Shelf no. 0925",
			"provenience": "Qalat Sherqat (Assur)",
			"excavation_no": "Assur 14",
			"archive": "053 - Aššur-matu-taqqin Archive",
			"date": "626*-IV-15",
			"long_date": "Du&apos;uzu 15th, eponymy of Iqbi-ilani",
			"atae_attribution": "Adapted from Ali Yaseen Ahmad&apos;s article &quot;The Archive of Aššur-mātu-taqqin Found in the New Town of Aššur and Dated Mainly by Post-canonical Eponyms,&quot; al-Rāfidān 17 (1996), pp. 207–288, by Jamie Novotny and Poppy Tushingham (2021) for the Munich Open-access Cuneiform Corpus Initiative (MOCCI), which is funded by LMU Munich and the Alexander von Humboldt Foundation at the Historisches Seminar - Abteilung Alte Geschichte of Ludwig-Maximilians-Universität München. The online edition is released under the Creative Commons Attribution Share-Alike license 3.0.",
			"cite_as": "Please cite this page as http://oracc.org/atae/P522468/.",
			"collection": "National Museum of Iraq, Baghdad, Iraq",
			"composite_witness": "witness",
			"credits": "Adapted from Ali Yaseen Ahmad&apos;s article &quot;The Archive of Aššur-mātu-taqqin Found in the New Town of Aššur and Dated Mainly by Post-canonical Eponyms,&quot; al-Rāfidān 17 (1996), pp. 207–288, by Jamie Novotny and Poppy Tushingham (2021) for the Munich Open-access Cuneiform Corpus Initiative (MOCCI), which is funded by LMU Munich and the Alexander von Humboldt Foundation at the Historisches Seminar - Abteilung Alte Geschichte of Ludwig-Maximilians-Universität München. The online edition is released under the Creative Commons Attribution Share-Alike license 3.0. Please cite this page as http://oracc.org/atae/P522468/.",
			"date_gen": "626*-IV-15",
			"date_of_origin": "Sin-sharru-ishkun.limu Iqbi-ilani.04.15",
			"day": "15",
			"designation": "al-Rafidan 17 13",
			"dialect": "Neo-Assyrian",
			"eponym": "Iqbi-ilani",
			"genre": "Legal Transaction",
			"has_date": "yes",
			"language": "Akkadian",
			"last_mod_by": "Tushingham",
			"last_modified": "02.11.2021",
			"list_name": "atae/rfdn17:P522468",
			"long_date_gen": "Duʾūzu 15th, eponymy of Iqbi-ilani",
			"material": "clay",
			"month": "IV",
			"object_type": "tablet, envelope",
			"period": "Neo-Assyrian",
			"pleiades_id": "893945",
			"regnal_dates": "ca. 626–612 BC",
			"ruler": "Sîn-šarru-iškun",
			"script": "Neo-Assyrian",
			"script_remarks": "inscribed",
			"script_type": "Cuneiform",
			"year": "626*",
			"ch_no": "01",
			"ch_name": "The Archive of Aššur-mātu-taqqin found in the new town of Aššur and dated mainly by Post-Canonical Eponyms",
			"ch_num_name": "01 (The Archive of Aššur-mātu-taqqin found in the new town of Aššur and dated mainly by Post-Canonical Eponyms)"
		},
		"geometry": {
			"type": "Point",
			"coordinates": [43.262037,35.458121]
		}
	}, {
		"type": "Feature",
		"properties": {
			"project": "rfdn17",
			"id_text": "P522469",
			"primary_publication": "al-Rafidan 17 14",
			"accession_no": "Shelf no. 0926",
			"provenience": "Qalat Sherqat (Assur)",
			"excavation_no": "Assur 15",
			"archive": "053 - Aššur-matu-taqqin Archive",
			"date": "613*-IX-01",
			"long_date": "Kislimu 1st, eponymy of Nabû-tapputu-alik",
			"atae_attribution": "Adapted from Ali Yaseen Ahmad&apos;s article &quot;The Archive of Aššur-mātu-taqqin Found in the New Town of Aššur and Dated Mainly by Post-canonical Eponyms,&quot; al-Rāfidān 17 (1996), pp. 207–288, by Jamie Novotny and Poppy Tushingham (2021) for the Munich Open-access Cuneiform Corpus Initiative (MOCCI), which is funded by LMU Munich and the Alexander von Humboldt Foundation at the Historisches Seminar - Abteilung Alte Geschichte of Ludwig-Maximilians-Universität München. The online edition is released under the Creative Commons Attribution Share-Alike license 3.0.",
			"cite_as": "Please cite this page as http://oracc.org/atae/P522469/.",
			"collection": "National Museum of Iraq, Baghdad, Iraq",
			"composite_witness": "witness",
			"credits": "Adapted from Ali Yaseen Ahmad&apos;s article &quot;The Archive of Aššur-mātu-taqqin Found in the New Town of Aššur and Dated Mainly by Post-canonical Eponyms,&quot; al-Rāfidān 17 (1996), pp. 207–288, by Jamie Novotny and Poppy Tushingham (2021) for the Munich Open-access Cuneiform Corpus Initiative (MOCCI), which is funded by LMU Munich and the Alexander von Humboldt Foundation at the Historisches Seminar - Abteilung Alte Geschichte of Ludwig-Maximilians-Universität München. The online edition is released under the Creative Commons Attribution Share-Alike license 3.0. Please cite this page as http://oracc.org/atae/P522469/.",
			"date_gen": "613*-IX-01",
			"date_of_origin": "Sin-sharru-ishkun.limu Nabu-tapputi-alik.09.01",
			"day": "01",
			"designation": "al-Rafidan 17 14",
			"dialect": "Neo-Assyrian",
			"eponym": "Nabû-tappūtī-alik",
			"genre": "Legal Transaction",
			"has_date": "yes",
			"language": "Akkadian",
			"last_mod_by": "Tushingham",
			"last_modified": "02.11.2021",
			"list_name": "atae/rfdn17:P522469",
			"long_date_gen": "Kislīmu 1st, eponymy of Nabû-tappūtī-alik",
			"material": "clay",
			"month": "IX",
			"object_type": "tablet, envelope",
			"period": "Neo-Assyrian",
			"pleiades_id": "893945",
			"regnal_dates": "ca. 626–612 BC",
			"ruler": "Sîn-šarru-iškun",
			"script": "Neo-Assyrian",
			"script_remarks": "inscribed",
			"script_type": "Cuneiform",
			"year": "613*",
			"ch_no": "01",
			"ch_name": "The Archive of Aššur-mātu-taqqin found in the new town of Aššur and dated mainly by Post-Canonical Eponyms",
			"ch_num_name": "01 (The Archive of Aššur-mātu-taqqin found in the new town of Aššur and dated mainly by Post-Canonical Eponyms)"
		},
		"geometry": {
			"type": "Point",
			"coordinates": [43.262037,35.458121]
		}
	}, {
		"type": "Feature",
		"properties": {
			"project": "rfdn17",
			"id_text": "P522470",
			"primary_publication": "al-Rafidan 17 15",
			"accession_no": "Shelf no. 0927",
			"provenience": "Qalat Sherqat (Assur)",
			"excavation_no": "Assur 16",
			"archive": "053 - Aššur-matu-taqqin Archive",
			"date": "633*-II-16",
			"long_date": "Ayyaru 16th, eponymy of Upaqa-ana-Arba&apos;il",
			"atae_attribution": "Adapted from Ali Yaseen Ahmad&apos;s article &quot;The Archive of Aššur-mātu-taqqin Found in the New Town of Aššur and Dated Mainly by Post-canonical Eponyms,&quot; al-Rāfidān 17 (1996), pp. 207–288, by Jamie Novotny and Poppy Tushingham (2021) for the Munich Open-access Cuneiform Corpus Initiative (MOCCI), which is funded by LMU Munich and the Alexander von Humboldt Foundation at the Historisches Seminar - Abteilung Alte Geschichte of Ludwig-Maximilians-Universität München. The online edition is released under the Creative Commons Attribution Share-Alike license 3.0.",
			"cite_as": "Please cite this page as http://oracc.org/atae/P522470/.",
			"collection": "National Museum of Iraq, Baghdad, Iraq",
			"composite_witness": "witness",
			"credits": "Adapted from Ali Yaseen Ahmad&apos;s article &quot;The Archive of Aššur-mātu-taqqin Found in the New Town of Aššur and Dated Mainly by Post-canonical Eponyms,&quot; al-Rāfidān 17 (1996), pp. 207–288, by Jamie Novotny and Poppy Tushingham (2021) for the Munich Open-access Cuneiform Corpus Initiative (MOCCI), which is funded by LMU Munich and the Alexander von Humboldt Foundation at the Historisches Seminar - Abteilung Alte Geschichte of Ludwig-Maximilians-Universität München. The online edition is released under the Creative Commons Attribution Share-Alike license 3.0. Please cite this page as http://oracc.org/atae/P522470/.",
			"date_gen": "633*-II-16",
			"date_of_origin": "Assurbanipal.limu Upaqa-ana-Arbail.02.16",
			"day": "16",
			"designation": "al-Rafidan 17 15",
			"dialect": "Neo-Assyrian",
			"eponym": "Upāqa-ana-Arbail",
			"genre": "Legal Transaction",
			"has_date": "yes",
			"language": "Akkadian",
			"last_mod_by": "Tushingham",
			"last_modified": "02.11.2021",
			"list_name": "atae/rfdn17:P522470",
			"long_date_gen": "Ayyāru 16th, eponymy of Upāqa-ana-Arbail",
			"material": "clay",
			"month": "II",
			"object_type": "tablet, envelope",
			"period": "Neo-Assyrian",
			"pleiades_id": "893945",
			"regnal_dates": "668–ca. 631 BC",
			"ruler": "Ashurbanipal",
			"script": "Neo-Assyrian",
			"script_remarks": "inscribed",
			"script_type": "Cuneiform",
			"year": "633*",
			"ch_no": "01",
			"ch_name": "The Archive of Aššur-mātu-taqqin found in the new town of Aššur and dated mainly by Post-Canonical Eponyms",
			"ch_num_name": "01 (The Archive of Aššur-mātu-taqqin found in the new town of Aššur and dated mainly by Post-Canonical Eponyms)"
		},
		"geometry": {
			"type": "Point",
			"coordinates": [43.262037,35.458121]
		}
	}, {
		"type": "Feature",
		"properties": {
			"project": "rfdn17",
			"id_text": "P522471",
			"primary_publication": "al-Rafidan 17 16",
			"museum_no": "IM 119281",
			"accession_no": "Shelf no. 0928",
			"provenience": "Qalat Sherqat (Assur)",
			"excavation_no": "Assur 17",
			"archive": "053 - Aššur-matu-taqqin Archive",
			"date": "615*-IX-21",
			"long_date": "Kislimu 21st, eponymy of Sin-alik-pani",
			"atae_attribution": "Adapted from Ali Yaseen Ahmad&apos;s article &quot;The Archive of Aššur-mātu-taqqin Found in the New Town of Aššur and Dated Mainly by Post-canonical Eponyms,&quot; al-Rāfidān 17 (1996), pp. 207–288, by Jamie Novotny and Poppy Tushingham (2021) for the Munich Open-access Cuneiform Corpus Initiative (MOCCI), which is funded by LMU Munich and the Alexander von Humboldt Foundation at the Historisches Seminar - Abteilung Alte Geschichte of Ludwig-Maximilians-Universität München. The online edition is released under the Creative Commons Attribution Share-Alike license 3.0.",
			"cite_as": "Please cite this page as http://oracc.org/atae/P522471/.",
			"collection": "National Museum of Iraq, Baghdad, Iraq",
			"composite_witness": "witness",
			"credits": "Adapted from Ali Yaseen Ahmad&apos;s article &quot;The Archive of Aššur-mātu-taqqin Found in the New Town of Aššur and Dated Mainly by Post-canonical Eponyms,&quot; al-Rāfidān 17 (1996), pp. 207–288, by Jamie Novotny and Poppy Tushingham (2021) for the Munich Open-access Cuneiform Corpus Initiative (MOCCI), which is funded by LMU Munich and the Alexander von Humboldt Foundation at the Historisches Seminar - Abteilung Alte Geschichte of Ludwig-Maximilians-Universität München. The online edition is released under the Creative Commons Attribution Share-Alike license 3.0. Please cite this page as http://oracc.org/atae/P522471/.",
			"date_gen": "615*-IX-21",
			"date_of_origin": "Sin-sharru-ishkun.limu Sin-alik-pani.09.21",
			"day": "21",
			"designation": "al-Rafidan 17 16",
			"dialect": "Neo-Assyrian",
			"eponym": "Sîn-ālik-pāni",
			"genre": "Legal Transaction",
			"has_date": "yes",
			"language": "Akkadian",
			"last_mod_by": "Tushingham",
			"last_modified": "02.11.2021",
			"list_name": "atae/rfdn17:P522471",
			"long_date_gen": "Kislīmu 21st, eponymy of Sîn-ālik-pāni",
			"material": "clay",
			"month": "IX",
			"object_type": "tablet, envelope",
			"period": "Neo-Assyrian",
			"pleiades_id": "893945",
			"regnal_dates": "ca. 626–612 BC",
			"ruler": "Sîn-šarru-iškun",
			"script": "Neo-Assyrian",
			"script_remarks": "inscribed",
			"script_type": "Cuneiform",
			"year": "615*",
			"ch_no": "01",
			"ch_name": "The Archive of Aššur-mātu-taqqin found in the new town of Aššur and dated mainly by Post-Canonical Eponyms",
			"ch_num_name": "01 (The Archive of Aššur-mātu-taqqin found in the new town of Aššur and dated mainly by Post-Canonical Eponyms)"
		},
		"geometry": {
			"type": "Point",
			"coordinates": [43.262037,35.458121]
		}
	}, {
		"type": "Feature",
		"properties": {
			"project": "rfdn17",
			"id_text": "P522472",
			"primary_publication": "al-Rafidan 17 17",
			"museum_no": "IM 119284",
			"accession_no": "Shelf no. 0929",
			"provenience": "Qalat Sherqat (Assur)",
			"excavation_no": "Assur 18",
			"archive": "053 - Aššur-matu-taqqin Archive",
			"date": "612*-VIII-22",
			"long_date": "Arahsamna 22nd, eponymy of Šamaš-šarru-ibni",
			"atae_attribution": "Adapted from Ali Yaseen Ahmad&apos;s article &quot;The Archive of Aššur-mātu-taqqin Found in the New Town of Aššur and Dated Mainly by Post-canonical Eponyms,&quot; al-Rāfidān 17 (1996), pp. 207–288, by Jamie Novotny and Poppy Tushingham (2021) for the Munich Open-access Cuneiform Corpus Initiative (MOCCI), which is funded by LMU Munich and the Alexander von Humboldt Foundation at the Historisches Seminar - Abteilung Alte Geschichte of Ludwig-Maximilians-Universität München. The online edition is released under the Creative Commons Attribution Share-Alike license 3.0.",
			"cite_as": "Please cite this page as http://oracc.org/atae/P522472/.",
			"collection": "National Museum of Iraq, Baghdad, Iraq",
			"composite_witness": "witness",
			"credits": "Adapted from Ali Yaseen Ahmad&apos;s article &quot;The Archive of Aššur-mātu-taqqin Found in the New Town of Aššur and Dated Mainly by Post-canonical Eponyms,&quot; al-Rāfidān 17 (1996), pp. 207–288, by Jamie Novotny and Poppy Tushingham (2021) for the Munich Open-access Cuneiform Corpus Initiative (MOCCI), which is funded by LMU Munich and the Alexander von Humboldt Foundation at the Historisches Seminar - Abteilung Alte Geschichte of Ludwig-Maximilians-Universität München. The online edition is released under the Creative Commons Attribution Share-Alike license 3.0. Please cite this page as http://oracc.org/atae/P522472/.",
			"date_gen": "612*-VIII-22",
			"date_of_origin": "Sin-sharru-ishkun.limu Shamash-sharru-ibni.08.22",
			"day": "22",
			"designation": "al-Rafidan 17 17",
			"dialect": "Neo-Assyrian",
			"eponym": "Šamaš-šarru-ibni",
			"genre": "Legal Transaction",
			"has_date": "yes",
			"language": "Akkadian",
			"last_mod_by": "Tushingham",
			"last_modified": "02.11.2021",
			"list_name": "atae/rfdn17:P522472",
			"long_date_gen": "Arahsamna 22nd, eponymy of Šamaš-šarru-ibni",
			"material": "clay",
			"month": "VIII",
			"object_type": "tablet",
			"period": "Neo-Assyrian",
			"pleiades_id": "893945",
			"regnal_dates": "ca. 626–612 BC",
			"ruler": "Sîn-šarru-iškun",
			"script": "Neo-Assyrian",
			"script_remarks": "inscribed",
			"script_type": "Cuneiform",
			"year": "612*",
			"ch_no": "01",
			"ch_name": "The Archive of Aššur-mātu-taqqin found in the new town of Aššur and dated mainly by Post-Canonical Eponyms",
			"ch_num_name": "01 (The Archive of Aššur-mātu-taqqin found in the new town of Aššur and dated mainly by Post-Canonical Eponyms)"
		},
		"geometry": {
			"type": "Point",
			"coordinates": [43.262037,35.458121]
		}
	}, {
		"type": "Feature",
		"properties": {
			"project": "rfdn17",
			"id_text": "P522473",
			"primary_publication": "al-Rafidan 17 18",
			"accession_no": "Shelf no. 0930",
			"provenience": "Qalat Sherqat (Assur)",
			"excavation_no": "Assur 19",
			"archive": "053 - Aššur-matu-taqqin Archive",
			"date": "612*-XII-12",
			"long_date": "Addaru 12th, eponymy of Šamaš-sarru-ibni",
			"atae_attribution": "Adapted from Ali Yaseen Ahmad&apos;s article &quot;The Archive of Aššur-mātu-taqqin Found in the New Town of Aššur and Dated Mainly by Post-canonical Eponyms,&quot; al-Rāfidān 17 (1996), pp. 207–288, by Jamie Novotny and Poppy Tushingham (2021) for the Munich Open-access Cuneiform Corpus Initiative (MOCCI), which is funded by LMU Munich and the Alexander von Humboldt Foundation at the Historisches Seminar - Abteilung Alte Geschichte of Ludwig-Maximilians-Universität München. The online edition is released under the Creative Commons Attribution Share-Alike license 3.0.",
			"cite_as": "Please cite this page as http://oracc.org/atae/P522473/.",
			"collection": "National Museum of Iraq, Baghdad, Iraq",
			"composite_witness": "witness",
			"credits": "Adapted from Ali Yaseen Ahmad&apos;s article &quot;The Archive of Aššur-mātu-taqqin Found in the New Town of Aššur and Dated Mainly by Post-canonical Eponyms,&quot; al-Rāfidān 17 (1996), pp. 207–288, by Jamie Novotny and Poppy Tushingham (2021) for the Munich Open-access Cuneiform Corpus Initiative (MOCCI), which is funded by LMU Munich and the Alexander von Humboldt Foundation at the Historisches Seminar - Abteilung Alte Geschichte of Ludwig-Maximilians-Universität München. The online edition is released under the Creative Commons Attribution Share-Alike license 3.0. Please cite this page as http://oracc.org/atae/P522473/.",
			"date_gen": "612*-XII-12",
			"date_of_origin": "Sin-sharru-ishkun.limu Shamash-sharru-ibni.12.12",
			"day": "12",
			"designation": "al-Rafidan 17 18",
			"dialect": "Neo-Assyrian",
			"eponym": "Šamaš-šarru-ibni",
			"genre": "Legal Transaction",
			"has_date": "yes",
			"language": "Akkadian",
			"last_mod_by": "Tushingham",
			"last_modified": "02.11.2021",
			"list_name": "atae/rfdn17:P522473",
			"long_date_gen": "Addaru 12th, eponymy of Šamaš-šarru-ibni",
			"material": "clay",
			"month": "XII",
			"object_type": "tablet, envelope",
			"period": "Neo-Assyrian",
			"pleiades_id": "893945",
			"regnal_dates": "ca. 626–612 BC",
			"ruler": "Sîn-šarru-iškun",
			"script": "Neo-Assyrian",
			"script_remarks": "inscribed",
			"script_type": "Cuneiform",
			"year": "612*",
			"ch_no": "01",
			"ch_name": "The Archive of Aššur-mātu-taqqin found in the new town of Aššur and dated mainly by Post-Canonical Eponyms",
			"ch_num_name": "01 (The Archive of Aššur-mātu-taqqin found in the new town of Aššur and dated mainly by Post-Canonical Eponyms)"
		},
		"geometry": {
			"type": "Point",
			"coordinates": [43.262037,35.458121]
		}
	}, {
		"type": "Feature",
		"properties": {
			"project": "rfdn17",
			"id_text": "P522474",
			"primary_publication": "al-Rafidan 17 19",
			"accession_no": "Shelf no. 0932",
			"provenience": "Qalat Sherqat (Assur)",
			"excavation_no": "Assur 21",
			"archive": "053 - Aššur-matu-taqqin Archive",
			"date": "612*-I-11",
			"long_date": "Nisannu 11th, eponymy of Šamaš-šarru-ibni",
			"atae_attribution": "Adapted from Ali Yaseen Ahmad&apos;s article &quot;The Archive of Aššur-mātu-taqqin Found in the New Town of Aššur and Dated Mainly by Post-canonical Eponyms,&quot; al-Rāfidān 17 (1996), pp. 207–288, by Jamie Novotny and Poppy Tushingham (2021) for the Munich Open-access Cuneiform Corpus Initiative (MOCCI), which is funded by LMU Munich and the Alexander von Humboldt Foundation at the Historisches Seminar - Abteilung Alte Geschichte of Ludwig-Maximilians-Universität München. The online edition is released under the Creative Commons Attribution Share-Alike license 3.0.",
			"cite_as": "Please cite this page as http://oracc.org/atae/P522474/.",
			"collection": "National Museum of Iraq, Baghdad, Iraq",
			"composite_witness": "witness",
			"credits": "Adapted from Ali Yaseen Ahmad&apos;s article &quot;The Archive of Aššur-mātu-taqqin Found in the New Town of Aššur and Dated Mainly by Post-canonical Eponyms,&quot; al-Rāfidān 17 (1996), pp. 207–288, by Jamie Novotny and Poppy Tushingham (2021) for the Munich Open-access Cuneiform Corpus Initiative (MOCCI), which is funded by LMU Munich and the Alexander von Humboldt Foundation at the Historisches Seminar - Abteilung Alte Geschichte of Ludwig-Maximilians-Universität München. The online edition is released under the Creative Commons Attribution Share-Alike license 3.0. Please cite this page as http://oracc.org/atae/P522474/.",
			"date_gen": "612*-I-11",
			"date_of_origin": "Sin-sharru-ishkun.limu Shamash-sharru-ibni.01.11",
			"day": "11",
			"designation": "al-Rafidan 17 19",
			"dialect": "Neo-Assyrian",
			"eponym": "Šamaš-šarru-ibni",
			"genre": "Legal Transaction",
			"has_date": "yes",
			"language": "Akkadian",
			"last_mod_by": "Tushingham",
			"last_modified": "02.11.2021",
			"list_name": "atae/rfdn17:P522474",
			"long_date_gen": "Nisannu 11th, eponymy of Šamaš-šarru-ibni",
			"material": "clay",
			"month": "I",
			"object_type": "tablet, envelope",
			"period": "Neo-Assyrian",
			"pleiades_id": "893945",
			"regnal_dates": "ca. 626–612 BC",
			"ruler": "Sîn-šarru-iškun",
			"script": "Neo-Assyrian",
			"script_remarks": "inscribed",
			"script_type": "Cuneiform",
			"year": "612*",
			"ch_no": "01",
			"ch_name": "The Archive of Aššur-mātu-taqqin found in the new town of Aššur and dated mainly by Post-Canonical Eponyms",
			"ch_num_name": "01 (The Archive of Aššur-mātu-taqqin found in the new town of Aššur and dated mainly by Post-Canonical Eponyms)"
		},
		"geometry": {
			"type": "Point",
			"coordinates": [43.262037,35.458121]
		}
	}, {
		"type": "Feature",
		"properties": {
			"project": "rfdn17",
			"id_text": "P522475",
			"primary_publication": "al-Rafidan 17 20",
			"museum_no": "IM 119292",
			"accession_no": "Shelf no. 0933",
			"provenience": "Qalat Sherqat (Assur)",
			"excavation_no": "Assur 22",
			"archive": "053 - Aššur-matu-taqqin Archive",
			"date": "631*-VIII-14",
			"long_date": "Arahsamna 14th, eponymy of Adad-remanni",
			"atae_attribution": "Adapted from Ali Yaseen Ahmad&apos;s article &quot;The Archive of Aššur-mātu-taqqin Found in the New Town of Aššur and Dated Mainly by Post-canonical Eponyms,&quot; al-Rāfidān 17 (1996), pp. 207–288, by Jamie Novotny and Poppy Tushingham (2021) for the Munich Open-access Cuneiform Corpus Initiative (MOCCI), which is funded by LMU Munich and the Alexander von Humboldt Foundation at the Historisches Seminar - Abteilung Alte Geschichte of Ludwig-Maximilians-Universität München. The online edition is released under the Creative Commons Attribution Share-Alike license 3.0.",
			"cite_as": "Please cite this page as http://oracc.org/atae/P522475/.",
			"collection": "National Museum of Iraq, Baghdad, Iraq",
			"composite_witness": "witness",
			"credits": "Adapted from Ali Yaseen Ahmad&apos;s article &quot;The Archive of Aššur-mātu-taqqin Found in the New Town of Aššur and Dated Mainly by Post-canonical Eponyms,&quot; al-Rāfidān 17 (1996), pp. 207–288, by Jamie Novotny and Poppy Tushingham (2021) for the Munich Open-access Cuneiform Corpus Initiative (MOCCI), which is funded by LMU Munich and the Alexander von Humboldt Foundation at the Historisches Seminar - Abteilung Alte Geschichte of Ludwig-Maximilians-Universität München. The online edition is released under the Creative Commons Attribution Share-Alike license 3.0. Please cite this page as http://oracc.org/atae/P522475/.",
			"date_gen": "631*-VIII-14",
			"date_of_origin": "Assur-etel-ilani.limu Adad-remanni.08.14",
			"day": "14",
			"designation": "al-Rafidan 17 20",
			"dialect": "Neo-Assyrian",
			"eponym": "Adad-rēmanni",
			"genre": "Legal Transaction",
			"has_date": "yes",
			"language": "Akkadian",
			"last_mod_by": "Tushingham",
			"last_modified": "02.11.2021",
			"list_name": "atae/rfdn17:P522475",
			"long_date_gen": "Arahsamna 14th, eponymy of Adad-rēmanni",
			"material": "clay",
			"month": "VIII",
			"object_type": "tablet",
			"period": "Neo-Assyrian",
			"pleiades_id": "893945",
			"regnal_dates": "ca. 630–627 BC",
			"ruler": "Aššur-etel-ilāni",
			"script": "Neo-Assyrian",
			"script_remarks": "inscribed",
			"script_type": "Cuneiform",
			"year": "631*",
			"ch_no": "01",
			"ch_name": "The Archive of Aššur-mātu-taqqin found in the new town of Aššur and dated mainly by Post-Canonical Eponyms",
			"ch_num_name": "01 (The Archive of Aššur-mātu-taqqin found in the new town of Aššur and dated mainly by Post-Canonical Eponyms)"
		},
		"geometry": {
			"type": "Point",
			"coordinates": [43.262037,35.458121]
		}
	}, {
		"type": "Feature",
		"properties": {
			"project": "rfdn17",
			"id_text": "P522476",
			"primary_publication": "al-Rafidan 17 21",
			"museum_no": "IM 119576",
			"accession_no": "Shelf no. 0934",
			"provenience": "Qalat Sherqat (Assur)",
			"excavation_no": "Assur 23",
			"archive": "053 - Aššur-matu-taqqin Archive",
			"date": "640*-III-15",
			"long_date": "Simanu 15th, eponymy of Šamaš-metu-uballiṭ",
			"atae_attribution": "Adapted from Ali Yaseen Ahmad&apos;s article &quot;The Archive of Aššur-mātu-taqqin Found in the New Town of Aššur and Dated Mainly by Post-canonical Eponyms,&quot; al-Rāfidān 17 (1996), pp. 207–288, by Jamie Novotny and Poppy Tushingham (2021) for the Munich Open-access Cuneiform Corpus Initiative (MOCCI), which is funded by LMU Munich and the Alexander von Humboldt Foundation at the Historisches Seminar - Abteilung Alte Geschichte of Ludwig-Maximilians-Universität München. The online edition is released under the Creative Commons Attribution Share-Alike license 3.0.",
			"cite_as": "Please cite this page as http://oracc.org/atae/P522476/.",
			"collection": "National Museum of Iraq, Baghdad, Iraq",
			"composite_witness": "witness",
			"credits": "Adapted from Ali Yaseen Ahmad&apos;s article &quot;The Archive of Aššur-mātu-taqqin Found in the New Town of Aššur and Dated Mainly by Post-canonical Eponyms,&quot; al-Rāfidān 17 (1996), pp. 207–288, by Jamie Novotny and Poppy Tushingham (2021) for the Munich Open-access Cuneiform Corpus Initiative (MOCCI), which is funded by LMU Munich and the Alexander von Humboldt Foundation at the Historisches Seminar - Abteilung Alte Geschichte of Ludwig-Maximilians-Universität München. The online edition is released under the Creative Commons Attribution Share-Alike license 3.0. Please cite this page as http://oracc.org/atae/P522476/.",
			"date_gen": "640*-III-15",
			"date_of_origin": "Assurbanipal.limu Shamash-metu-uballit.03.15",
			"day": "15",
			"designation": "al-Rafidan 17 21",
			"dialect": "Neo-Assyrian",
			"eponym": "Šamaš-mētu-uballiṭ",
			"genre": "Legal Transaction",
			"has_date": "yes",
			"language": "Akkadian",
			"last_mod_by": "Tushingham",
			"last_modified": "02.11.2021",
			"list_name": "atae/rfdn17:P522476",
			"long_date_gen": "Simānu 15th, eponymy of Šamaš-mētu-uballiṭ",
			"material": "clay",
			"month": "III",
			"object_type": "tablet, envelope",
			"period": "Neo-Assyrian",
			"pleiades_id": "893945",
			"regnal_dates": "668–ca. 631 BC",
			"ruler": "Ashurbanipal",
			"script": "Neo-Assyrian",
			"script_remarks": "inscribed",
			"script_type": "Cuneiform",
			"year": "640*",
			"ch_no": "01",
			"ch_name": "The Archive of Aššur-mātu-taqqin found in the new town of Aššur and dated mainly by Post-Canonical Eponyms",
			"ch_num_name": "01 (The Archive of Aššur-mātu-taqqin found in the new town of Aššur and dated mainly by Post-Canonical Eponyms)"
		},
		"geometry": {
			"type": "Point",
			"coordinates": [43.262037,35.458121]
		}
	}, {
		"type": "Feature",
		"properties": {
			"project": "rfdn17",
			"id_text": "P522477",
			"primary_publication": "al-Rafidan 17 22",
			"museum_no": "IM 119290",
			"accession_no": "Shelf no. 0935",
			"provenience": "Qalat Sherqat (Assur)",
			"excavation_no": "Assur 24",
			"archive": "053 - Aššur-matu-taqqin Archive",
			"date": "612*-XII-12",
			"long_date": "Addaru 12th, eponymy of Šamaš-sarru-ibni",
			"atae_attribution": "Adapted from Ali Yaseen Ahmad&apos;s article &quot;The Archive of Aššur-mātu-taqqin Found in the New Town of Aššur and Dated Mainly by Post-canonical Eponyms,&quot; al-Rāfidān 17 (1996), pp. 207–288, by Jamie Novotny and Poppy Tushingham (2021) for the Munich Open-access Cuneiform Corpus Initiative (MOCCI), which is funded by LMU Munich and the Alexander von Humboldt Foundation at the Historisches Seminar - Abteilung Alte Geschichte of Ludwig-Maximilians-Universität München. The online edition is released under the Creative Commons Attribution Share-Alike license 3.0.",
			"cite_as": "Please cite this page as http://oracc.org/atae/P522477/.",
			"collection": "National Museum of Iraq, Baghdad, Iraq",
			"composite_witness": "witness",
			"credits": "Adapted from Ali Yaseen Ahmad&apos;s article &quot;The Archive of Aššur-mātu-taqqin Found in the New Town of Aššur and Dated Mainly by Post-canonical Eponyms,&quot; al-Rāfidān 17 (1996), pp. 207–288, by Jamie Novotny and Poppy Tushingham (2021) for the Munich Open-access Cuneiform Corpus Initiative (MOCCI), which is funded by LMU Munich and the Alexander von Humboldt Foundation at the Historisches Seminar - Abteilung Alte Geschichte of Ludwig-Maximilians-Universität München. The online edition is released under the Creative Commons Attribution Share-Alike license 3.0. Please cite this page as http://oracc.org/atae/P522477/.",
			"date_gen": "612*-XII-12",
			"date_of_origin": "Sin-sharru-ishkun.limu Shamash-sharru-ibni.12.12",
			"day": "12",
			"designation": "al-Rafidan 17 22",
			"dialect": "Neo-Assyrian",
			"eponym": "Šamaš-šarru-ibni",
			"genre": "Legal Transaction",
			"has_date": "yes",
			"language": "Akkadian",
			"last_mod_by": "Tushingham",
			"last_modified": "02.11.2021",
			"list_name": "atae/rfdn17:P522477",
			"long_date_gen": "Addaru 12th, eponymy of Šamaš-šarru-ibni",
			"material": "clay",
			"month": "XII",
			"object_type": "tablet",
			"period": "Neo-Assyrian",
			"pleiades_id": "893945",
			"regnal_dates": "ca. 626–612 BC",
			"ruler": "Sîn-šarru-iškun",
			"script": "Neo-Assyrian",
			"script_remarks": "inscribed",
			"script_type": "Cuneiform",
			"year": "612*",
			"ch_no": "01",
			"ch_name": "The Archive of Aššur-mātu-taqqin found in the new town of Aššur and dated mainly by Post-Canonical Eponyms",
			"ch_num_name": "01 (The Archive of Aššur-mātu-taqqin found in the new town of Aššur and dated mainly by Post-Canonical Eponyms)"
		},
		"geometry": {
			"type": "Point",
			"coordinates": [43.262037,35.458121]
		}
	}, {
		"type": "Feature",
		"properties": {
			"project": "rfdn17",
			"id_text": "P522478",
			"primary_publication": "al-Rafidan 17 23",
			"museum_no": "IM 119287",
			"accession_no": "Shelf no. 0936",
			"provenience": "Qalat Sherqat (Assur)",
			"excavation_no": "Assur 25",
			"archive": "053 - Aššur-matu-taqqin Archive",
			"date": "633*-XII-20",
			"long_date": "Addaru 20th, eponymy of Upaqa-ana-Arba&apos;il",
			"atae_attribution": "Adapted from Ali Yaseen Ahmad&apos;s article &quot;The Archive of Aššur-mātu-taqqin Found in the New Town of Aššur and Dated Mainly by Post-canonical Eponyms,&quot; al-Rāfidān 17 (1996), pp. 207–288, by Jamie Novotny and Poppy Tushingham (2021) for the Munich Open-access Cuneiform Corpus Initiative (MOCCI), which is funded by LMU Munich and the Alexander von Humboldt Foundation at the Historisches Seminar - Abteilung Alte Geschichte of Ludwig-Maximilians-Universität München. The online edition is released under the Creative Commons Attribution Share-Alike license 3.0.",
			"cite_as": "Please cite this page as http://oracc.org/atae/P522478/.",
			"collection": "National Museum of Iraq, Baghdad, Iraq",
			"composite_witness": "witness",
			"credits": "Adapted from Ali Yaseen Ahmad&apos;s article &quot;The Archive of Aššur-mātu-taqqin Found in the New Town of Aššur and Dated Mainly by Post-canonical Eponyms,&quot; al-Rāfidān 17 (1996), pp. 207–288, by Jamie Novotny and Poppy Tushingham (2021) for the Munich Open-access Cuneiform Corpus Initiative (MOCCI), which is funded by LMU Munich and the Alexander von Humboldt Foundation at the Historisches Seminar - Abteilung Alte Geschichte of Ludwig-Maximilians-Universität München. The online edition is released under the Creative Commons Attribution Share-Alike license 3.0. Please cite this page as http://oracc.org/atae/P522478/.",
			"date_gen": "633*-XII-20",
			"date_of_origin": "Assurbanipal.limu Upaqa-ana-Arbail.12.20",
			"day": "20",
			"designation": "al-Rafidan 17 23",
			"dialect": "Neo-Assyrian",
			"eponym": "Upāqa-ana-Arbail",
			"genre": "Legal Transaction",
			"has_date": "yes",
			"language": "Akkadian",
			"last_mod_by": "Tushingham",
			"last_modified": "02.11.2021",
			"list_name": "atae/rfdn17:P522478",
			"long_date_gen": "Addaru 20th, eponymy of Upāqa-ana-Arbail",
			"material": "clay",
			"month": "XII",
			"object_type": "tablet",
			"period": "Neo-Assyrian",
			"pleiades_id": "893945",
			"regnal_dates": "668–ca. 631 BC",
			"ruler": "Ashurbanipal",
			"script": "Neo-Assyrian",
			"script_remarks": "inscribed",
			"script_type": "Cuneiform",
			"year": "633*",
			"ch_no": "01",
			"ch_name": "The Archive of Aššur-mātu-taqqin found in the new town of Aššur and dated mainly by Post-Canonical Eponyms",
			"ch_num_name": "01 (The Archive of Aššur-mātu-taqqin found in the new town of Aššur and dated mainly by Post-Canonical Eponyms)"
		},
		"geometry": {
			"type": "Point",
			"coordinates": [43.262037,35.458121]
		}
	}, {
		"type": "Feature",
		"properties": {
			"project": "rfdn17",
			"id_text": "P522479",
			"primary_publication": "al-Rafidan 17 24",
			"museum_no": "IM 119282",
			"accession_no": "Shelf no. 0937",
			"provenience": "Qalat Sherqat (Assur)",
			"excavation_no": "Assur 26",
			"archive": "053 - Aššur-matu-taqqin Archive",
			"date": "618*-XI-30",
			"long_date": "Šabaṭu 30th, eponymy of Nabû-sakip",
			"atae_attribution": "Adapted from Ali Yaseen Ahmad&apos;s article &quot;The Archive of Aššur-mātu-taqqin Found in the New Town of Aššur and Dated Mainly by Post-canonical Eponyms,&quot; al-Rāfidān 17 (1996), pp. 207–288, by Jamie Novotny and Poppy Tushingham (2021) for the Munich Open-access Cuneiform Corpus Initiative (MOCCI), which is funded by LMU Munich and the Alexander von Humboldt Foundation at the Historisches Seminar - Abteilung Alte Geschichte of Ludwig-Maximilians-Universität München. The online edition is released under the Creative Commons Attribution Share-Alike license 3.0.",
			"cite_as": "Please cite this page as http://oracc.org/atae/P522479/.",
			"collection": "National Museum of Iraq, Baghdad, Iraq",
			"composite_witness": "witness",
			"credits": "Adapted from Ali Yaseen Ahmad&apos;s article &quot;The Archive of Aššur-mātu-taqqin Found in the New Town of Aššur and Dated Mainly by Post-canonical Eponyms,&quot; al-Rāfidān 17 (1996), pp. 207–288, by Jamie Novotny and Poppy Tushingham (2021) for the Munich Open-access Cuneiform Corpus Initiative (MOCCI), which is funded by LMU Munich and the Alexander von Humboldt Foundation at the Historisches Seminar - Abteilung Alte Geschichte of Ludwig-Maximilians-Universität München. The online edition is released under the Creative Commons Attribution Share-Alike license 3.0. Please cite this page as http://oracc.org/atae/P522479/.",
			"date_gen": "618*-XI-30",
			"date_of_origin": "Sin-sharru-ishkun.limu Nabu-sagibi.11.30",
			"day": "30",
			"designation": "al-Rafidan 17 24",
			"dialect": "Neo-Assyrian",
			"eponym": "Nabû-sagībi",
			"genre": "Legal Transaction",
			"has_date": "yes",
			"language": "Akkadian",
			"last_mod_by": "Tushingham",
			"last_modified": "02.11.2021",
			"list_name": "atae/rfdn17:P522479",
			"long_date_gen": "Šabāṭu 30th, eponymy of Nabû-sagībi",
			"material": "clay",
			"month": "XI",
			"object_type": "tablet",
			"period": "Neo-Assyrian",
			"pleiades_id": "893945",
			"regnal_dates": "ca. 626–612 BC",
			"ruler": "Sîn-šarru-iškun",
			"script": "Neo-Assyrian",
			"script_remarks": "inscribed",
			"script_type": "Cuneiform",
			"year": "618*",
			"ch_no": "01",
			"ch_name": "The Archive of Aššur-mātu-taqqin found in the new town of Aššur and dated mainly by Post-Canonical Eponyms",
			"ch_num_name": "01 (The Archive of Aššur-mātu-taqqin found in the new town of Aššur and dated mainly by Post-Canonical Eponyms)"
		},
		"geometry": {
			"type": "Point",
			"coordinates": [43.262037,35.458121]
		}
	}, {
		"type": "Feature",
		"properties": {
			"project": "rfdn17",
			"id_text": "P522480",
			"primary_publication": "al-Rafidan 17 25",
			"accession_no": "Shelf no. 0944",
			"provenience": "Qalat Sherqat (Assur)",
			"excavation_no": "Assur 33 A",
			"archive": "053 - Aššur-matu-taqqin Archive",
			"date": "616*-VIII-01",
			"long_date": "Arahsamna 1st, eponymy of Bel-ahu-uṣur",
			"atae_attribution": "Adapted from Ali Yaseen Ahmad&apos;s article &quot;The Archive of Aššur-mātu-taqqin Found in the New Town of Aššur and Dated Mainly by Post-canonical Eponyms,&quot; al-Rāfidān 17 (1996), pp. 207–288, by Jamie Novotny and Poppy Tushingham (2021) for the Munich Open-access Cuneiform Corpus Initiative (MOCCI), which is funded by LMU Munich and the Alexander von Humboldt Foundation at the Historisches Seminar - Abteilung Alte Geschichte of Ludwig-Maximilians-Universität München. The online edition is released under the Creative Commons Attribution Share-Alike license 3.0.",
			"cite_as": "Please cite this page as http://oracc.org/atae/P522480/.",
			"collection": "National Museum of Iraq, Baghdad, Iraq",
			"composite_witness": "witness",
			"credits": "Adapted from Ali Yaseen Ahmad&apos;s article &quot;The Archive of Aššur-mātu-taqqin Found in the New Town of Aššur and Dated Mainly by Post-canonical Eponyms,&quot; al-Rāfidān 17 (1996), pp. 207–288, by Jamie Novotny and Poppy Tushingham (2021) for the Munich Open-access Cuneiform Corpus Initiative (MOCCI), which is funded by LMU Munich and the Alexander von Humboldt Foundation at the Historisches Seminar - Abteilung Alte Geschichte of Ludwig-Maximilians-Universität München. The online edition is released under the Creative Commons Attribution Share-Alike license 3.0. Please cite this page as http://oracc.org/atae/P522480/.",
			"date_gen": "616*-VIII-01",
			"date_of_origin": "Sin-sharru-ishkun.limu Bel-ahu-usur.08.01",
			"day": "01",
			"designation": "al-Rafidan 17 25",
			"dialect": "Neo-Assyrian",
			"eponym": "Bēl-ahu-uṣur",
			"genre": "Legal Transaction",
			"has_date": "yes",
			"language": "Akkadian",
			"last_mod_by": "Tushingham",
			"last_modified": "02.11.2021",
			"list_name": "atae/rfdn17:P522480",
			"long_date_gen": "Arahsamna 1st, eponymy of Bēl-ahu-uṣur",
			"material": "clay",
			"month": "VIII",
			"object_type": "tablet",
			"period": "Neo-Assyrian",
			"pleiades_id": "893945",
			"regnal_dates": "ca. 626–612 BC",
			"ruler": "Sîn-šarru-iškun",
			"script": "Neo-Assyrian",
			"script_remarks": "inscribed",
			"script_type": "Cuneiform",
			"year": "616*",
			"ch_no": "01",
			"ch_name": "The Archive of Aššur-mātu-taqqin found in the new town of Aššur and dated mainly by Post-Canonical Eponyms",
			"ch_num_name": "01 (The Archive of Aššur-mātu-taqqin found in the new town of Aššur and dated mainly by Post-Canonical Eponyms)"
		},
		"geometry": {
			"type": "Point",
			"coordinates": [43.262037,35.458121]
		}
	}, {
		"type": "Feature",
		"properties": {
			"project": "rfdn17",
			"id_text": "P522481",
			"primary_publication": "al-Rafidan 17 26",
			"accession_no": "Shelf no. 0945",
			"provenience": "Qalat Sherqat (Assur)",
			"excavation_no": "Assur 34 A",
			"archive": "053 - Aššur-matu-taqqin Archive",
			"date": "618*-VI-02",
			"long_date": "Ululu 2nd, eponymy of Nabû-sakip",
			"atae_attribution": "Adapted from Ali Yaseen Ahmad&apos;s article &quot;The Archive of Aššur-mātu-taqqin Found in the New Town of Aššur and Dated Mainly by Post-canonical Eponyms,&quot; al-Rāfidān 17 (1996), pp. 207–288, by Jamie Novotny and Poppy Tushingham (2021) for the Munich Open-access Cuneiform Corpus Initiative (MOCCI), which is funded by LMU Munich and the Alexander von Humboldt Foundation at the Historisches Seminar - Abteilung Alte Geschichte of Ludwig-Maximilians-Universität München. The online edition is released under the Creative Commons Attribution Share-Alike license 3.0.",
			"cite_as": "Please cite this page as http://oracc.org/atae/P522481/.",
			"collection": "National Museum of Iraq, Baghdad, Iraq",
			"composite_witness": "witness",
			"credits": "Adapted from Ali Yaseen Ahmad&apos;s article &quot;The Archive of Aššur-mātu-taqqin Found in the New Town of Aššur and Dated Mainly by Post-canonical Eponyms,&quot; al-Rāfidān 17 (1996), pp. 207–288, by Jamie Novotny and Poppy Tushingham (2021) for the Munich Open-access Cuneiform Corpus Initiative (MOCCI), which is funded by LMU Munich and the Alexander von Humboldt Foundation at the Historisches Seminar - Abteilung Alte Geschichte of Ludwig-Maximilians-Universität München. The online edition is released under the Creative Commons Attribution Share-Alike license 3.0. Please cite this page as http://oracc.org/atae/P522481/.",
			"date_gen": "618*-VI-02",
			"date_of_origin": "Sin-sharru-ishkun.limu Nabu-sagibi.06.02",
			"day": "02",
			"designation": "al-Rafidan 17 26",
			"dialect": "Neo-Assyrian",
			"eponym": "Nabû-sagībi",
			"genre": "Legal Transaction",
			"has_date": "yes",
			"language": "Akkadian",
			"last_mod_by": "Tushingham",
			"last_modified": "02.11.2021",
			"list_name": "atae/rfdn17:P522481",
			"long_date_gen": "Ulūlu 2nd, eponymy of Nabû-sagībi",
			"material": "clay",
			"month": "VI",
			"object_type": "tablet, envelope",
			"period": "Neo-Assyrian",
			"pleiades_id": "893945",
			"regnal_dates": "ca. 626–612 BC",
			"ruler": "Sîn-šarru-iškun",
			"script": "Neo-Assyrian",
			"script_remarks": "inscribed",
			"script_type": "Cuneiform",
			"year": "618*",
			"ch_no": "01",
			"ch_name": "The Archive of Aššur-mātu-taqqin found in the new town of Aššur and dated mainly by Post-Canonical Eponyms",
			"ch_num_name": "01 (The Archive of Aššur-mātu-taqqin found in the new town of Aššur and dated mainly by Post-Canonical Eponyms)"
		},
		"geometry": {
			"type": "Point",
			"coordinates": [43.262037,35.458121]
		}
	}, {
		"type": "Feature",
		"properties": {
			"project": "rfdn17",
			"id_text": "P522482",
			"primary_publication": "al-Rafidan 17 27",
			"accession_no": "Shelf no. 0946",
			"provenience": "Qalat Sherqat (Assur)",
			"excavation_no": "Assur 35 A",
			"archive": "053 - Aššur-matu-taqqin Archive",
			"date": "618*-XII-01",
			"long_date": "Addaru 1st, eponymy of Nabû-sakip",
			"atae_attribution": "Adapted from Ali Yaseen Ahmad&apos;s article &quot;The Archive of Aššur-mātu-taqqin Found in the New Town of Aššur and Dated Mainly by Post-canonical Eponyms,&quot; al-Rāfidān 17 (1996), pp. 207–288, by Jamie Novotny and Poppy Tushingham (2021) for the Munich Open-access Cuneiform Corpus Initiative (MOCCI), which is funded by LMU Munich and the Alexander von Humboldt Foundation at the Historisches Seminar - Abteilung Alte Geschichte of Ludwig-Maximilians-Universität München. The online edition is released under the Creative Commons Attribution Share-Alike license 3.0.",
			"cite_as": "Please cite this page as http://oracc.org/atae/P522482/.",
			"collection": "National Museum of Iraq, Baghdad, Iraq",
			"composite_witness": "witness",
			"credits": "Adapted from Ali Yaseen Ahmad&apos;s article &quot;The Archive of Aššur-mātu-taqqin Found in the New Town of Aššur and Dated Mainly by Post-canonical Eponyms,&quot; al-Rāfidān 17 (1996), pp. 207–288, by Jamie Novotny and Poppy Tushingham (2021) for the Munich Open-access Cuneiform Corpus Initiative (MOCCI), which is funded by LMU Munich and the Alexander von Humboldt Foundation at the Historisches Seminar - Abteilung Alte Geschichte of Ludwig-Maximilians-Universität München. The online edition is released under the Creative Commons Attribution Share-Alike license 3.0. Please cite this page as http://oracc.org/atae/P522482/.",
			"date_gen": "618*-XII-01",
			"date_of_origin": "Sin-sharru-ishkun.limu Nabu-sagibi.12.01",
			"day": "01",
			"designation": "al-Rafidan 17 27",
			"dialect": "Neo-Assyrian",
			"eponym": "Nabû-sagībi",
			"genre": "Legal Transaction",
			"has_date": "yes",
			"language": "Akkadian",
			"last_mod_by": "Tushingham",
			"last_modified": "02.11.2021",
			"list_name": "atae/rfdn17:P522482",
			"long_date_gen": "Addaru 1st, eponymy of Nabû-sagībi",
			"material": "clay",
			"month": "XII",
			"object_type": "tablet",
			"period": "Neo-Assyrian",
			"pleiades_id": "893945",
			"regnal_dates": "ca. 626–612 BC",
			"ruler": "Sîn-šarru-iškun",
			"script": "Neo-Assyrian",
			"script_remarks": "inscribed",
			"script_type": "Cuneiform",
			"year": "618*",
			"ch_no": "01",
			"ch_name": "The Archive of Aššur-mātu-taqqin found in the new town of Aššur and dated mainly by Post-Canonical Eponyms",
			"ch_num_name": "01 (The Archive of Aššur-mātu-taqqin found in the new town of Aššur and dated mainly by Post-Canonical Eponyms)"
		},
		"geometry": {
			"type": "Point",
			"coordinates": [43.262037,35.458121]
		}
	}, {
		"type": "Feature",
		"properties": {
			"project": "rfdn17",
			"id_text": "P522483",
			"primary_publication": "al-Rafidan 17 28",
			"accession_no": "Shelf no. 0921",
			"provenience": "Qalat Sherqat (Assur)",
			"excavation_no": "Assur 10",
			"archive": "053 - Aššur-matu-taqqin Archive",
			"atae_attribution": "Adapted from Ali Yaseen Ahmad&apos;s article &quot;The Archive of Aššur-mātu-taqqin Found in the New Town of Aššur and Dated Mainly by Post-canonical Eponyms,&quot; al-Rāfidān 17 (1996), pp. 207–288, by Jamie Novotny and Poppy Tushingham (2021) for the Munich Open-access Cuneiform Corpus Initiative (MOCCI), which is funded by LMU Munich and the Alexander von Humboldt Foundation at the Historisches Seminar - Abteilung Alte Geschichte of Ludwig-Maximilians-Universität München. The online edition is released under the Creative Commons Attribution Share-Alike license 3.0.",
			"cite_as": "Please cite this page as http://oracc.org/atae/P522483/.",
			"collection": "National Museum of Iraq, Baghdad, Iraq",
			"composite_witness": "witness",
			"credits": "Adapted from Ali Yaseen Ahmad&apos;s article &quot;The Archive of Aššur-mātu-taqqin Found in the New Town of Aššur and Dated Mainly by Post-canonical Eponyms,&quot; al-Rāfidān 17 (1996), pp. 207–288, by Jamie Novotny and Poppy Tushingham (2021) for the Munich Open-access Cuneiform Corpus Initiative (MOCCI), which is funded by LMU Munich and the Alexander von Humboldt Foundation at the Historisches Seminar - Abteilung Alte Geschichte of Ludwig-Maximilians-Universität München. The online edition is released under the Creative Commons Attribution Share-Alike license 3.0. Please cite this page as http://oracc.org/atae/P522483/.",
			"date_of_origin": "00.000.00.00",
			"designation": "al-Rafidan 17 28",
			"dialect": "Neo-Assyrian",
			"genre": "Administrative Letter",
			"has_date": "no",
			"language": "Akkadian",
			"last_mod_by": "Tushingham",
			"last_modified": "02.11.2021",
			"list_name": "atae/rfdn17:P522483",
			"material": "clay",
			"object_type": "tablet",
			"period": "Neo-Assyrian",
			"pleiades_id": "893945",
			"script": "Neo-Assyrian",
			"script_remarks": "inscribed",
			"script_type": "Cuneiform",
			"ch_no": "01",
			"ch_name": "The Archive of Aššur-mātu-taqqin found in the new town of Aššur and dated mainly by Post-Canonical Eponyms",
			"ch_num_name": "01 (The Archive of Aššur-mātu-taqqin found in the new town of Aššur and dated mainly by Post-Canonical Eponyms)"
		},
		"geometry": {
			"type": "Point",
			"coordinates": [43.262037,35.458121]
		}
	}, {
		"type": "Feature",
		"properties": {
			"project": "rfdn17",
			"id_text": "P522484",
			"primary_publication": "al-Rafidan 17 29",
			"accession_no": "Shelf no. 0916",
			"provenience": "Qalat Sherqat (Assur)",
			"excavation_no": "Assur 05",
			"archive": "053 - Aššur-matu-taqqin Archive",
			"atae_attribution": "Adapted from Ali Yaseen Ahmad&apos;s article &quot;The Archive of Aššur-mātu-taqqin Found in the New Town of Aššur and Dated Mainly by Post-canonical Eponyms,&quot; al-Rāfidān 17 (1996), pp. 207–288, by Jamie Novotny and Poppy Tushingham (2021) for the Munich Open-access Cuneiform Corpus Initiative (MOCCI), which is funded by LMU Munich and the Alexander von Humboldt Foundation at the Historisches Seminar - Abteilung Alte Geschichte of Ludwig-Maximilians-Universität München. The online edition is released under the Creative Commons Attribution Share-Alike license 3.0.",
			"cite_as": "Please cite this page as http://oracc.org/atae/P522484/.",
			"collection": "National Museum of Iraq, Baghdad, Iraq",
			"composite_witness": "witness",
			"credits": "Adapted from Ali Yaseen Ahmad&apos;s article &quot;The Archive of Aššur-mātu-taqqin Found in the New Town of Aššur and Dated Mainly by Post-canonical Eponyms,&quot; al-Rāfidān 17 (1996), pp. 207–288, by Jamie Novotny and Poppy Tushingham (2021) for the Munich Open-access Cuneiform Corpus Initiative (MOCCI), which is funded by LMU Munich and the Alexander von Humboldt Foundation at the Historisches Seminar - Abteilung Alte Geschichte of Ludwig-Maximilians-Universität München. The online edition is released under the Creative Commons Attribution Share-Alike license 3.0. Please cite this page as http://oracc.org/atae/P522484/.",
			"date_of_origin": "00.000.00.00",
			"designation": "al-Rafidan 17 29",
			"dialect": "Neo-Assyrian",
			"genre": "Administrative Record",
			"has_date": "no",
			"language": "Akkadian",
			"last_mod_by": "Tushingham",
			"last_modified": "02.11.2021",
			"list_name": "atae/rfdn17:P522484",
			"material": "clay",
			"object_type": "tablet",
			"period": "Neo-Assyrian",
			"pleiades_id": "893945",
			"script": "Neo-Assyrian",
			"script_remarks": "inscribed",
			"script_type": "Cuneiform",
			"ch_no": "01",
			"ch_name": "The Archive of Aššur-mātu-taqqin found in the new town of Aššur and dated mainly by Post-Canonical Eponyms",
			"ch_num_name": "01 (The Archive of Aššur-mātu-taqqin found in the new town of Aššur and dated mainly by Post-Canonical Eponyms)"
		},
		"geometry": {
			"type": "Point",
			"coordinates": [43.262037,35.458121]
		}
	}, {
		"type": "Feature",
		"properties": {
			"project": "rfdn17",
			"id_text": "P522485",
			"primary_publication": "al-Rafidan 17 30",
			"accession_no": "Shelf no. 0923",
			"provenience": "Qalat Sherqat (Assur)",
			"excavation_no": "Assur 12",
			"archive": "053 - Aššur-matu-taqqin Archive",
			"date": "638*-II-16",
			"long_date": "Ayyaru 16th, eponymy of Aššur-gimilli-terre",
			"atae_attribution": "Adapted from Ali Yaseen Ahmad&apos;s article &quot;The Archive of Aššur-mātu-taqqin Found in the New Town of Aššur and Dated Mainly by Post-canonical Eponyms,&quot; al-Rāfidān 17 (1996), pp. 207–288, by Jamie Novotny and Poppy Tushingham (2021) for the Munich Open-access Cuneiform Corpus Initiative (MOCCI), which is funded by LMU Munich and the Alexander von Humboldt Foundation at the Historisches Seminar - Abteilung Alte Geschichte of Ludwig-Maximilians-Universität München. The online edition is released under the Creative Commons Attribution Share-Alike license 3.0.",
			"cite_as": "Please cite this page as http://oracc.org/atae/P522485/.",
			"collection": "National Museum of Iraq, Baghdad, Iraq",
			"composite_witness": "witness",
			"credits": "Adapted from Ali Yaseen Ahmad&apos;s article &quot;The Archive of Aššur-mātu-taqqin Found in the New Town of Aššur and Dated Mainly by Post-canonical Eponyms,&quot; al-Rāfidān 17 (1996), pp. 207–288, by Jamie Novotny and Poppy Tushingham (2021) for the Munich Open-access Cuneiform Corpus Initiative (MOCCI), which is funded by LMU Munich and the Alexander von Humboldt Foundation at the Historisches Seminar - Abteilung Alte Geschichte of Ludwig-Maximilians-Universität München. The online edition is released under the Creative Commons Attribution Share-Alike license 3.0. Please cite this page as http://oracc.org/atae/P522485/.",
			"date_gen": "638*-II-16",
			"date_of_origin": "Assurbanipal.limu Assur-gimilli-tere.02.16",
			"day": "16",
			"designation": "al-Rafidan 17 30",
			"dialect": "Neo-Assyrian",
			"eponym": "Aššur-gimilli-tēre",
			"genre": "Legal Transaction",
			"has_date": "yes",
			"language": "Akkadian",
			"last_mod_by": "Tushingham",
			"last_modified": "02.11.2021",
			"list_name": "atae/rfdn17:P522485",
			"long_date_gen": "Ayyāru 16th, eponymy of Aššur-gimilli-tēre",
			"material": "clay",
			"month": "II",
			"object_type": "tablet",
			"period": "Neo-Assyrian",
			"pleiades_id": "893945",
			"regnal_dates": "668–ca. 631 BC",
			"ruler": "Ashurbanipal",
			"script": "Neo-Assyrian",
			"script_remarks": "inscribed",
			"script_type": "Cuneiform",
			"year": "638*",
			"ch_no": "01",
			"ch_name": "The Archive of Aššur-mātu-taqqin found in the new town of Aššur and dated mainly by Post-Canonical Eponyms",
			"ch_num_name": "01 (The Archive of Aššur-mātu-taqqin found in the new town of Aššur and dated mainly by Post-Canonical Eponyms)"
		},
		"geometry": {
			"type": "Point",
			"coordinates": [43.262037,35.458121]
		}
	}, {
		"type": "Feature",
		"properties": {
			"project": "rfdn17",
			"id_text": "P522486",
			"primary_publication": "al-Rafidan 17 31",
			"accession_no": "Shelf no. 0939",
			"provenience": "Qalat Sherqat (Assur)",
			"excavation_no": "Assur 27",
			"archive": "053 - Aššur-matu-taqqin Archive",
			"date": "639*-V-[...]",
			"long_date": "Abu [...th], eponymy of Muša[llim-Aššur]",
			"atae_attribution": "Adapted from Ali Yaseen Ahmad&apos;s article &quot;The Archive of Aššur-mātu-taqqin Found in the New Town of Aššur and Dated Mainly by Post-canonical Eponyms,&quot; al-Rāfidān 17 (1996), pp. 207–288, by Jamie Novotny and Poppy Tushingham (2021) for the Munich Open-access Cuneiform Corpus Initiative (MOCCI), which is funded by LMU Munich and the Alexander von Humboldt Foundation at the Historisches Seminar - Abteilung Alte Geschichte of Ludwig-Maximilians-Universität München. The online edition is released under the Creative Commons Attribution Share-Alike license 3.0.",
			"cite_as": "Please cite this page as http://oracc.org/atae/P522486/.",
			"collection": "National Museum of Iraq, Baghdad, Iraq",
			"composite_witness": "witness",
			"credits": "Adapted from Ali Yaseen Ahmad&apos;s article &quot;The Archive of Aššur-mātu-taqqin Found in the New Town of Aššur and Dated Mainly by Post-canonical Eponyms,&quot; al-Rāfidān 17 (1996), pp. 207–288, by Jamie Novotny and Poppy Tushingham (2021) for the Munich Open-access Cuneiform Corpus Initiative (MOCCI), which is funded by LMU Munich and the Alexander von Humboldt Foundation at the Historisches Seminar - Abteilung Alte Geschichte of Ludwig-Maximilians-Universität München. The online edition is released under the Creative Commons Attribution Share-Alike license 3.0. Please cite this page as http://oracc.org/atae/P522486/.",
			"date_gen": "639*-V-[...]",
			"date_of_origin": "Assurbanipal.limu Mushallim-Assur.05.00",
			"day": "[...]",
			"designation": "al-Rafidan 17 31",
			"dialect": "Neo-Assyrian",
			"eponym": "Mušallim-Aššur",
			"genre": "Legal Transaction",
			"has_date": "yes, but date partially preserved",
			"language": "Akkadian",
			"last_mod_by": "Tushingham",
			"last_modified": "02.11.2021",
			"list_name": "atae/rfdn17:P522486",
			"long_date_gen": "Abu ...th, eponymy of Mušallim-Aššur",
			"material": "clay",
			"month": "V",
			"object_type": "tablet",
			"period": "Neo-Assyrian",
			"pleiades_id": "893945",
			"regnal_dates": "668–ca. 631 BC",
			"ruler": "Ashurbanipal",
			"script": "Neo-Assyrian",
			"script_remarks": "inscribed",
			"script_type": "Cuneiform",
			"year": "639*",
			"ch_no": "01",
			"ch_name": "The Archive of Aššur-mātu-taqqin found in the new town of Aššur and dated mainly by Post-Canonical Eponyms",
			"ch_num_name": "01 (The Archive of Aššur-mātu-taqqin found in the new town of Aššur and dated mainly by Post-Canonical Eponyms)"
		},
		"geometry": {
			"type": "Point",
			"coordinates": [43.262037,35.458121]
		}
	}, {
		"type": "Feature",
		"properties": {
			"project": "rfdn17",
			"id_text": "P522487",
			"primary_publication": "al-Rafidan 17 32",
			"accession_no": "Shelf no. 0924",
			"provenience": "Qalat Sherqat (Assur)",
			"excavation_no": "Assur 13",
			"archive": "053 - Aššur-matu-taqqin Archive",
			"date": "630*-XI-26",
			"long_date": "Šabaṭu 26th, eponymy of Šalmu-šarru-iqbi",
			"atae_attribution": "Adapted from Ali Yaseen Ahmad&apos;s article &quot;The Archive of Aššur-mātu-taqqin Found in the New Town of Aššur and Dated Mainly by Post-canonical Eponyms,&quot; al-Rāfidān 17 (1996), pp. 207–288, by Jamie Novotny and Poppy Tushingham (2021) for the Munich Open-access Cuneiform Corpus Initiative (MOCCI), which is funded by LMU Munich and the Alexander von Humboldt Foundation at the Historisches Seminar - Abteilung Alte Geschichte of Ludwig-Maximilians-Universität München. The online edition is released under the Creative Commons Attribution Share-Alike license 3.0.",
			"cite_as": "Please cite this page as http://oracc.org/atae/P522487/.",
			"collection": "National Museum of Iraq, Baghdad, Iraq",
			"composite_witness": "witness",
			"credits": "Adapted from Ali Yaseen Ahmad&apos;s article &quot;The Archive of Aššur-mātu-taqqin Found in the New Town of Aššur and Dated Mainly by Post-canonical Eponyms,&quot; al-Rāfidān 17 (1996), pp. 207–288, by Jamie Novotny and Poppy Tushingham (2021) for the Munich Open-access Cuneiform Corpus Initiative (MOCCI), which is funded by LMU Munich and the Alexander von Humboldt Foundation at the Historisches Seminar - Abteilung Alte Geschichte of Ludwig-Maximilians-Universität München. The online edition is released under the Creative Commons Attribution Share-Alike license 3.0. Please cite this page as http://oracc.org/atae/P522487/.",
			"date_gen": "630*-XI-26",
			"date_of_origin": "Assur-etel-ilani.limu Salmu-sharru-iqbi.11.26",
			"day": "26",
			"designation": "al-Rafidan 17 32",
			"dialect": "Neo-Assyrian",
			"eponym": "Ṣalmu-šarru-iqbi",
			"genre": "Legal Transaction",
			"has_date": "yes",
			"language": "Akkadian",
			"last_mod_by": "Tushingham",
			"last_modified": "02.11.2021",
			"list_name": "atae/rfdn17:P522487",
			"long_date_gen": "Šabāṭu 26th, eponymy of Ṣalmu-šarru-iqbi",
			"material": "clay",
			"month": "XI",
			"object_type": "tablet",
			"period": "Neo-Assyrian",
			"pleiades_id": "893945",
			"regnal_dates": "ca. 630–627 BC",
			"ruler": "Aššur-etel-ilāni",
			"script": "Neo-Assyrian",
			"script_remarks": "inscribed",
			"script_type": "Cuneiform",
			"year": "630*",
			"ch_no": "01",
			"ch_name": "The Archive of Aššur-mātu-taqqin found in the new town of Aššur and dated mainly by Post-Canonical Eponyms",
			"ch_num_name": "01 (The Archive of Aššur-mātu-taqqin found in the new town of Aššur and dated mainly by Post-Canonical Eponyms)"
		},
		"geometry": {
			"type": "Point",
			"coordinates": [43.262037,35.458121]
		}
	}, {
		"type": "Feature",
		"properties": {
			"project": "rfdn17",
			"id_text": "P522488",
			"primary_publication": "al-Rafidan 17 33",
			"accession_no": "Shelf no. 0931",
			"provenience": "Qalat Sherqat (Assur)",
			"excavation_no": "Assur 20",
			"archive": "053 - Aššur-matu-taqqin Archive",
			"date": "616*-VIII-22",
			"long_date": "Arahsamna 22nd, eponymy of Bel-ahu-uṣur",
			"atae_attribution": "Adapted from Ali Yaseen Ahmad&apos;s article &quot;The Archive of Aššur-mātu-taqqin Found in the New Town of Aššur and Dated Mainly by Post-canonical Eponyms,&quot; al-Rāfidān 17 (1996), pp. 207–288, by Jamie Novotny and Poppy Tushingham (2021) for the Munich Open-access Cuneiform Corpus Initiative (MOCCI), which is funded by LMU Munich and the Alexander von Humboldt Foundation at the Historisches Seminar - Abteilung Alte Geschichte of Ludwig-Maximilians-Universität München. The online edition is released under the Creative Commons Attribution Share-Alike license 3.0.",
			"cite_as": "Please cite this page as http://oracc.org/atae/P522488/.",
			"collection": "National Museum of Iraq, Baghdad, Iraq",
			"composite_witness": "witness",
			"credits": "Adapted from Ali Yaseen Ahmad&apos;s article &quot;The Archive of Aššur-mātu-taqqin Found in the New Town of Aššur and Dated Mainly by Post-canonical Eponyms,&quot; al-Rāfidān 17 (1996), pp. 207–288, by Jamie Novotny and Poppy Tushingham (2021) for the Munich Open-access Cuneiform Corpus Initiative (MOCCI), which is funded by LMU Munich and the Alexander von Humboldt Foundation at the Historisches Seminar - Abteilung Alte Geschichte of Ludwig-Maximilians-Universität München. The online edition is released under the Creative Commons Attribution Share-Alike license 3.0. Please cite this page as http://oracc.org/atae/P522488/.",
			"date_gen": "616*-VIII-22",
			"date_of_origin": "Sin-sharru-ishkun.limu Bel-ahu-usur.08.22",
			"day": "22",
			"designation": "al-Rafidan 17 33",
			"dialect": "Neo-Assyrian",
			"eponym": "Bēl-ahu-uṣur",
			"genre": "Legal Transaction",
			"has_date": "yes",
			"language": "Akkadian",
			"last_mod_by": "Tushingham",
			"last_modified": "02.11.2021",
			"list_name": "atae/rfdn17:P522488",
			"long_date_gen": "Arahsamna 22nd, eponymy of Bēl-ahu-uṣur",
			"material": "clay",
			"month": "VIII",
			"object_type": "tablet",
			"period": "Neo-Assyrian",
			"pleiades_id": "893945",
			"regnal_dates": "ca. 626–612 BC",
			"ruler": "Sîn-šarru-iškun",
			"script": "Neo-Assyrian",
			"script_remarks": "inscribed",
			"script_type": "Cuneiform",
			"year": "616*",
			"ch_no": "01",
			"ch_name": "The Archive of Aššur-mātu-taqqin found in the new town of Aššur and dated mainly by Post-Canonical Eponyms",
			"ch_num_name": "01 (The Archive of Aššur-mātu-taqqin found in the new town of Aššur and dated mainly by Post-Canonical Eponyms)"
		},
		"geometry": {
			"type": "Point",
			"coordinates": [43.262037,35.458121]
		}
	}, {
		"type": "Feature",
		"properties": {
			"project": "rfdn17",
			"id_text": "P522489",
			"primary_publication": "al-Rafidan 17 34",
			"accession_no": "Shelf no. 0940",
			"provenience": "Qalat Sherqat (Assur)",
			"excavation_no": "Assur 29",
			"archive": "053 - Aššur-matu-taqqin Archive",
			"date": "618*-XI-20",
			"long_date": "Šabaṭu 20th, eponymy of Nabû-sakip",
			"atae_attribution": "Adapted from Ali Yaseen Ahmad&apos;s article &quot;The Archive of Aššur-mātu-taqqin Found in the New Town of Aššur and Dated Mainly by Post-canonical Eponyms,&quot; al-Rāfidān 17 (1996), pp. 207–288, by Jamie Novotny and Poppy Tushingham (2021) for the Munich Open-access Cuneiform Corpus Initiative (MOCCI), which is funded by LMU Munich and the Alexander von Humboldt Foundation at the Historisches Seminar - Abteilung Alte Geschichte of Ludwig-Maximilians-Universität München. The online edition is released under the Creative Commons Attribution Share-Alike license 3.0.",
			"cite_as": "Please cite this page as http://oracc.org/atae/P522489/.",
			"collection": "National Museum of Iraq, Baghdad, Iraq",
			"composite_witness": "witness",
			"credits": "Adapted from Ali Yaseen Ahmad&apos;s article &quot;The Archive of Aššur-mātu-taqqin Found in the New Town of Aššur and Dated Mainly by Post-canonical Eponyms,&quot; al-Rāfidān 17 (1996), pp. 207–288, by Jamie Novotny and Poppy Tushingham (2021) for the Munich Open-access Cuneiform Corpus Initiative (MOCCI), which is funded by LMU Munich and the Alexander von Humboldt Foundation at the Historisches Seminar - Abteilung Alte Geschichte of Ludwig-Maximilians-Universität München. The online edition is released under the Creative Commons Attribution Share-Alike license 3.0. Please cite this page as http://oracc.org/atae/P522489/.",
			"date_gen": "618*-XI-20",
			"date_of_origin": "Sin-sharru-ishkun.limu Nabu-sagibi.11.20",
			"day": "20",
			"designation": "al-Rafidan 17 34",
			"dialect": "Neo-Assyrian",
			"eponym": "Nabû-sagībi",
			"genre": "Legal Transaction",
			"has_date": "yes",
			"language": "Akkadian",
			"last_mod_by": "Tushingham",
			"last_modified": "02.11.2021",
			"list_name": "atae/rfdn17:P522489",
			"long_date_gen": "Šabāṭu 20th, eponymy of Nabû-sagībi",
			"material": "clay",
			"month": "XI",
			"object_type": "tablet",
			"period": "Neo-Assyrian",
			"pleiades_id": "893945",
			"regnal_dates": "ca. 626–612 BC",
			"ruler": "Sîn-šarru-iškun",
			"script": "Neo-Assyrian",
			"script_remarks": "inscribed",
			"script_type": "Cuneiform",
			"year": "618*",
			"ch_no": "01",
			"ch_name": "The Archive of Aššur-mātu-taqqin found in the new town of Aššur and dated mainly by Post-Canonical Eponyms",
			"ch_num_name": "01 (The Archive of Aššur-mātu-taqqin found in the new town of Aššur and dated mainly by Post-Canonical Eponyms)"
		},
		"geometry": {
			"type": "Point",
			"coordinates": [43.262037,35.458121]
		}
	}]
}
