{
	"type": "FeatureCollection",
	"features": [{
		"type": "Feature",
		"properties": {
			"ancient_creditor": "Tikasu",
			"ancient_debtor": "Dādî",
			"archive": "001 - Mamu Temple, Room 8",
			"atae_attribution": "Adapted from Barbara Parker, “Tablets from the Temple of Mamu at Balawat,” Iraq 25 (1963): 86–103, by Jamie Novotny and Poppy Tushingham (2021) for the Munich Open-access Cuneiform Corpus Initiative (MOCCI), which is funded by LMU Munich and the Alexander von Humboldt Foundation at the Historisches Seminar - Abteilung Alte Geschichte of Ludwig-Maximilians-Universität München. The text was lemmatized by Jamie Novotny. The online edition is released under the Creative Commons Attribution Share-Alike license 3.0.",
			"cite_as": "Please cite this page as http://oracc.org/atae/P522820/.",
			"collection": "National Museum of Iraq, Baghdad, Iraq",
			"composite_witness": "witness",
			"credits": "Adapted from Barbara Parker, “Tablets from the Temple of Mamu at Balawat,” Iraq 25 (1963): 86–103, by Jamie Novotny and Poppy Tushingham (2021) for the Munich Open-access Cuneiform Corpus Initiative (MOCCI), which is funded by LMU Munich and the Alexander von Humboldt Foundation at the Historisches Seminar - Abteilung Alte Geschichte of Ludwig-Maximilians-Universität München. The text was lemmatized by Jamie Novotny. The online edition is released under the Creative Commons Attribution Share-Alike license 3.0. Please cite this page as http://oracc.org/atae/P522820/.",
			"date": "689-VIII-15",
			"date_gen": "689-VIII-15",
			"day": "15",
			"designation": "BT 100",
			"dialect": "Neo-Assyrian",
			"excavation_no": "BT 100",
			"genre": "Legal Transaction",
			"has_date": "yes",
			"id_text": "P522820",
			"language": "Akkadian",
			"list_name": "atae/imgurenlil:P522820@atae",
			"long_date": "Arahsamna 15th, eponymy of Gihilu",
			"material": "clay",
			"month": "VIII",
			"museum_no": "IM —",
			"object_type": "tablet, envelope",
			"period": "Neo-Assyrian",
			"primary_publication": "BT 100",
			"project": "imgurenlil",
			"provenience": "Balawat (Imgur-Enlil)",
			"regnal_dates": "704–681 BC",
			"ruler": "Sennacherib",
			"script": "Neo-Assyrian",
			"script_remarks": "inscribed",
			"script_type": "Cuneiform",
			"seal_mark_type": "cylinder seal",
			"seal_owner": "Dādî",
			"sealed_marked": "yes",
			"seals_number": "1",
			"subgenre": "debt note (copper)",
			"year": "689"
		},
		"geometry": {
			"type": "Point",
			"coordinates": [43.414221,36.221946]
		}
	}, {
		"type": "Feature",
		"properties": {
			"ancient_creditor": "Samā",
			"ancient_debtor": "Ṣil-Bēl",
			"archive": "001 - Mamu Temple, Room 8",
			"atae_attribution": "Adapted from Barbara Parker, “Tablets from the Temple of Mamu at Balawat,” Iraq 25 (1963): 86–103, by Jamie Novotny and Poppy Tushingham (2021) for the Munich Open-access Cuneiform Corpus Initiative (MOCCI), which is funded by LMU Munich and the Alexander von Humboldt Foundation at the Historisches Seminar - Abteilung Alte Geschichte of Ludwig-Maximilians-Universität München. The text was lemmatized by Jamie Novotny. The online edition is released under the Creative Commons Attribution Share-Alike license 3.0.",
			"cite_as": "Please cite this page as http://oracc.org/atae/P522821/.",
			"collection": "National Museum of Iraq, Baghdad, Iraq",
			"composite_witness": "witness",
			"credits": "Adapted from Barbara Parker, “Tablets from the Temple of Mamu at Balawat,” Iraq 25 (1963): 86–103, by Jamie Novotny and Poppy Tushingham (2021) for the Munich Open-access Cuneiform Corpus Initiative (MOCCI), which is funded by LMU Munich and the Alexander von Humboldt Foundation at the Historisches Seminar - Abteilung Alte Geschichte of Ludwig-Maximilians-Universität München. The text was lemmatized by Jamie Novotny. The online edition is released under the Creative Commons Attribution Share-Alike license 3.0. Please cite this page as http://oracc.org/atae/P522821/.",
			"date": "710-XI-15",
			"date_gen": "710-XI-15",
			"day": "15",
			"designation": "BT 101",
			"dialect": "Neo-Assyrian",
			"excavation_no": "BT 101",
			"genre": "Legal Transaction",
			"has_date": "yes",
			"id_text": "P522821",
			"language": "Akkadian",
			"list_name": "atae/imgurenlil:P522821@atae",
			"long_date": "Šabāṭu 15th, eponymy of Šamaš-bēlu-uṣur",
			"material": "clay",
			"month": "XI",
			"museum_no": "IM —",
			"object_type": "tablet, envelope",
			"period": "Neo-Assyrian",
			"primary_publication": "BT 101",
			"project": "imgurenlil",
			"provenience": "Balawat (Imgur-Enlil)",
			"regnal_dates": "721–705 BC",
			"ruler": "Sargon II",
			"script": "Neo-Assyrian",
			"script_remarks": "inscribed",
			"script_type": "Cuneiform",
			"sealed_marked": "yes",
			"subgenre": "debt note (silver)",
			"year": "710"
		},
		"geometry": {
			"type": "Point",
			"coordinates": [43.414221,36.221946]
		}
	}, {
		"type": "Feature",
		"properties": {
			"ancient_creditor": "Mamu-iqbi",
			"ancient_debtor": "Aššur-ašarēd",
			"archive": "001 - Mamu Temple, Room 8",
			"atae_attribution": "Adapted from Barbara Parker, “Tablets from the Temple of Mamu at Balawat,” Iraq 25 (1963): 86–103, by Jamie Novotny and Poppy Tushingham (2021) for the Munich Open-access Cuneiform Corpus Initiative (MOCCI), which is funded by LMU Munich and the Alexander von Humboldt Foundation at the Historisches Seminar - Abteilung Alte Geschichte of Ludwig-Maximilians-Universität München. The text was lemmatized by Jamie Novotny. The online edition is released under the Creative Commons Attribution Share-Alike license 3.0.",
			"cite_as": "Please cite this page as http://oracc.org/atae/P522822/.",
			"collection": "National Museum of Iraq, Baghdad, Iraq",
			"composite_witness": "witness",
			"credits": "Adapted from Barbara Parker, “Tablets from the Temple of Mamu at Balawat,” Iraq 25 (1963): 86–103, by Jamie Novotny and Poppy Tushingham (2021) for the Munich Open-access Cuneiform Corpus Initiative (MOCCI), which is funded by LMU Munich and the Alexander von Humboldt Foundation at the Historisches Seminar - Abteilung Alte Geschichte of Ludwig-Maximilians-Universität München. The text was lemmatized by Jamie Novotny. The online edition is released under the Creative Commons Attribution Share-Alike license 3.0. Please cite this page as http://oracc.org/atae/P522822/.",
			"date": "691-VII",
			"date_gen": "691-VII",
			"designation": "BT 102",
			"dialect": "Neo-Assyrian",
			"excavation_no": "BT 102",
			"genre": "Legal Transaction",
			"has_date": "yes",
			"id_text": "P522822",
			"language": "Akkadian",
			"list_name": "atae/imgurenlil:P522822@atae",
			"long_date": "Tašrītu, eponymy of Bēl-ēmuranni",
			"material": "clay",
			"month": "VII",
			"museum_no": "IM —",
			"object_type": "tablet",
			"period": "Neo-Assyrian",
			"primary_publication": "BT 102",
			"project": "imgurenlil",
			"provenience": "Balawat (Imgur-Enlil)",
			"regnal_dates": "704–681 BC",
			"ruler": "Sennacherib",
			"script": "Neo-Assyrian",
			"script_remarks": "inscribed",
			"script_type": "Cuneiform",
			"seal_mark_type": "stamp seal",
			"sealed_marked": "yes",
			"subgenre": "debt note (silver)",
			"year": "691"
		},
		"geometry": {
			"type": "Point",
			"coordinates": [43.414221,36.221946]
		}
	}, {
		"type": "Feature",
		"properties": {
			"ancient_creditor": "Šumma-ilu",
			"ancient_debtor": "Amat-Šamaš-uṣur",
			"archive": "001 - Mamu Temple, Room 8",
			"atae_attribution": "Adapted from Barbara Parker, “Tablets from the Temple of Mamu at Balawat,” Iraq 25 (1963): 86–103, by Jamie Novotny and Poppy Tushingham (2021) for the Munich Open-access Cuneiform Corpus Initiative (MOCCI), which is funded by LMU Munich and the Alexander von Humboldt Foundation at the Historisches Seminar - Abteilung Alte Geschichte of Ludwig-Maximilians-Universität München. The text was lemmatized by Jamie Novotny. The online edition is released under the Creative Commons Attribution Share-Alike license 3.0.",
			"cite_as": "Please cite this page as http://oracc.org/atae/P522823/.",
			"collection": "National Museum of Iraq, Baghdad, Iraq",
			"composite_witness": "witness",
			"credits": "Adapted from Barbara Parker, “Tablets from the Temple of Mamu at Balawat,” Iraq 25 (1963): 86–103, by Jamie Novotny and Poppy Tushingham (2021) for the Munich Open-access Cuneiform Corpus Initiative (MOCCI), which is funded by LMU Munich and the Alexander von Humboldt Foundation at the Historisches Seminar - Abteilung Alte Geschichte of Ludwig-Maximilians-Universität München. The text was lemmatized by Jamie Novotny. The online edition is released under the Creative Commons Attribution Share-Alike license 3.0. Please cite this page as http://oracc.org/atae/P522823/.",
			"date": "682-XI-05",
			"date_gen": "682-XI-05",
			"day": "05",
			"designation": "BT 103",
			"dialect": "Neo-Assyrian",
			"excavation_no": "BT 103",
			"genre": "Legal Transaction",
			"has_date": "yes",
			"id_text": "P522823",
			"language": "Akkadian",
			"list_name": "atae/imgurenlil:P522823@atae",
			"long_date": "Šabāṭu 5th, eponymy of Nabû-šarru-uṣur",
			"material": "clay",
			"month": "XI",
			"museum_no": "IM —",
			"object_type": "tablet",
			"period": "Neo-Assyrian",
			"primary_publication": "BT 103",
			"project": "imgurenlil",
			"provenience": "Balawat (Imgur-Enlil)",
			"regnal_dates": "704–681 BC",
			"ruler": "Sennacherib",
			"script": "Neo-Assyrian",
			"script_remarks": "inscribed",
			"script_type": "Cuneiform",
			"sealed_marked": "unknown",
			"subgenre": "debt note (silver)",
			"year": "682"
		},
		"geometry": {
			"type": "Point",
			"coordinates": [43.414221,36.221946]
		}
	}, {
		"type": "Feature",
		"properties": {
			"archive": "001 - Mamu Temple, Room 8",
			"atae_attribution": "Adapted from Barbara Parker, “Tablets from the Temple of Mamu at Balawat,” Iraq 25 (1963): 86–103, by Jamie Novotny and Poppy Tushingham (2021) for the Munich Open-access Cuneiform Corpus Initiative (MOCCI), which is funded by LMU Munich and the Alexander von Humboldt Foundation at the Historisches Seminar - Abteilung Alte Geschichte of Ludwig-Maximilians-Universität München. The text was lemmatized by Jamie Novotny. The online edition is released under the Creative Commons Attribution Share-Alike license 3.0.",
			"cite_as": "Please cite this page as http://oracc.org/atae/P522824/.",
			"collection": "National Museum of Iraq, Baghdad, Iraq",
			"composite_witness": "witness",
			"credits": "Adapted from Barbara Parker, “Tablets from the Temple of Mamu at Balawat,” Iraq 25 (1963): 86–103, by Jamie Novotny and Poppy Tushingham (2021) for the Munich Open-access Cuneiform Corpus Initiative (MOCCI), which is funded by LMU Munich and the Alexander von Humboldt Foundation at the Historisches Seminar - Abteilung Alte Geschichte of Ludwig-Maximilians-Universität München. The text was lemmatized by Jamie Novotny. The online edition is released under the Creative Commons Attribution Share-Alike license 3.0. Please cite this page as http://oracc.org/atae/P522824/.",
			"date": "629*-I-05",
			"date_gen": "629*-I-05",
			"day": "05",
			"designation": "BT 104",
			"dialect": "Neo-Assyrian",
			"excavation_no": "BT 104",
			"genre": "Legal Transaction",
			"has_date": "yes",
			"id_text": "P522824",
			"language": "Akkadian",
			"list_name": "atae/imgurenlil:P522824@atae",
			"long_date": "Nisannu 5th, eponymy of Nabû-šarru-uṣur, palace scribe",
			"material": "clay",
			"month": "I",
			"museum_no": "IM —",
			"object_type": "tablet",
			"period": "Neo-Assyrian",
			"primary_publication": "BT 104",
			"project": "imgurenlil",
			"provenience": "Balawat (Imgur-Enlil)",
			"regnal_dates": "ca. 630–627 BC",
			"ruler": "Aššur-etel-ilani",
			"script": "Neo-Assyrian",
			"script_remarks": "inscribed",
			"script_type": "Cuneiform",
			"subgenre": "contract (harvesters)",
			"year": "629*"
		},
		"geometry": {
			"type": "Point",
			"coordinates": [43.414221,36.221946]
		}
	}, {
		"type": "Feature",
		"properties": {
			"archive": "001 - Mamu Temple, Room 8",
			"atae_attribution": "Adapted from Barbara Parker, “Tablets from the Temple of Mamu at Balawat,” Iraq 25 (1963): 86–103, by Jamie Novotny and Poppy Tushingham (2021) for the Munich Open-access Cuneiform Corpus Initiative (MOCCI), which is funded by LMU Munich and the Alexander von Humboldt Foundation at the Historisches Seminar - Abteilung Alte Geschichte of Ludwig-Maximilians-Universität München. The text was lemmatized by Jamie Novotny. The online edition is released under the Creative Commons Attribution Share-Alike license 3.0.",
			"cite_as": "Please cite this page as http://oracc.org/atae/P522825/.",
			"collection": "National Museum of Iraq, Baghdad, Iraq",
			"composite_witness": "witness",
			"credits": "Adapted from Barbara Parker, “Tablets from the Temple of Mamu at Balawat,” Iraq 25 (1963): 86–103, by Jamie Novotny and Poppy Tushingham (2021) for the Munich Open-access Cuneiform Corpus Initiative (MOCCI), which is funded by LMU Munich and the Alexander von Humboldt Foundation at the Historisches Seminar - Abteilung Alte Geschichte of Ludwig-Maximilians-Universität München. The text was lemmatized by Jamie Novotny. The online edition is released under the Creative Commons Attribution Share-Alike license 3.0. Please cite this page as http://oracc.org/atae/P522825/.",
			"date": "687-V-01",
			"date_gen": "687-V-01",
			"day": "01",
			"designation": "BT 105",
			"dialect": "Neo-Assyrian",
			"excavation_no": "BT 105",
			"genre": "Legal Transaction",
			"has_date": "yes",
			"id_text": "P522825",
			"language": "Akkadian",
			"list_name": "atae/imgurenlil:P522825@atae",
			"long_date": "Abu 1st, eponymy of Sennacherib",
			"material": "clay",
			"month": "V",
			"museum_no": "IM —",
			"object_type": "tablet",
			"period": "Neo-Assyrian",
			"primary_publication": "BT 105",
			"project": "imgurenlil",
			"provenience": "Balawat (Imgur-Enlil)",
			"regnal_dates": "704–681 BC",
			"ruler": "Sennacherib",
			"script": "Neo-Assyrian",
			"script_remarks": "inscribed",
			"script_type": "Cuneiform",
			"subgenre": "receipt",
			"year": "687"
		},
		"geometry": {
			"type": "Point",
			"coordinates": [43.414221,36.221946]
		}
	}, {
		"type": "Feature",
		"properties": {
			"ancient_buyer": "Nazî",
			"ancient_seller": "Kaššudu",
			"archive": "001 - Mamu Temple, Room 8",
			"atae_attribution": "Adapted from Barbara Parker, “Tablets from the Temple of Mamu at Balawat,” Iraq 25 (1963): 86–103, by Jamie Novotny and Poppy Tushingham (2021) for the Munich Open-access Cuneiform Corpus Initiative (MOCCI), which is funded by LMU Munich and the Alexander von Humboldt Foundation at the Historisches Seminar - Abteilung Alte Geschichte of Ludwig-Maximilians-Universität München. The text was lemmatized by Jamie Novotny. The online edition is released under the Creative Commons Attribution Share-Alike license 3.0.",
			"cite_as": "Please cite this page as http://oracc.org/atae/P522826/.",
			"collection": "National Museum of Iraq, Baghdad, Iraq",
			"composite_witness": "witness",
			"credits": "Adapted from Barbara Parker, “Tablets from the Temple of Mamu at Balawat,” Iraq 25 (1963): 86–103, by Jamie Novotny and Poppy Tushingham (2021) for the Munich Open-access Cuneiform Corpus Initiative (MOCCI), which is funded by LMU Munich and the Alexander von Humboldt Foundation at the Historisches Seminar - Abteilung Alte Geschichte of Ludwig-Maximilians-Universität München. The text was lemmatized by Jamie Novotny. The online edition is released under the Creative Commons Attribution Share-Alike license 3.0. Please cite this page as http://oracc.org/atae/P522826/.",
			"date": "734-IX-[...]",
			"date_gen": "734-IX-[...]",
			"day": "[...]",
			"designation": "BT 106",
			"dialect": "Neo-Assyrian",
			"excavation_no": "BT 106",
			"fingernails_number": "3",
			"genre": "Legal Transaction",
			"has_date": "yes, but date partially preserved",
			"id_text": "P522826",
			"language": "Akkadian",
			"list_name": "atae/imgurenlil:P522826@atae",
			"long_date": "Kislīmu [...]th, eponymy of Bēl-dān, governor of Kalhu",
			"material": "clay",
			"month": "IX",
			"museum_no": "IM —",
			"object_type": "tablet",
			"period": "Neo-Assyrian",
			"primary_publication": "BT 106",
			"project": "imgurenlil",
			"provenience": "Balawat (Imgur-Enlil)",
			"regnal_dates": "744–727 BC",
			"ruler": "Tiglath-pileser III",
			"script": "Neo-Assyrian",
			"script_remarks": "inscribed",
			"script_type": "Cuneiform",
			"seal_mark_type": "fingernail",
			"seal_owner": "Kaššudu",
			"sealed_marked": "yes",
			"subgenre": "sales document (field)",
			"year": "734"
		},
		"geometry": {
			"type": "Point",
			"coordinates": [43.414221,36.221946]
		}
	}, {
		"type": "Feature",
		"properties": {
			"archive": "001 - Mamu Temple, Room 8",
			"atae_attribution": "Adapted from Barbara Parker, “Tablets from the Temple of Mamu at Balawat,” Iraq 25 (1963): 86–103, by Jamie Novotny and Poppy Tushingham (2021) for the Munich Open-access Cuneiform Corpus Initiative (MOCCI), which is funded by LMU Munich and the Alexander von Humboldt Foundation at the Historisches Seminar - Abteilung Alte Geschichte of Ludwig-Maximilians-Universität München. The text was lemmatized by Jamie Novotny. The online edition is released under the Creative Commons Attribution Share-Alike license 3.0.",
			"cite_as": "Please cite this page as http://oracc.org/atae/P522827/.",
			"collection": "National Museum of Iraq, Baghdad, Iraq",
			"composite_witness": "witness",
			"credits": "Adapted from Barbara Parker, “Tablets from the Temple of Mamu at Balawat,” Iraq 25 (1963): 86–103, by Jamie Novotny and Poppy Tushingham (2021) for the Munich Open-access Cuneiform Corpus Initiative (MOCCI), which is funded by LMU Munich and the Alexander von Humboldt Foundation at the Historisches Seminar - Abteilung Alte Geschichte of Ludwig-Maximilians-Universität München. The text was lemmatized by Jamie Novotny. The online edition is released under the Creative Commons Attribution Share-Alike license 3.0. Please cite this page as http://oracc.org/atae/P522827/.",
			"date": "671/666-XI-15",
			"date_gen": "671 or 666-XI-15",
			"day": "15",
			"designation": "BT 107",
			"dialect": "Neo-Assyrian",
			"excavation_no": "BT 107",
			"genre": "Legal Transaction",
			"has_date": "yes",
			"id_text": "P522827",
			"language": "Akkadian",
			"list_name": "atae/imgurenlil:P522827@atae",
			"long_date": "Šabāṭu 15th, eponymy of Kanūnāyu",
			"material": "clay",
			"month": "XI",
			"museum_no": "IM —",
			"object_type": "tablet",
			"period": "Neo-Assyrian",
			"primary_publication": "BT 107",
			"project": "imgurenlil",
			"provenience": "Balawat (Imgur-Enlil)",
			"ruler": "Esarhaddon or Ashurbanipal",
			"script": "Neo-Assyrian",
			"script_remarks": "inscribed",
			"script_type": "Cuneiform",
			"seal_mark_type": "stamp seal",
			"sealed_marked": "yes",
			"subgenre": "lease document (field)",
			"year": "671 or 666"
		},
		"geometry": {
			"type": "Point",
			"coordinates": [43.414221,36.221946]
		}
	}, {
		"type": "Feature",
		"properties": {
			"ancient_creditor": "Ahatu",
			"ancient_debtor": "Ammi-rūmu",
			"archive": "001 - Mamu Temple, Room 8",
			"atae_attribution": "Adapted from Barbara Parker, “Tablets from the Temple of Mamu at Balawat,” Iraq 25 (1963): 86–103, by Jamie Novotny and Poppy Tushingham (2021) for the Munich Open-access Cuneiform Corpus Initiative (MOCCI), which is funded by LMU Munich and the Alexander von Humboldt Foundation at the Historisches Seminar - Abteilung Alte Geschichte of Ludwig-Maximilians-Universität München. The text was lemmatized by Jamie Novotny. The online edition is released under the Creative Commons Attribution Share-Alike license 3.0.",
			"cite_as": "Please cite this page as http://oracc.org/atae/P522828/.",
			"collection": "National Museum of Iraq, Baghdad, Iraq",
			"composite_witness": "witness",
			"credits": "Adapted from Barbara Parker, “Tablets from the Temple of Mamu at Balawat,” Iraq 25 (1963): 86–103, by Jamie Novotny and Poppy Tushingham (2021) for the Munich Open-access Cuneiform Corpus Initiative (MOCCI), which is funded by LMU Munich and the Alexander von Humboldt Foundation at the Historisches Seminar - Abteilung Alte Geschichte of Ludwig-Maximilians-Universität München. The text was lemmatized by Jamie Novotny. The online edition is released under the Creative Commons Attribution Share-Alike license 3.0. Please cite this page as http://oracc.org/atae/P522828/.",
			"date": "682-I-30",
			"date_gen": "682-I-30",
			"day": "30",
			"designation": "BT 108",
			"dialect": "Neo-Assyrian",
			"excavation_no": "BT 108",
			"genre": "Legal Transaction",
			"has_date": "yes",
			"id_text": "P522828",
			"language": "Akkadian",
			"list_name": "atae/imgurenlil:P522828@atae",
			"long_date": "Nisannu 30th, eponymy of Nabû-šarru-uṣur, governor of Marqasu",
			"material": "clay",
			"month": "I",
			"museum_no": "IM —",
			"object_type": "tablet",
			"period": "Neo-Assyrian",
			"primary_publication": "BT 108",
			"project": "imgurenlil",
			"provenience": "Balawat (Imgur-Enlil)",
			"regnal_dates": "704–681 BC",
			"ruler": "Sennacherib",
			"script": "Neo-Assyrian",
			"script_remarks": "inscribed",
			"script_type": "Cuneiform",
			"seal_mark_type": "cylinder seal",
			"seal_owner": "Ammi-rūmu",
			"sealed_marked": "yes",
			"seals_number": "1",
			"subgenre": "debt note (silver)",
			"year": "682"
		},
		"geometry": {
			"type": "Point",
			"coordinates": [43.414221,36.221946]
		}
	}, {
		"type": "Feature",
		"properties": {
			"archive": "001 - Mamu Temple, Room 8",
			"atae_attribution": "Adapted from Barbara Parker, “Tablets from the Temple of Mamu at Balawat,” Iraq 25 (1963): 86–103, by Jamie Novotny and Poppy Tushingham (2021) for the Munich Open-access Cuneiform Corpus Initiative (MOCCI), which is funded by LMU Munich and the Alexander von Humboldt Foundation at the Historisches Seminar - Abteilung Alte Geschichte of Ludwig-Maximilians-Universität München. The text was lemmatized by Jamie Novotny. The online edition is released under the Creative Commons Attribution Share-Alike license 3.0.",
			"cite_as": "Please cite this page as http://oracc.org/atae/P522829/.",
			"collection": "National Museum of Iraq, Baghdad, Iraq",
			"composite_witness": "witness",
			"credits": "Adapted from Barbara Parker, “Tablets from the Temple of Mamu at Balawat,” Iraq 25 (1963): 86–103, by Jamie Novotny and Poppy Tushingham (2021) for the Munich Open-access Cuneiform Corpus Initiative (MOCCI), which is funded by LMU Munich and the Alexander von Humboldt Foundation at the Historisches Seminar - Abteilung Alte Geschichte of Ludwig-Maximilians-Universität München. The text was lemmatized by Jamie Novotny. The online edition is released under the Creative Commons Attribution Share-Alike license 3.0. Please cite this page as http://oracc.org/atae/P522829/.",
			"date": "657",
			"date_gen": "657",
			"designation": "BT 109",
			"dialect": "Neo-Assyrian",
			"excavation_no": "BT 109",
			"genre": "Legal Transaction",
			"has_date": "yes",
			"id_text": "P522829",
			"language": "Akkadian",
			"list_name": "atae/imgurenlil:P522829@atae",
			"long_date": "Eponymy of Lā-abâši",
			"material": "clay",
			"museum_no": "IM —",
			"object_type": "tablet",
			"period": "Neo-Assyrian",
			"primary_publication": "BT 109",
			"project": "imgurenlil",
			"provenience": "Balawat (Imgur-Enlil)",
			"regnal_dates": "668–ca. 631 BC",
			"ruler": "Ashurbanipal",
			"script": "Neo-Assyrian",
			"script_remarks": "inscribed",
			"script_type": "Cuneiform",
			"sealed_marked": "unknown",
			"subgenre": "receipt (silver)",
			"year": "657"
		},
		"geometry": {
			"type": "Point",
			"coordinates": [43.414221,36.221946]
		}
	}, {
		"type": "Feature",
		"properties": {
			"archive": "001 - Mamu Temple, Room 8",
			"atae_attribution": "Adapted from Barbara Parker, “Tablets from the Temple of Mamu at Balawat,” Iraq 25 (1963): 86–103, by Jamie Novotny and Poppy Tushingham (2021) for the Munich Open-access Cuneiform Corpus Initiative (MOCCI), which is funded by LMU Munich and the Alexander von Humboldt Foundation at the Historisches Seminar - Abteilung Alte Geschichte of Ludwig-Maximilians-Universität München. The text was lemmatized by Jamie Novotny. The online edition is released under the Creative Commons Attribution Share-Alike license 3.0.",
			"cite_as": "Please cite this page as http://oracc.org/atae/P522830/.",
			"collection": "National Museum of Iraq, Baghdad, Iraq",
			"composite_witness": "witness",
			"credits": "Adapted from Barbara Parker, “Tablets from the Temple of Mamu at Balawat,” Iraq 25 (1963): 86–103, by Jamie Novotny and Poppy Tushingham (2021) for the Munich Open-access Cuneiform Corpus Initiative (MOCCI), which is funded by LMU Munich and the Alexander von Humboldt Foundation at the Historisches Seminar - Abteilung Alte Geschichte of Ludwig-Maximilians-Universität München. The text was lemmatized by Jamie Novotny. The online edition is released under the Creative Commons Attribution Share-Alike license 3.0. Please cite this page as http://oracc.org/atae/P522830/.",
			"designation": "BT 112",
			"dialect": "Neo-Assyrian",
			"excavation_no": "BT 112",
			"genre": "Legal Transaction",
			"has_date": "yes, but date completely destroyed",
			"id_text": "P522830",
			"language": "Akkadian",
			"list_name": "atae/imgurenlil:P522830@atae",
			"material": "clay",
			"museum_no": "IM —",
			"object_type": "tablet",
			"period": "Neo-Assyrian",
			"primary_publication": "BT 112",
			"project": "imgurenlil",
			"provenience": "Balawat (Imgur-Enlil)",
			"script": "Neo-Assyrian",
			"script_remarks": "inscribed",
			"script_type": "Cuneiform",
			"seal_mark_type": "fingernail",
			"seal_owner": "Sama’",
			"sealed_marked": "yes",
			"subgenre": "lease document (field)"
		},
		"geometry": {
			"type": "Point",
			"coordinates": [43.414221,36.221946]
		}
	}, {
		"type": "Feature",
		"properties": {
			"ancient_creditor": "Šumma-ilu",
			"ancient_debtor": "Šangu-Issar",
			"archive": "001 - Mamu Temple, Room 8",
			"atae_attribution": "Adapted from Barbara Parker, “Tablets from the Temple of Mamu at Balawat,” Iraq 25 (1963): 86–103, by Jamie Novotny and Poppy Tushingham (2021) for the Munich Open-access Cuneiform Corpus Initiative (MOCCI), which is funded by LMU Munich and the Alexander von Humboldt Foundation at the Historisches Seminar - Abteilung Alte Geschichte of Ludwig-Maximilians-Universität München. The text was lemmatized by Jamie Novotny. The online edition is released under the Creative Commons Attribution Share-Alike license 3.0.",
			"cite_as": "Please cite this page as http://oracc.org/atae/P522831/.",
			"collection": "National Museum of Iraq, Baghdad, Iraq",
			"composite_witness": "witness",
			"credits": "Adapted from Barbara Parker, “Tablets from the Temple of Mamu at Balawat,” Iraq 25 (1963): 86–103, by Jamie Novotny and Poppy Tushingham (2021) for the Munich Open-access Cuneiform Corpus Initiative (MOCCI), which is funded by LMU Munich and the Alexander von Humboldt Foundation at the Historisches Seminar - Abteilung Alte Geschichte of Ludwig-Maximilians-Universität München. The text was lemmatized by Jamie Novotny. The online edition is released under the Creative Commons Attribution Share-Alike license 3.0. Please cite this page as http://oracc.org/atae/P522831/.",
			"date": "697-XII-14",
			"date_gen": "697-XII-14",
			"day": "14",
			"designation": "BT 113",
			"dialect": "Neo-Assyrian",
			"excavation_no": "BT 113",
			"genre": "Legal Transaction",
			"has_date": "yes",
			"id_text": "P522831",
			"language": "Akkadian",
			"list_name": "atae/imgurenlil:P522831@atae",
			"long_date": "Addaru 14th, eponymy of Nabû-dūru-uṣur",
			"material": "clay",
			"month": "XII",
			"museum_no": "IM —",
			"object_type": "tablet",
			"period": "Neo-Assyrian",
			"primary_publication": "BT 113",
			"project": "imgurenlil",
			"provenience": "Balawat (Imgur-Enlil)",
			"regnal_dates": "704–681 BC",
			"ruler": "Sennacherib",
			"script": "Neo-Assyrian",
			"script_remarks": "inscribed",
			"script_type": "Cuneiform",
			"subgenre": "debt note (silver)",
			"year": "697"
		},
		"geometry": {
			"type": "Point",
			"coordinates": [43.414221,36.221946]
		}
	}, {
		"type": "Feature",
		"properties": {
			"archive": "001 - Mamu Temple, Room 8",
			"atae_attribution": "Adapted from Barbara Parker, “Tablets from the Temple of Mamu at Balawat,” Iraq 25 (1963): 86–103, by Jamie Novotny and Poppy Tushingham (2021) for the Munich Open-access Cuneiform Corpus Initiative (MOCCI), which is funded by LMU Munich and the Alexander von Humboldt Foundation at the Historisches Seminar - Abteilung Alte Geschichte of Ludwig-Maximilians-Universität München. The text was lemmatized by Jamie Novotny. The online edition is released under the Creative Commons Attribution Share-Alike license 3.0.",
			"cite_as": "Please cite this page as http://oracc.org/atae/P522832/.",
			"collection": "National Museum of Iraq, Baghdad, Iraq",
			"composite_witness": "witness",
			"credits": "Adapted from Barbara Parker, “Tablets from the Temple of Mamu at Balawat,” Iraq 25 (1963): 86–103, by Jamie Novotny and Poppy Tushingham (2021) for the Munich Open-access Cuneiform Corpus Initiative (MOCCI), which is funded by LMU Munich and the Alexander von Humboldt Foundation at the Historisches Seminar - Abteilung Alte Geschichte of Ludwig-Maximilians-Universität München. The text was lemmatized by Jamie Novotny. The online edition is released under the Creative Commons Attribution Share-Alike license 3.0. Please cite this page as http://oracc.org/atae/P522832/.",
			"date": "697-I-02",
			"date_gen": "697-I-02",
			"day": "02",
			"designation": "BT 114",
			"dialect": "Neo-Assyrian",
			"excavation_no": "BT 114",
			"genre": "Legal Transaction",
			"has_date": "yes",
			"id_text": "P522832",
			"language": "Akkadian",
			"list_name": "atae/imgurenlil:P522832@atae",
			"long_date": "Nisannu 2nd, eponymy of Nabû-dūru-uṣur",
			"material": "clay",
			"month": "I",
			"museum_no": "IM —",
			"object_type": "tablet",
			"period": "Neo-Assyrian",
			"primary_publication": "BT 114",
			"project": "imgurenlil",
			"provenience": "Balawat (Imgur-Enlil)",
			"regnal_dates": "704–681 BC",
			"ruler": "Sennacherib",
			"script": "Neo-Assyrian",
			"script_remarks": "inscribed",
			"script_type": "Cuneiform",
			"seal_mark_type": "stamp seal",
			"sealed_marked": "yes",
			"seals_number": "2",
			"subgenre": "debt note (silver)",
			"year": "697"
		},
		"geometry": {
			"type": "Point",
			"coordinates": [43.414221,36.221946]
		}
	}, {
		"type": "Feature",
		"properties": {
			"archive": "001 - Mamu Temple, Room 8",
			"atae_attribution": "Adapted from Barbara Parker, “Tablets from the Temple of Mamu at Balawat,” Iraq 25 (1963): 86–103, by Jamie Novotny and Poppy Tushingham (2021) for the Munich Open-access Cuneiform Corpus Initiative (MOCCI), which is funded by LMU Munich and the Alexander von Humboldt Foundation at the Historisches Seminar - Abteilung Alte Geschichte of Ludwig-Maximilians-Universität München. The text was lemmatized by Jamie Novotny. The online edition is released under the Creative Commons Attribution Share-Alike license 3.0.",
			"cite_as": "Please cite this page as http://oracc.org/atae/P522833/.",
			"collection": "National Museum of Iraq, Baghdad, Iraq",
			"composite_witness": "witness",
			"credits": "Adapted from Barbara Parker, “Tablets from the Temple of Mamu at Balawat,” Iraq 25 (1963): 86–103, by Jamie Novotny and Poppy Tushingham (2021) for the Munich Open-access Cuneiform Corpus Initiative (MOCCI), which is funded by LMU Munich and the Alexander von Humboldt Foundation at the Historisches Seminar - Abteilung Alte Geschichte of Ludwig-Maximilians-Universität München. The text was lemmatized by Jamie Novotny. The online edition is released under the Creative Commons Attribution Share-Alike license 3.0. Please cite this page as http://oracc.org/atae/P522833/.",
			"date": "694-IV",
			"date_gen": "694-IV",
			"designation": "BT 115",
			"dialect": "Neo-Assyrian",
			"excavation_no": "BT 115",
			"genre": "Legal Transaction",
			"has_date": "yes",
			"id_text": "P522833",
			"language": "Akkadian",
			"list_name": "atae/imgurenlil:P522833@atae",
			"long_date": "Duʾūzu,eponymy of Ilu-ittīya",
			"material": "clay",
			"month": "IV",
			"museum_no": "IM —",
			"object_type": "tablet",
			"period": "Neo-Assyrian",
			"primary_publication": "BT 115",
			"project": "imgurenlil",
			"provenience": "Balawat (Imgur-Enlil)",
			"regnal_dates": "704–681 BC",
			"ruler": "Sennacherib",
			"script": "Neo-Assyrian",
			"script_remarks": "inscribed",
			"script_type": "Cuneiform",
			"subgenre": "debt note",
			"year": "694"
		},
		"geometry": {
			"type": "Point",
			"coordinates": [43.414221,36.221946]
		}
	}, {
		"type": "Feature",
		"properties": {
			"ancient_creditor": "Šumma-ilu",
			"ancient_debtor": "Nabû-nāṣir",
			"archive": "001 - Mamu Temple, Room 8",
			"atae_attribution": "Adapted from Barbara Parker, “Tablets from the Temple of Mamu at Balawat,” Iraq 25 (1963): 86–103, by Jamie Novotny and Poppy Tushingham (2021) for the Munich Open-access Cuneiform Corpus Initiative (MOCCI), which is funded by LMU Munich and the Alexander von Humboldt Foundation at the Historisches Seminar - Abteilung Alte Geschichte of Ludwig-Maximilians-Universität München. The text was lemmatized by Jamie Novotny. The online edition is released under the Creative Commons Attribution Share-Alike license 3.0.",
			"cite_as": "Please cite this page as http://oracc.org/atae/P522834/.",
			"collection": "National Museum of Iraq, Baghdad, Iraq",
			"composite_witness": "witness",
			"credits": "Adapted from Barbara Parker, “Tablets from the Temple of Mamu at Balawat,” Iraq 25 (1963): 86–103, by Jamie Novotny and Poppy Tushingham (2021) for the Munich Open-access Cuneiform Corpus Initiative (MOCCI), which is funded by LMU Munich and the Alexander von Humboldt Foundation at the Historisches Seminar - Abteilung Alte Geschichte of Ludwig-Maximilians-Universität München. The text was lemmatized by Jamie Novotny. The online edition is released under the Creative Commons Attribution Share-Alike license 3.0. Please cite this page as http://oracc.org/atae/P522834/.",
			"date": "682-IX-20",
			"date_gen": "682-IX-20",
			"day": "20",
			"designation": "BT 116",
			"dialect": "Neo-Assyrian",
			"excavation_no": "BT 116",
			"genre": "Legal Transaction",
			"has_date": "yes",
			"id_text": "P522834",
			"language": "Akkadian",
			"list_name": "atae/imgurenlil:P522834@atae",
			"long_date": "Kislīmu 20th, eponymy of Nabû-šarru-uṣur",
			"material": "clay",
			"month": "IX",
			"museum_no": "IM —",
			"object_type": "tablet",
			"period": "Neo-Assyrian",
			"primary_publication": "BT 116",
			"project": "imgurenlil",
			"provenience": "Balawat (Imgur-Enlil)",
			"regnal_dates": "704–681 BC",
			"ruler": "Sennacherib",
			"script": "Neo-Assyrian",
			"script_remarks": "inscribed",
			"script_type": "Cuneiform",
			"subgenre": "debt note (barley)",
			"year": "682"
		},
		"geometry": {
			"type": "Point",
			"coordinates": [43.414221,36.221946]
		}
	}, {
		"type": "Feature",
		"properties": {
			"archive": "001 - Mamu Temple, Room 8",
			"atae_attribution": "Adapted from Barbara Parker, “Tablets from the Temple of Mamu at Balawat,” Iraq 25 (1963): 86–103, by Jamie Novotny and Poppy Tushingham (2021) for the Munich Open-access Cuneiform Corpus Initiative (MOCCI), which is funded by LMU Munich and the Alexander von Humboldt Foundation at the Historisches Seminar - Abteilung Alte Geschichte of Ludwig-Maximilians-Universität München. The text was lemmatized by Jamie Novotny. The online edition is released under the Creative Commons Attribution Share-Alike license 3.0.",
			"cite_as": "Please cite this page as http://oracc.org/atae/P522835/.",
			"collection": "National Museum of Iraq, Baghdad, Iraq",
			"composite_witness": "witness",
			"credits": "Adapted from Barbara Parker, “Tablets from the Temple of Mamu at Balawat,” Iraq 25 (1963): 86–103, by Jamie Novotny and Poppy Tushingham (2021) for the Munich Open-access Cuneiform Corpus Initiative (MOCCI), which is funded by LMU Munich and the Alexander von Humboldt Foundation at the Historisches Seminar - Abteilung Alte Geschichte of Ludwig-Maximilians-Universität München. The text was lemmatized by Jamie Novotny. The online edition is released under the Creative Commons Attribution Share-Alike license 3.0. Please cite this page as http://oracc.org/atae/P522835/.",
			"date": "686-VII-01",
			"date_gen": "686-VII-01",
			"day": "01",
			"designation": "BT 117",
			"dialect": "Neo-Assyrian",
			"excavation_no": "BT 117",
			"genre": "Legal Transaction",
			"has_date": "yes, but date partially preserved",
			"id_text": "P522835",
			"language": "Akkadian",
			"list_name": "atae/imgurenlil:P522835@atae",
			"long_date": "Tašrītu 1st, eponymy of B[ēl-ēmur]anni",
			"material": "clay",
			"month": "VII",
			"museum_no": "IM —",
			"object_type": "tablet",
			"period": "Neo-Assyrian",
			"primary_publication": "BT 117",
			"project": "imgurenlil",
			"provenience": "Balawat (Imgur-Enlil)",
			"regnal_dates": "704–681 BC",
			"ruler": "Sennacherib",
			"script": "Neo-Assyrian",
			"script_remarks": "inscribed",
			"script_type": "Cuneiform",
			"year": "686"
		},
		"geometry": {
			"type": "Point",
			"coordinates": [43.414221,36.221946]
		}
	}, {
		"type": "Feature",
		"properties": {
			"archive": "001 - Mamu Temple, Room 8",
			"atae_attribution": "Adapted from Barbara Parker, “Tablets from the Temple of Mamu at Balawat,” Iraq 25 (1963): 86–103, by Jamie Novotny and Poppy Tushingham (2021) for the Munich Open-access Cuneiform Corpus Initiative (MOCCI), which is funded by LMU Munich and the Alexander von Humboldt Foundation at the Historisches Seminar - Abteilung Alte Geschichte of Ludwig-Maximilians-Universität München. The text was lemmatized by Jamie Novotny. The online edition is released under the Creative Commons Attribution Share-Alike license 3.0.",
			"cite_as": "Please cite this page as http://oracc.org/atae/P522836/.",
			"collection": "National Museum of Iraq, Baghdad, Iraq",
			"composite_witness": "witness",
			"credits": "Adapted from Barbara Parker, “Tablets from the Temple of Mamu at Balawat,” Iraq 25 (1963): 86–103, by Jamie Novotny and Poppy Tushingham (2021) for the Munich Open-access Cuneiform Corpus Initiative (MOCCI), which is funded by LMU Munich and the Alexander von Humboldt Foundation at the Historisches Seminar - Abteilung Alte Geschichte of Ludwig-Maximilians-Universität München. The text was lemmatized by Jamie Novotny. The online edition is released under the Creative Commons Attribution Share-Alike license 3.0. Please cite this page as http://oracc.org/atae/P522836/.",
			"date": "678-V-14",
			"date_gen": "678-V-14",
			"day": "14",
			"designation": "BT 118",
			"dialect": "Neo-Assyrian",
			"excavation_no": "BT 118",
			"genre": "Legal Transaction",
			"has_date": "yes",
			"id_text": "P522836",
			"language": "Akkadian",
			"list_name": "atae/imgurenlil:P522836@atae",
			"long_date": "Abu 14th, eponymy of Nergal-šarru-uṣur",
			"material": "clay",
			"month": "V",
			"museum_no": "IM —",
			"object_type": "tablet, envelope",
			"period": "Neo-Assyrian",
			"primary_publication": "BT 118",
			"project": "imgurenlil",
			"provenience": "Balawat (Imgur-Enlil)",
			"regnal_dates": "680–669 BC",
			"ruler": "Esarhaddon",
			"script": "Neo-Assyrian",
			"script_remarks": "inscribed",
			"script_type": "Cuneiform",
			"subgenre": "judicial document",
			"year": "678"
		},
		"geometry": {
			"type": "Point",
			"coordinates": [43.414221,36.221946]
		}
	}, {
		"type": "Feature",
		"properties": {
			"archive": "001 - Mamu Temple, Room 8",
			"atae_attribution": "Adapted from Barbara Parker, “Tablets from the Temple of Mamu at Balawat,” Iraq 25 (1963): 86–103, by Jamie Novotny and Poppy Tushingham (2021) for the Munich Open-access Cuneiform Corpus Initiative (MOCCI), which is funded by LMU Munich and the Alexander von Humboldt Foundation at the Historisches Seminar - Abteilung Alte Geschichte of Ludwig-Maximilians-Universität München. The text was lemmatized by Jamie Novotny. The online edition is released under the Creative Commons Attribution Share-Alike license 3.0.",
			"cite_as": "Please cite this page as http://oracc.org/atae/P522837/.",
			"collection": "National Museum of Iraq, Baghdad, Iraq",
			"composite_witness": "witness",
			"credits": "Adapted from Barbara Parker, “Tablets from the Temple of Mamu at Balawat,” Iraq 25 (1963): 86–103, by Jamie Novotny and Poppy Tushingham (2021) for the Munich Open-access Cuneiform Corpus Initiative (MOCCI), which is funded by LMU Munich and the Alexander von Humboldt Foundation at the Historisches Seminar - Abteilung Alte Geschichte of Ludwig-Maximilians-Universität München. The text was lemmatized by Jamie Novotny. The online edition is released under the Creative Commons Attribution Share-Alike license 3.0. Please cite this page as http://oracc.org/atae/P522837/.",
			"date": "[...]-IX",
			"date_gen": "[...]-IX",
			"designation": "BT 119",
			"dialect": "Neo-Assyrian",
			"excavation_no": "BT 119",
			"genre": "Legal Transaction",
			"has_date": "yes, but date partially preserved",
			"id_text": "P522837",
			"language": "Akkadian",
			"list_name": "atae/imgurenlil:P522837@atae",
			"long_date": "Kislīmu, eponymy of [...]ia",
			"material": "clay",
			"month": "IX",
			"museum_no": "IM —",
			"object_type": "tablet",
			"period": "Neo-Assyrian",
			"primary_publication": "BT 119",
			"project": "imgurenlil",
			"provenience": "Balawat (Imgur-Enlil)",
			"script": "Neo-Assyrian",
			"script_remarks": "inscribed",
			"script_type": "Cuneiform",
			"year": "[...]"
		},
		"geometry": {
			"type": "Point",
			"coordinates": [43.414221,36.221946]
		}
	}, {
		"type": "Feature",
		"properties": {
			"archive": "001 - Mamu Temple, Room 8",
			"atae_attribution": "Adapted from Barbara Parker, “Tablets from the Temple of Mamu at Balawat,” Iraq 25 (1963): 86–103, by Jamie Novotny and Poppy Tushingham (2021) for the Munich Open-access Cuneiform Corpus Initiative (MOCCI), which is funded by LMU Munich and the Alexander von Humboldt Foundation at the Historisches Seminar - Abteilung Alte Geschichte of Ludwig-Maximilians-Universität München. The text was lemmatized by Jamie Novotny. The online edition is released under the Creative Commons Attribution Share-Alike license 3.0.",
			"cite_as": "Please cite this page as http://oracc.org/atae/P522838/.",
			"collection": "National Museum of Iraq, Baghdad, Iraq",
			"composite_witness": "witness",
			"credits": "Adapted from Barbara Parker, “Tablets from the Temple of Mamu at Balawat,” Iraq 25 (1963): 86–103, by Jamie Novotny and Poppy Tushingham (2021) for the Munich Open-access Cuneiform Corpus Initiative (MOCCI), which is funded by LMU Munich and the Alexander von Humboldt Foundation at the Historisches Seminar - Abteilung Alte Geschichte of Ludwig-Maximilians-Universität München. The text was lemmatized by Jamie Novotny. The online edition is released under the Creative Commons Attribution Share-Alike license 3.0. Please cite this page as http://oracc.org/atae/P522838/.",
			"designation": "BT 120",
			"dialect": "Neo-Assyrian",
			"excavation_no": "BT 120",
			"genre": "Legal Transaction",
			"has_date": "no",
			"id_text": "P522838",
			"language": "Akkadian",
			"list_name": "atae/imgurenlil:P522838@atae",
			"material": "clay",
			"museum_no": "IM —",
			"object_type": "tablet in envelope",
			"period": "Neo-Assyrian",
			"primary_publication": "BT 120",
			"project": "imgurenlil",
			"provenience": "Balawat (Imgur-Enlil)",
			"script": "Neo-Assyrian",
			"script_remarks": "inscribed",
			"script_type": "Cuneiform",
			"seal_mark_type": "stamp seal",
			"seal_owner": "Inurta-abu-uṣur",
			"sealed_marked": "yes",
			"seals_number": "3",
			"subgenre": "debt note (silver)"
		},
		"geometry": {
			"type": "Point",
			"coordinates": [43.414221,36.221946]
		}
	}, {
		"type": "Feature",
		"properties": {
			"archive": "001 - Mamu Temple, Room 8",
			"atae_attribution": "Adapted from Barbara Parker, “Tablets from the Temple of Mamu at Balawat,” Iraq 25 (1963): 86–103, by Jamie Novotny and Poppy Tushingham (2021) for the Munich Open-access Cuneiform Corpus Initiative (MOCCI), which is funded by LMU Munich and the Alexander von Humboldt Foundation at the Historisches Seminar - Abteilung Alte Geschichte of Ludwig-Maximilians-Universität München. The text was lemmatized by Jamie Novotny. The online edition is released under the Creative Commons Attribution Share-Alike license 3.0.",
			"cite_as": "Please cite this page as http://oracc.org/atae/P522839/.",
			"collection": "National Museum of Iraq, Baghdad, Iraq",
			"composite_witness": "witness",
			"credits": "Adapted from Barbara Parker, “Tablets from the Temple of Mamu at Balawat,” Iraq 25 (1963): 86–103, by Jamie Novotny and Poppy Tushingham (2021) for the Munich Open-access Cuneiform Corpus Initiative (MOCCI), which is funded by LMU Munich and the Alexander von Humboldt Foundation at the Historisches Seminar - Abteilung Alte Geschichte of Ludwig-Maximilians-Universität München. The text was lemmatized by Jamie Novotny. The online edition is released under the Creative Commons Attribution Share-Alike license 3.0. Please cite this page as http://oracc.org/atae/P522839/.",
			"date": "686-VII-19",
			"date_gen": "686-VII-19",
			"day": "19",
			"designation": "BT 123",
			"dialect": "Neo-Assyrian",
			"excavation_no": "BT 123",
			"genre": "Legal Transaction",
			"has_date": "yes",
			"id_text": "P522839",
			"language": "Akkadian",
			"list_name": "atae/imgurenlil:P522839@atae",
			"long_date": "Tašrītu 19th, eponymy of Bēl-ēmuranni",
			"material": "clay",
			"month": "VII",
			"museum_no": "IM —",
			"object_type": "tablet",
			"period": "Neo-Assyrian",
			"primary_publication": "BT 123",
			"project": "imgurenlil",
			"provenience": "Balawat (Imgur-Enlil)",
			"regnal_dates": "704–681 BC",
			"ruler": "Sennacherib",
			"script": "Neo-Assyrian",
			"script_remarks": "inscribed",
			"script_type": "Cuneiform",
			"subgenre": "debt note (copper; pledge)",
			"year": "686"
		},
		"geometry": {
			"type": "Point",
			"coordinates": [43.414221,36.221946]
		}
	}, {
		"type": "Feature",
		"properties": {
			"archive": "001 - Mamu Temple, Room 8",
			"atae_attribution": "Adapted from Barbara Parker, “Tablets from the Temple of Mamu at Balawat,” Iraq 25 (1963): 86–103, by Jamie Novotny and Poppy Tushingham (2021) for the Munich Open-access Cuneiform Corpus Initiative (MOCCI), which is funded by LMU Munich and the Alexander von Humboldt Foundation at the Historisches Seminar - Abteilung Alte Geschichte of Ludwig-Maximilians-Universität München. The text was lemmatized by Jamie Novotny. The online edition is released under the Creative Commons Attribution Share-Alike license 3.0.",
			"cite_as": "Please cite this page as http://oracc.org/atae/P522840/.",
			"collection": "National Museum of Iraq, Baghdad, Iraq",
			"composite_witness": "witness",
			"credits": "Adapted from Barbara Parker, “Tablets from the Temple of Mamu at Balawat,” Iraq 25 (1963): 86–103, by Jamie Novotny and Poppy Tushingham (2021) for the Munich Open-access Cuneiform Corpus Initiative (MOCCI), which is funded by LMU Munich and the Alexander von Humboldt Foundation at the Historisches Seminar - Abteilung Alte Geschichte of Ludwig-Maximilians-Universität München. The text was lemmatized by Jamie Novotny. The online edition is released under the Creative Commons Attribution Share-Alike license 3.0. Please cite this page as http://oracc.org/atae/P522840/.",
			"date": "686-XI-01",
			"date_gen": "686-XI-01",
			"day": "01",
			"designation": "BT 124",
			"dialect": "Neo-Assyrian",
			"excavation_no": "BT 124",
			"genre": "Legal Transaction",
			"has_date": "yes",
			"id_text": "P522840",
			"language": "Akkadian",
			"list_name": "atae/imgurenlil:P522840@atae",
			"long_date": "Šabāṭu 1st, eponymy of Bēl-ēmuranni, commander-in-chief",
			"material": "clay",
			"month": "XI",
			"museum_no": "IM —",
			"object_type": "tablet",
			"period": "Neo-Assyrian",
			"primary_publication": "BT 124",
			"project": "imgurenlil",
			"provenience": "Balawat (Imgur-Enlil)",
			"regnal_dates": "704–681 BC",
			"ruler": "Sennacherib",
			"script": "Neo-Assyrian",
			"script_remarks": "inscribed",
			"script_type": "Cuneiform",
			"seal_mark_type": "cylinder seal; stamp seal",
			"sealed_marked": "yes",
			"seals_number": "3",
			"subgenre": "debt note (silver)",
			"year": "686"
		},
		"geometry": {
			"type": "Point",
			"coordinates": [43.414221,36.221946]
		}
	}, {
		"type": "Feature",
		"properties": {
			"ancient_buyer": "Mamu-iqbi",
			"ancient_seller": "Aššur-ēṭiranni; Šarru-ēmuranni",
			"archive": "001 - Mamu Temple, Room 8",
			"atae_attribution": "Adapted from Barbara Parker, “Tablets from the Temple of Mamu at Balawat,” Iraq 25 (1963): 86–103, by Jamie Novotny and Poppy Tushingham (2021) for the Munich Open-access Cuneiform Corpus Initiative (MOCCI), which is funded by LMU Munich and the Alexander von Humboldt Foundation at the Historisches Seminar - Abteilung Alte Geschichte of Ludwig-Maximilians-Universität München. The text was lemmatized by Jamie Novotny. The online edition is released under the Creative Commons Attribution Share-Alike license 3.0.",
			"cite_as": "Please cite this page as http://oracc.org/atae/P522841/.",
			"collection": "National Museum of Iraq, Baghdad, Iraq",
			"composite_witness": "witness",
			"credits": "Adapted from Barbara Parker, “Tablets from the Temple of Mamu at Balawat,” Iraq 25 (1963): 86–103, by Jamie Novotny and Poppy Tushingham (2021) for the Munich Open-access Cuneiform Corpus Initiative (MOCCI), which is funded by LMU Munich and the Alexander von Humboldt Foundation at the Historisches Seminar - Abteilung Alte Geschichte of Ludwig-Maximilians-Universität München. The text was lemmatized by Jamie Novotny. The online edition is released under the Creative Commons Attribution Share-Alike license 3.0. Please cite this page as http://oracc.org/atae/P522841/.",
			"date": "692-XII",
			"date_gen": "692-XII",
			"designation": "BT 125",
			"dialect": "Neo-Assyrian",
			"excavation_no": "BT 125",
			"fingernails_number": "5",
			"genre": "Legal Transaction",
			"has_date": "yes",
			"id_text": "P522841",
			"language": "Akkadian",
			"list_name": "atae/imgurenlil:P522841@atae",
			"long_date": "Addaru, eponymy of Zazāya",
			"material": "clay",
			"month": "XII",
			"museum_no": "IM —",
			"object_type": "tablet",
			"period": "Neo-Assyrian",
			"primary_publication": "BT 125",
			"project": "imgurenlil",
			"provenience": "Balawat (Imgur-Enlil)",
			"regnal_dates": "704–681 BC",
			"ruler": "Sennacherib",
			"script": "Neo-Assyrian",
			"script_remarks": "inscribed",
			"script_type": "Cuneiform",
			"seal_mark_type": "fingernail",
			"seal_owner": "Aššur-ēṭiranni; Šarru-ēmuranni",
			"sealed_marked": "yes",
			"subgenre": "sales document (person)",
			"year": "692"
		},
		"geometry": {
			"type": "Point",
			"coordinates": [43.414221,36.221946]
		}
	}, {
		"type": "Feature",
		"properties": {
			"ancient_buyer": "Nenê",
			"ancient_seller": "Kēnu-ahu",
			"archive": "001 - Mamu Temple, Room 8",
			"atae_attribution": "Adapted from Barbara Parker, “Tablets from the Temple of Mamu at Balawat,” Iraq 25 (1963): 86–103, by Jamie Novotny and Poppy Tushingham (2021) for the Munich Open-access Cuneiform Corpus Initiative (MOCCI), which is funded by LMU Munich and the Alexander von Humboldt Foundation at the Historisches Seminar - Abteilung Alte Geschichte of Ludwig-Maximilians-Universität München. The text was lemmatized by Jamie Novotny. The online edition is released under the Creative Commons Attribution Share-Alike license 3.0.",
			"cite_as": "Please cite this page as http://oracc.org/atae/P522842/.",
			"collection": "National Museum of Iraq, Baghdad, Iraq",
			"composite_witness": "witness",
			"credits": "Adapted from Barbara Parker, “Tablets from the Temple of Mamu at Balawat,” Iraq 25 (1963): 86–103, by Jamie Novotny and Poppy Tushingham (2021) for the Munich Open-access Cuneiform Corpus Initiative (MOCCI), which is funded by LMU Munich and the Alexander von Humboldt Foundation at the Historisches Seminar - Abteilung Alte Geschichte of Ludwig-Maximilians-Universität München. The text was lemmatized by Jamie Novotny. The online edition is released under the Creative Commons Attribution Share-Alike license 3.0. Please cite this page as http://oracc.org/atae/P522842/.",
			"date": "688-IX-[...]",
			"date_gen": "688-IX-[...]",
			"day": "[...]",
			"designation": "BT 126",
			"dialect": "Neo-Assyrian",
			"excavation_no": "BT 126",
			"genre": "Legal Transaction",
			"has_date": "yes, but date partially preserved",
			"id_text": "P522842",
			"language": "Akkadian",
			"list_name": "atae/imgurenlil:P522842@atae",
			"long_date": "Kislīm[u ...]th, eponymy of Iddin-ahhē, of Ṣimirra",
			"material": "clay",
			"month": "IX",
			"museum_no": "IM —",
			"object_type": "tablet",
			"period": "Neo-Assyrian",
			"primary_publication": "BT 126",
			"project": "imgurenlil",
			"provenience": "Balawat (Imgur-Enlil)",
			"regnal_dates": "704–681 BC",
			"ruler": "Sennacherib",
			"script": "Neo-Assyrian",
			"script_remarks": "inscribed",
			"script_type": "Cuneiform",
			"seal_mark_type": "stamp seal",
			"seal_owner": "Kēnu-ahu",
			"sealed_marked": "yes",
			"seals_number": "1",
			"subgenre": "sales document (person)",
			"year": "688"
		},
		"geometry": {
			"type": "Point",
			"coordinates": [43.414221,36.221946]
		}
	}, {
		"type": "Feature",
		"properties": {
			"ancient_creditor": "Šumma-ilu",
			"ancient_debtor": "Aššur-ašarēd",
			"archive": "001 - Mamu Temple, Room 8",
			"atae_attribution": "Adapted from Barbara Parker, “Tablets from the Temple of Mamu at Balawat,” Iraq 25 (1963): 86–103, by Jamie Novotny and Poppy Tushingham (2021) for the Munich Open-access Cuneiform Corpus Initiative (MOCCI), which is funded by LMU Munich and the Alexander von Humboldt Foundation at the Historisches Seminar - Abteilung Alte Geschichte of Ludwig-Maximilians-Universität München. The text was lemmatized by Jamie Novotny. The online edition is released under the Creative Commons Attribution Share-Alike license 3.0.",
			"cite_as": "Please cite this page as http://oracc.org/atae/P522843/.",
			"collection": "National Museum of Iraq, Baghdad, Iraq",
			"composite_witness": "witness",
			"credits": "Adapted from Barbara Parker, “Tablets from the Temple of Mamu at Balawat,” Iraq 25 (1963): 86–103, by Jamie Novotny and Poppy Tushingham (2021) for the Munich Open-access Cuneiform Corpus Initiative (MOCCI), which is funded by LMU Munich and the Alexander von Humboldt Foundation at the Historisches Seminar - Abteilung Alte Geschichte of Ludwig-Maximilians-Universität München. The text was lemmatized by Jamie Novotny. The online edition is released under the Creative Commons Attribution Share-Alike license 3.0. Please cite this page as http://oracc.org/atae/P522843/.",
			"date": "692-[...]-01",
			"date_gen": "692-[...]-01",
			"day": "01",
			"designation": "BT 127",
			"dialect": "Neo-Assyrian",
			"excavation_no": "BT 127",
			"genre": "Legal Transaction",
			"has_date": "yes, but date partially preserved",
			"id_text": "P522843",
			"language": "Akkadian",
			"list_name": "atae/imgurenlil:P522843@atae",
			"long_date": "[...] 1st, [eponymy of Zazā]ya",
			"material": "clay",
			"month": "[...]",
			"museum_no": "IM —",
			"object_type": "tablet",
			"period": "Neo-Assyrian",
			"primary_publication": "BT 127",
			"project": "imgurenlil",
			"provenience": "Balawat (Imgur-Enlil)",
			"regnal_dates": "704–681 BC",
			"ruler": "Sennacherib",
			"script": "Neo-Assyrian",
			"script_remarks": "inscribed",
			"script_type": "Cuneiform",
			"subgenre": "debt note (silver, copper)",
			"year": "692"
		},
		"geometry": {
			"type": "Point",
			"coordinates": [43.414221,36.221946]
		}
	}, {
		"type": "Feature",
		"properties": {
			"ancient_creditor": "Šumma-ilu",
			"ancient_debtor": "Ilu-šumki",
			"archive": "001 - Mamu Temple, Room 8",
			"atae_attribution": "Adapted from Barbara Parker, “Tablets from the Temple of Mamu at Balawat,” Iraq 25 (1963): 86–103, by Jamie Novotny and Poppy Tushingham (2021) for the Munich Open-access Cuneiform Corpus Initiative (MOCCI), which is funded by LMU Munich and the Alexander von Humboldt Foundation at the Historisches Seminar - Abteilung Alte Geschichte of Ludwig-Maximilians-Universität München. The text was lemmatized by Jamie Novotny. The online edition is released under the Creative Commons Attribution Share-Alike license 3.0.",
			"cite_as": "Please cite this page as http://oracc.org/atae/P522844/.",
			"collection": "National Museum of Iraq, Baghdad, Iraq",
			"composite_witness": "witness",
			"credits": "Adapted from Barbara Parker, “Tablets from the Temple of Mamu at Balawat,” Iraq 25 (1963): 86–103, by Jamie Novotny and Poppy Tushingham (2021) for the Munich Open-access Cuneiform Corpus Initiative (MOCCI), which is funded by LMU Munich and the Alexander von Humboldt Foundation at the Historisches Seminar - Abteilung Alte Geschichte of Ludwig-Maximilians-Universität München. The text was lemmatized by Jamie Novotny. The online edition is released under the Creative Commons Attribution Share-Alike license 3.0. Please cite this page as http://oracc.org/atae/P522844/.",
			"date": "682-XI-16",
			"date_gen": "682-XI-16",
			"day": "16",
			"designation": "BT 128",
			"dialect": "Neo-Assyrian",
			"excavation_no": "BT 128",
			"genre": "Legal Transaction",
			"has_date": "yes, but date partially preserved",
			"id_text": "P522844",
			"language": "Akkadian",
			"list_name": "atae/imgurenlil:P522844@atae",
			"long_date": "Šabāṭu 16th, eponymy of Nabû-šarru-[uṣur, of] Marqasu",
			"material": "clay",
			"month": "XI",
			"museum_no": "IM —",
			"object_type": "tablet, envelope",
			"period": "Neo-Assyrian",
			"primary_publication": "BT 128",
			"project": "imgurenlil",
			"provenience": "Balawat (Imgur-Enlil)",
			"regnal_dates": "704–681 BC",
			"ruler": "Sennacherib",
			"script": "Neo-Assyrian",
			"script_remarks": "inscribed",
			"script_type": "Cuneiform",
			"subgenre": "debt note (silver; pledge)",
			"year": "682"
		},
		"geometry": {
			"type": "Point",
			"coordinates": [43.414221,36.221946]
		}
	}, {
		"type": "Feature",
		"properties": {
			"archive": "001 - Mamu Temple, Room 8",
			"atae_attribution": "Adapted from Barbara Parker, “Tablets from the Temple of Mamu at Balawat,” Iraq 25 (1963): 86–103, by Jamie Novotny and Poppy Tushingham (2021) for the Munich Open-access Cuneiform Corpus Initiative (MOCCI), which is funded by LMU Munich and the Alexander von Humboldt Foundation at the Historisches Seminar - Abteilung Alte Geschichte of Ludwig-Maximilians-Universität München. The text was lemmatized by Jamie Novotny. The online edition is released under the Creative Commons Attribution Share-Alike license 3.0.",
			"cite_as": "Please cite this page as http://oracc.org/atae/P522845/.",
			"collection": "National Museum of Iraq, Baghdad, Iraq",
			"composite_witness": "witness",
			"credits": "Adapted from Barbara Parker, “Tablets from the Temple of Mamu at Balawat,” Iraq 25 (1963): 86–103, by Jamie Novotny and Poppy Tushingham (2021) for the Munich Open-access Cuneiform Corpus Initiative (MOCCI), which is funded by LMU Munich and the Alexander von Humboldt Foundation at the Historisches Seminar - Abteilung Alte Geschichte of Ludwig-Maximilians-Universität München. The text was lemmatized by Jamie Novotny. The online edition is released under the Creative Commons Attribution Share-Alike license 3.0. Please cite this page as http://oracc.org/atae/P522845/.",
			"designation": "BT 131",
			"dialect": "Neo-Assyrian",
			"excavation_no": "BT 131",
			"genre": "Legal Transaction",
			"id_text": "P522845",
			"language": "Akkadian",
			"list_name": "atae/imgurenlil:P522845@atae",
			"material": "clay",
			"museum_no": "IM —",
			"object_type": "tablet",
			"period": "Neo-Assyrian",
			"primary_publication": "BT 131",
			"project": "imgurenlil",
			"provenience": "Balawat (Imgur-Enlil)",
			"script": "Neo-Assyrian",
			"script_remarks": "inscribed",
			"script_type": "Cuneiform"
		},
		"geometry": {
			"type": "Point",
			"coordinates": [43.414221,36.221946]
		}
	}, {
		"type": "Feature",
		"properties": {
			"ancient_buyer": "Mamu-iqbi",
			"ancient_seller": "Nabû-šezibanni",
			"archive": "001 - Mamu Temple, Room 8",
			"atae_attribution": "Adapted from Barbara Parker, “Tablets from the Temple of Mamu at Balawat,” Iraq 25 (1963): 86–103, by Jamie Novotny and Poppy Tushingham (2021) for the Munich Open-access Cuneiform Corpus Initiative (MOCCI), which is funded by LMU Munich and the Alexander von Humboldt Foundation at the Historisches Seminar - Abteilung Alte Geschichte of Ludwig-Maximilians-Universität München. The text was lemmatized by Jamie Novotny. The online edition is released under the Creative Commons Attribution Share-Alike license 3.0.",
			"cite_as": "Please cite this page as http://oracc.org/atae/P522846/.",
			"collection": "National Museum of Iraq, Baghdad, Iraq",
			"composite_witness": "witness",
			"credits": "Adapted from Barbara Parker, “Tablets from the Temple of Mamu at Balawat,” Iraq 25 (1963): 86–103, by Jamie Novotny and Poppy Tushingham (2021) for the Munich Open-access Cuneiform Corpus Initiative (MOCCI), which is funded by LMU Munich and the Alexander von Humboldt Foundation at the Historisches Seminar - Abteilung Alte Geschichte of Ludwig-Maximilians-Universität München. The text was lemmatized by Jamie Novotny. The online edition is released under the Creative Commons Attribution Share-Alike license 3.0. Please cite this page as http://oracc.org/atae/P522846/.",
			"date": "686-[...]-[...]",
			"date_gen": "686-[...]-[...]",
			"day": "[...]",
			"designation": "BT 136",
			"dialect": "Neo-Assyrian",
			"excavation_no": "BT 137",
			"genre": "Legal Transaction",
			"has_date": "yes, but date partially preserved",
			"id_text": "P522846",
			"language": "Akkadian",
			"list_name": "atae/imgurenlil:P522846@atae",
			"long_date": "[... ...th, epony]my of Bēl-[ēmur]anni",
			"material": "clay",
			"month": "[...]",
			"museum_no": "IM —",
			"object_type": "tablet",
			"period": "Neo-Assyrian",
			"primary_publication": "BT 136",
			"project": "imgurenlil",
			"provenience": "Balawat (Imgur-Enlil)",
			"regnal_dates": "704–681 BC",
			"ruler": "Sennacherib",
			"script": "Neo-Assyrian",
			"script_remarks": "inscribed",
			"script_type": "Cuneiform",
			"seal_mark_type": "stamp seal",
			"seal_owner": "Nabû-šezibanni",
			"sealed_marked": "yes",
			"seals_number": "3",
			"year": "686"
		},
		"geometry": {
			"type": "Point",
			"coordinates": [43.414221,36.221946]
		}
	}, {
		"type": "Feature",
		"properties": {
			"archive": "001 - Mamu Temple, Room 8",
			"atae_attribution": "Adapted from Barbara Parker, “Tablets from the Temple of Mamu at Balawat,” Iraq 25 (1963): 86–103, by Jamie Novotny and Poppy Tushingham (2021) for the Munich Open-access Cuneiform Corpus Initiative (MOCCI), which is funded by LMU Munich and the Alexander von Humboldt Foundation at the Historisches Seminar - Abteilung Alte Geschichte of Ludwig-Maximilians-Universität München. The text was lemmatized by Jamie Novotny. The online edition is released under the Creative Commons Attribution Share-Alike license 3.0.",
			"cite_as": "Please cite this page as http://oracc.org/atae/P522847/.",
			"collection": "National Museum of Iraq, Baghdad, Iraq",
			"composite_witness": "witness",
			"credits": "Adapted from Barbara Parker, “Tablets from the Temple of Mamu at Balawat,” Iraq 25 (1963): 86–103, by Jamie Novotny and Poppy Tushingham (2021) for the Munich Open-access Cuneiform Corpus Initiative (MOCCI), which is funded by LMU Munich and the Alexander von Humboldt Foundation at the Historisches Seminar - Abteilung Alte Geschichte of Ludwig-Maximilians-Universität München. The text was lemmatized by Jamie Novotny. The online edition is released under the Creative Commons Attribution Share-Alike license 3.0. Please cite this page as http://oracc.org/atae/P522847/.",
			"date": "679-VIII-20",
			"date_gen": "679-VIII-20",
			"day": "20",
			"designation": "BT 138",
			"dialect": "Neo-Assyrian",
			"excavation_no": "BT 138",
			"genre": "Legal Transaction",
			"has_date": "yes",
			"id_text": "P522847",
			"language": "Akkadian",
			"list_name": "atae/imgurenlil:P522847@atae",
			"long_date": "Arahsamna 20[th], eponymy of Itti-Adad-anēnu",
			"material": "clay",
			"month": "VIII",
			"museum_no": "IM —",
			"object_type": "tablet",
			"period": "Neo-Assyrian",
			"primary_publication": "BT 138",
			"project": "imgurenlil",
			"provenience": "Balawat (Imgur-Enlil)",
			"regnal_dates": "680–669 BC",
			"ruler": "Esarhaddon",
			"script": "Neo-Assyrian",
			"script_remarks": "inscribed",
			"script_type": "Cuneiform",
			"sealed_marked": "unknown",
			"subgenre": "debt note",
			"year": "679"
		},
		"geometry": {
			"type": "Point",
			"coordinates": [43.414221,36.221946]
		}
	}, {
		"type": "Feature",
		"properties": {
			"ancient_creditor": "Nenê",
			"ancient_debtor": "Šēr-dalâ",
			"archive": "001 - Mamu Temple, Room 8",
			"atae_attribution": "Adapted from Barbara Parker, “Tablets from the Temple of Mamu at Balawat,” Iraq 25 (1963): 86–103, by Jamie Novotny and Poppy Tushingham (2021) for the Munich Open-access Cuneiform Corpus Initiative (MOCCI), which is funded by LMU Munich and the Alexander von Humboldt Foundation at the Historisches Seminar - Abteilung Alte Geschichte of Ludwig-Maximilians-Universität München. The text was lemmatized by Jamie Novotny. The online edition is released under the Creative Commons Attribution Share-Alike license 3.0.",
			"cite_as": "Please cite this page as http://oracc.org/atae/P522848/.",
			"collection": "National Museum of Iraq, Baghdad, Iraq",
			"composite_witness": "witness",
			"credits": "Adapted from Barbara Parker, “Tablets from the Temple of Mamu at Balawat,” Iraq 25 (1963): 86–103, by Jamie Novotny and Poppy Tushingham (2021) for the Munich Open-access Cuneiform Corpus Initiative (MOCCI), which is funded by LMU Munich and the Alexander von Humboldt Foundation at the Historisches Seminar - Abteilung Alte Geschichte of Ludwig-Maximilians-Universität München. The text was lemmatized by Jamie Novotny. The online edition is released under the Creative Commons Attribution Share-Alike license 3.0. Please cite this page as http://oracc.org/atae/P522848/.",
			"date": "684-IX-12",
			"date_gen": "684-IX-12",
			"day": "12",
			"designation": "BT 139",
			"dialect": "Neo-Assyrian",
			"excavation_no": "BT 139",
			"genre": "Legal Transaction",
			"has_date": "yes",
			"id_text": "P522848",
			"language": "Akkadian",
			"list_name": "atae/imgurenlil:P522848@atae",
			"long_date": "Kislīmu 12th, [eponymy] of Manzernê",
			"material": "clay",
			"month": "IX",
			"museum_no": "IM —",
			"object_type": "tablet",
			"period": "Neo-Assyrian",
			"primary_publication": "BT 139",
			"project": "imgurenlil",
			"provenience": "Balawat (Imgur-Enlil)",
			"regnal_dates": "704–681 BC",
			"ruler": "Sennacherib",
			"script": "Neo-Assyrian",
			"script_remarks": "inscribed",
			"script_type": "Cuneiform",
			"sealed_marked": "unknown",
			"subgenre": "debt note (silver; pledge)",
			"year": "684"
		},
		"geometry": {
			"type": "Point",
			"coordinates": [43.414221,36.221946]
		}
	}, {
		"type": "Feature",
		"properties": {
			"archive": "001 - Mamu Temple, Room 8",
			"atae_attribution": "Adapted from Barbara Parker, “Tablets from the Temple of Mamu at Balawat,” Iraq 25 (1963): 86–103, by Jamie Novotny and Poppy Tushingham (2021) for the Munich Open-access Cuneiform Corpus Initiative (MOCCI), which is funded by LMU Munich and the Alexander von Humboldt Foundation at the Historisches Seminar - Abteilung Alte Geschichte of Ludwig-Maximilians-Universität München. The text was lemmatized by Jamie Novotny. The online edition is released under the Creative Commons Attribution Share-Alike license 3.0.",
			"cite_as": "Please cite this page as http://oracc.org/atae/P522849/.",
			"collection": "National Museum of Iraq, Baghdad, Iraq",
			"composite_witness": "witness",
			"credits": "Adapted from Barbara Parker, “Tablets from the Temple of Mamu at Balawat,” Iraq 25 (1963): 86–103, by Jamie Novotny and Poppy Tushingham (2021) for the Munich Open-access Cuneiform Corpus Initiative (MOCCI), which is funded by LMU Munich and the Alexander von Humboldt Foundation at the Historisches Seminar - Abteilung Alte Geschichte of Ludwig-Maximilians-Universität München. The text was lemmatized by Jamie Novotny. The online edition is released under the Creative Commons Attribution Share-Alike license 3.0. Please cite this page as http://oracc.org/atae/P522849/.",
			"date": "685-I",
			"date_gen": "685-I",
			"designation": "BT 140",
			"dialect": "Neo-Assyrian",
			"excavation_no": "BT 140",
			"genre": "Legal Transaction",
			"has_date": "yes",
			"id_text": "P522849",
			"language": "Akkadian",
			"list_name": "atae/imgurenlil:P522849@atae",
			"long_date": "Nisannu, eponymy of Aššur-da’’inanni",
			"material": "clay",
			"month": "I",
			"museum_no": "IM —",
			"object_type": "tablet, envelope",
			"period": "Neo-Assyrian",
			"primary_publication": "BT 140",
			"project": "imgurenlil",
			"provenience": "Balawat (Imgur-Enlil)",
			"regnal_dates": "704–681 BC",
			"ruler": "Sennacherib",
			"script": "Neo-Assyrian",
			"script_remarks": "inscribed",
			"script_type": "Cuneiform",
			"seal_owner": "Agari",
			"sealed_marked": "yes",
			"subgenre": "judicial document",
			"year": "685"
		},
		"geometry": {
			"type": "Point",
			"coordinates": [43.414221,36.221946]
		}
	}]
}
