{
	"type": "FeatureCollection",
	"features": [{
		"type": "Feature",
		"properties": {
			"primary_publication": "Schoyen 48",
			"id_text": "P250657",
			"museum_no": "MS 1948",
			"archive": "099 - Miscellaneous",
			"atae_attribution": "Adapted from Karen Radner, “Neo-Assyrian Tablets,” in A.R. George, Thomas Hertel, Jaume Llop-Raduà, Karen Radner and Wilfred H. van Soldt, Assyrian Archival Texts in the Schøyen Collection (Cornell University Studies in Assyriology and Sumerology 34), 2017, by Poppy Tushingham and Jamie Novotny (2018–2021) for the Munich Open-access Cuneiform Corpus Initiative (MOCCI), which is funded by LMU Munich and the Alexander von Humboldt Foundation at the Historisches Seminar - Abteilung Alte Geschichte of Ludwig-Maximilians-Universität München. The text was lemmatized by Jamie Novotny. The annotated edition is released under the Creative Commons Attribution Share-Alike license 3.0.",
			"cite_as": "Please cite this page as http://oracc.org/atae/P250657/.",
			"collection": "Schøyen Collection, Oslo, Norway",
			"composite_witness": "witness",
			"credits": "Adapted from Karen Radner, “Neo-Assyrian Tablets,” in A.R. George, Thomas Hertel, Jaume Llop-Raduà, Karen Radner and Wilfred H. van Soldt, Assyrian Archival Texts in the Schøyen Collection (Cornell University Studies in Assyriology and Sumerology 34), 2017, by Poppy Tushingham and Jamie Novotny (2018–2021) for the Munich Open-access Cuneiform Corpus Initiative (MOCCI), which is funded by LMU Munich and the Alexander von Humboldt Foundation at the Historisches Seminar - Abteilung Alte Geschichte of Ludwig-Maximilians-Universität München. The text was lemmatized by Jamie Novotny. The annotated edition is released under the Creative Commons Attribution Share-Alike license 3.0. Please cite this page as http://oracc.org/atae/P250657/.",
			"date": "684-III-11",
			"designation": "Schoyen 48",
			"dialect": "Neo-Assyrian",
			"genre": "Legal Transaction",
			"has_date": "yes, but date partially preserved",
			"language": "Akkadian",
			"long_date": "Simānu 11th, [eponymy of] Manzarnia, governor of Kunali[a]",
			"material": "clay",
			"object_type": "tablet",
			"period": "Neo-Assyrian",
			"pleiades_id": "893945",
			"project": "assurmisc",
			"provenience": "Qalat Sherqat (Assur)",
			"regnal_dates": "680–669 BC",
			"ruler": "Esarhaddon",
			"script": "Neo-Assyrian",
			"script_remarks": "inscribed",
			"script_type": "Cuneiform",
			"subgenre": "sales document (person, restricted)"
		},
		"geometry": {
			"type": "Point",
			"coordinates": [43.262037,35.458121]
		}
	}, {
		"type": "Feature",
		"properties": {
			"primary_publication": "Schoyen 49",
			"id_text": "P342656",
			"museum_no": "MS 3190",
			"archive": "099 - Miscellaneous",
			"atae_attribution": "Adapted from Karen Radner, “Neo-Assyrian Tablets,” in A.R. George, Thomas Hertel, Jaume Llop-Raduà, Karen Radner and Wilfred H. van Soldt, Assyrian Archival Texts in the Schøyen Collection (Cornell University Studies in Assyriology and Sumerology 34), 2017, by Poppy Tushingham and Jamie Novotny (2018–2021) for the Munich Open-access Cuneiform Corpus Initiative (MOCCI), which is funded by LMU Munich and the Alexander von Humboldt Foundation at the Historisches Seminar - Abteilung Alte Geschichte of Ludwig-Maximilians-Universität München. The text was lemmatized by Jamie Novotny. The annotated edition is released under the Creative Commons Attribution Share-Alike license 3.0.",
			"cite_as": "Please cite this page as http://oracc.org/atae/P342656/.",
			"collection": "Schøyen Collection, Oslo, Norway",
			"composite_witness": "witness",
			"credits": "Adapted from Karen Radner, “Neo-Assyrian Tablets,” in A.R. George, Thomas Hertel, Jaume Llop-Raduà, Karen Radner and Wilfred H. van Soldt, Assyrian Archival Texts in the Schøyen Collection (Cornell University Studies in Assyriology and Sumerology 34), 2017, by Poppy Tushingham and Jamie Novotny (2018–2021) for the Munich Open-access Cuneiform Corpus Initiative (MOCCI), which is funded by LMU Munich and the Alexander von Humboldt Foundation at the Historisches Seminar - Abteilung Alte Geschichte of Ludwig-Maximilians-Universität München. The text was lemmatized by Jamie Novotny. The annotated edition is released under the Creative Commons Attribution Share-Alike license 3.0. Please cite this page as http://oracc.org/atae/P342656/.",
			"date": "660-IV",
			"designation": "Schoyen 49",
			"dialect": "Neo-Assyrian",
			"genre": "Administrative Record",
			"has_date": "yes",
			"language": "Akkadian",
			"long_date": "Duʾūzu, eponymy of Gir-Ṣapunu",
			"material": "clay",
			"object_type": "tablet",
			"period": "Neo-Assyrian",
			"pleiades_id": "893945",
			"project": "assurmisc",
			"provenience": "Qalat Sherqat (Assur)",
			"regnal_dates": "668–ca. 631 BC",
			"ruler": "Ashurbanipal",
			"script": "Neo-Assyrian",
			"script_remarks": "inscribed",
			"script_type": "Cuneiform",
			"subgenre": "memorandum"
		},
		"geometry": {
			"type": "Point",
			"coordinates": [43.262037,35.458121]
		}
	}, {
		"type": "Feature",
		"properties": {
			"primary_publication": "Schoyen 51",
			"id_text": "P254017",
			"museum_no": "MS 4986",
			"archive": "099 - Miscellaneous",
			"atae_attribution": "Adapted from Karen Radner, “Neo-Assyrian Tablets,” in A.R. George, Thomas Hertel, Jaume Llop-Raduà, Karen Radner and Wilfred H. van Soldt, Assyrian Archival Texts in the Schøyen Collection (Cornell University Studies in Assyriology and Sumerology 34), 2017, by Poppy Tushingham and Jamie Novotny (2018–2021) for the Munich Open-access Cuneiform Corpus Initiative (MOCCI), which is funded by LMU Munich and the Alexander von Humboldt Foundation at the Historisches Seminar - Abteilung Alte Geschichte of Ludwig-Maximilians-Universität München. The text was lemmatized by Jamie Novotny. The annotated edition is released under the Creative Commons Attribution Share-Alike license 3.0.",
			"cite_as": "Please cite this page as http://oracc.org/atae/P254017/.",
			"collection": "Schøyen Collection, Oslo, Norway",
			"composite_witness": "witness",
			"credits": "Adapted from Karen Radner, “Neo-Assyrian Tablets,” in A.R. George, Thomas Hertel, Jaume Llop-Raduà, Karen Radner and Wilfred H. van Soldt, Assyrian Archival Texts in the Schøyen Collection (Cornell University Studies in Assyriology and Sumerology 34), 2017, by Poppy Tushingham and Jamie Novotny (2018–2021) for the Munich Open-access Cuneiform Corpus Initiative (MOCCI), which is funded by LMU Munich and the Alexander von Humboldt Foundation at the Historisches Seminar - Abteilung Alte Geschichte of Ludwig-Maximilians-Universität München. The text was lemmatized by Jamie Novotny. The annotated edition is released under the Creative Commons Attribution Share-Alike license 3.0. Please cite this page as http://oracc.org/atae/P254017/.",
			"date": "632*-VII-19 or 631*-VII-19",
			"designation": "Schoyen 51",
			"dialect": "Neo-Assyrian",
			"genre": "Legal Transaction",
			"has_date": "yes",
			"language": "Akkadian",
			"long_date": "Tašrītu 19th, eponymy of Adad-remanni",
			"material": "clay",
			"object_type": "tablet",
			"period": "Neo-Assyrian",
			"pleiades_id": "893945",
			"project": "assurmisc",
			"provenience": "Qalat Sherqat (Assur)",
			"regnal_dates": "668–ca. 631 BC",
			"ruler": "Ashurbanipal",
			"script": "Neo-Assyrian",
			"script_remarks": "inscribed",
			"script_type": "Cuneiform",
			"subgenre": "debt note (silver)"
		},
		"geometry": {
			"type": "Point",
			"coordinates": [43.262037,35.458121]
		}
	}, {
		"type": "Feature",
		"properties": {
			"primary_publication": "Schoyen 52",
			"id_text": "P254025",
			"museum_no": "MS 4994",
			"archive": "099 - Miscellaneous",
			"atae_attribution": "Adapted from Karen Radner, “Neo-Assyrian Tablets,” in A.R. George, Thomas Hertel, Jaume Llop-Raduà, Karen Radner and Wilfred H. van Soldt, Assyrian Archival Texts in the Schøyen Collection (Cornell University Studies in Assyriology and Sumerology 34), 2017, by Poppy Tushingham and Jamie Novotny (2018–2021) for the Munich Open-access Cuneiform Corpus Initiative (MOCCI), which is funded by LMU Munich and the Alexander von Humboldt Foundation at the Historisches Seminar - Abteilung Alte Geschichte of Ludwig-Maximilians-Universität München. The text was lemmatized by Jamie Novotny. The annotated edition is released under the Creative Commons Attribution Share-Alike license 3.0.",
			"cite_as": "Please cite this page as http://oracc.org/atae/P254025/.",
			"collection": "Schøyen Collection, Oslo, Norway",
			"composite_witness": "witness",
			"credits": "Adapted from Karen Radner, “Neo-Assyrian Tablets,” in A.R. George, Thomas Hertel, Jaume Llop-Raduà, Karen Radner and Wilfred H. van Soldt, Assyrian Archival Texts in the Schøyen Collection (Cornell University Studies in Assyriology and Sumerology 34), 2017, by Poppy Tushingham and Jamie Novotny (2018–2021) for the Munich Open-access Cuneiform Corpus Initiative (MOCCI), which is funded by LMU Munich and the Alexander von Humboldt Foundation at the Historisches Seminar - Abteilung Alte Geschichte of Ludwig-Maximilians-Universität München. The text was lemmatized by Jamie Novotny. The annotated edition is released under the Creative Commons Attribution Share-Alike license 3.0. Please cite this page as http://oracc.org/atae/P254025/.",
			"date": "626*-VI-03 or 623*-VI-03",
			"designation": "Schoyen 52",
			"dialect": "Neo-Assyrian",
			"genre": "Legal Transaction",
			"has_date": "yes",
			"language": "Akkadian",
			"long_date": "Ulūlu 3rd, eponymy of Aššur-matu-taqqin",
			"material": "clay",
			"object_type": "tablet",
			"period": "Neo-Assyrian",
			"pleiades_id": "893945",
			"project": "assurmisc",
			"provenience": "Qalat Sherqat (Assur)",
			"regnal_dates": "ca. 626–612 BC",
			"ruler": "Sîn-šarru-iškun",
			"script": "Neo-Assyrian",
			"script_remarks": "inscribed",
			"script_type": "Cuneiform",
			"subgenre": "debt note (silver)"
		},
		"geometry": {
			"type": "Point",
			"coordinates": [43.262037,35.458121]
		}
	}, {
		"type": "Feature",
		"properties": {
			"primary_publication": "Schoyen 53",
			"id_text": "P250905",
			"museum_no": "MS 2189",
			"archive": "099 - Miscellaneous",
			"atae_attribution": "Adapted from Karen Radner, “Neo-Assyrian Tablets,” in A.R. George, Thomas Hertel, Jaume Llop-Raduà, Karen Radner and Wilfred H. van Soldt, Assyrian Archival Texts in the Schøyen Collection (Cornell University Studies in Assyriology and Sumerology 34), 2017, by Poppy Tushingham and Jamie Novotny (2018–2021) for the Munich Open-access Cuneiform Corpus Initiative (MOCCI), which is funded by LMU Munich and the Alexander von Humboldt Foundation at the Historisches Seminar - Abteilung Alte Geschichte of Ludwig-Maximilians-Universität München. The text was lemmatized by Jamie Novotny. The annotated edition is released under the Creative Commons Attribution Share-Alike license 3.0.",
			"cite_as": "Please cite this page as http://oracc.org/atae/P250905/.",
			"collection": "Schøyen Collection, Oslo, Norway",
			"composite_witness": "witness",
			"credits": "Adapted from Karen Radner, “Neo-Assyrian Tablets,” in A.R. George, Thomas Hertel, Jaume Llop-Raduà, Karen Radner and Wilfred H. van Soldt, Assyrian Archival Texts in the Schøyen Collection (Cornell University Studies in Assyriology and Sumerology 34), 2017, by Poppy Tushingham and Jamie Novotny (2018–2021) for the Munich Open-access Cuneiform Corpus Initiative (MOCCI), which is funded by LMU Munich and the Alexander von Humboldt Foundation at the Historisches Seminar - Abteilung Alte Geschichte of Ludwig-Maximilians-Universität München. The text was lemmatized by Jamie Novotny. The annotated edition is released under the Creative Commons Attribution Share-Alike license 3.0. Please cite this page as http://oracc.org/atae/P250905/.",
			"date": "621*-II-26 or 619*-II-26",
			"designation": "Schoyen 53",
			"dialect": "Neo-Assyrian",
			"genre": "Legal Transaction",
			"has_date": "yes",
			"language": "Akkadian",
			"long_date": "Ayyāru 26th, eponymy of Bel-iqbi",
			"material": "clay",
			"object_type": "tablet",
			"period": "Neo-Assyrian",
			"pleiades_id": "893945",
			"project": "assurmisc",
			"provenience": "Qalat Sherqat (Assur)",
			"regnal_dates": "ca. 626–612 BC",
			"ruler": "Sîn-šarru-iškun",
			"script": "Neo-Assyrian",
			"script_remarks": "inscribed",
			"script_type": "Cuneiform",
			"subgenre": "debt note (commercial partnership)"
		},
		"geometry": {
			"type": "Point",
			"coordinates": [43.262037,35.458121]
		}
	}, {
		"type": "Feature",
		"properties": {
			"primary_publication": "Schoyen 54",
			"id_text": "P342655",
			"museum_no": "MS 3189",
			"archive": "099 - Miscellaneous",
			"atae_attribution": "Adapted from Karen Radner, “Neo-Assyrian Tablets,” in A.R. George, Thomas Hertel, Jaume Llop-Raduà, Karen Radner and Wilfred H. van Soldt, Assyrian Archival Texts in the Schøyen Collection (Cornell University Studies in Assyriology and Sumerology 34), 2017, by Poppy Tushingham and Jamie Novotny (2018–2021) for the Munich Open-access Cuneiform Corpus Initiative (MOCCI), which is funded by LMU Munich and the Alexander von Humboldt Foundation at the Historisches Seminar - Abteilung Alte Geschichte of Ludwig-Maximilians-Universität München. The text was lemmatized by Jamie Novotny. The annotated edition is released under the Creative Commons Attribution Share-Alike license 3.0.",
			"cite_as": "Please cite this page as http://oracc.org/atae/P342655/.",
			"collection": "Schøyen Collection, Oslo, Norway",
			"composite_witness": "witness",
			"credits": "Adapted from Karen Radner, “Neo-Assyrian Tablets,” in A.R. George, Thomas Hertel, Jaume Llop-Raduà, Karen Radner and Wilfred H. van Soldt, Assyrian Archival Texts in the Schøyen Collection (Cornell University Studies in Assyriology and Sumerology 34), 2017, by Poppy Tushingham and Jamie Novotny (2018–2021) for the Munich Open-access Cuneiform Corpus Initiative (MOCCI), which is funded by LMU Munich and the Alexander von Humboldt Foundation at the Historisches Seminar - Abteilung Alte Geschichte of Ludwig-Maximilians-Universität München. The text was lemmatized by Jamie Novotny. The annotated edition is released under the Creative Commons Attribution Share-Alike license 3.0. Please cite this page as http://oracc.org/atae/P342655/.",
			"date": "621*-VIII-04 or 619*-VIII-04",
			"designation": "Schoyen 54",
			"dialect": "Neo-Assyrian",
			"genre": "Legal Transaction",
			"has_date": "yes",
			"language": "Akkadian",
			"long_date": "Arahsamna 4th, eponymy of Bel-iqbi, governor of Tušhan",
			"material": "clay",
			"object_type": "tablet",
			"period": "Neo-Assyrian",
			"pleiades_id": "893945",
			"project": "assurmisc",
			"provenience": "Qalat Sherqat (Assur)",
			"regnal_dates": "ca. 626–612 BC",
			"ruler": "Sîn-šarru-iškun",
			"script": "Neo-Assyrian",
			"script_remarks": "inscribed",
			"script_type": "Cuneiform",
			"subgenre": "adoption document"
		},
		"geometry": {
			"type": "Point",
			"coordinates": [43.262037,35.458121]
		}
	}, {
		"type": "Feature",
		"properties": {
			"primary_publication": "Schoyen 56",
			"id_text": "P342657",
			"museum_no": "MS 3191",
			"archive": "099 - Miscellaneous",
			"atae_attribution": "Adapted from Karen Radner, “Neo-Assyrian Tablets,” in A.R. George, Thomas Hertel, Jaume Llop-Raduà, Karen Radner and Wilfred H. van Soldt, Assyrian Archival Texts in the Schøyen Collection (Cornell University Studies in Assyriology and Sumerology 34), 2017, by Poppy Tushingham and Jamie Novotny (2018–2021) for the Munich Open-access Cuneiform Corpus Initiative (MOCCI), which is funded by LMU Munich and the Alexander von Humboldt Foundation at the Historisches Seminar - Abteilung Alte Geschichte of Ludwig-Maximilians-Universität München. The text was lemmatized by Jamie Novotny. The annotated edition is released under the Creative Commons Attribution Share-Alike license 3.0.",
			"cite_as": "Please cite this page as http://oracc.org/atae/P342657/.",
			"collection": "Schøyen Collection, Oslo, Norway",
			"composite_witness": "witness",
			"credits": "Adapted from Karen Radner, “Neo-Assyrian Tablets,” in A.R. George, Thomas Hertel, Jaume Llop-Raduà, Karen Radner and Wilfred H. van Soldt, Assyrian Archival Texts in the Schøyen Collection (Cornell University Studies in Assyriology and Sumerology 34), 2017, by Poppy Tushingham and Jamie Novotny (2018–2021) for the Munich Open-access Cuneiform Corpus Initiative (MOCCI), which is funded by LMU Munich and the Alexander von Humboldt Foundation at the Historisches Seminar - Abteilung Alte Geschichte of Ludwig-Maximilians-Universität München. The text was lemmatized by Jamie Novotny. The annotated edition is released under the Creative Commons Attribution Share-Alike license 3.0. Please cite this page as http://oracc.org/atae/P342657/.",
			"designation": "Schoyen 56",
			"dialect": "Neo-Assyrian",
			"genre": "Administrative Record",
			"has_date": "no",
			"language": "Akkadian",
			"material": "clay",
			"object_type": "tablet",
			"period": "Neo-Assyrian",
			"pleiades_id": "893945",
			"project": "assurmisc",
			"provenience": "Qalat Sherqat (Assur)",
			"script": "Neo-Assyrian",
			"script_remarks": "inscribed",
			"script_type": "Cuneiform",
			"subgenre": "memorandum"
		},
		"geometry": {
			"type": "Point",
			"coordinates": [43.262037,35.458121]
		}
	}]
}
