{
	"type": "FeatureCollection",
	"features": [{
		"type": "Feature",
		"properties": {
			"id_text": "P247823",
			"designation": "CDLI Literary 002701.01, ex. 022 & 002718.01, ex. 030",
			"artifact_type": "tablet",
			"period": "Neo-Babylonian",
			"provenience": "Sippar-Yahrurum (mod. Tell Abu Habbah)",
			"composites": "Q002701.01; Q002718.01",
			"museum_no": "BM 093079",
			"accession_no": "1882-09-18, 05555",
			"is_provenience_uncertain": "1",
			"is_school_text": "1",
			"collections": "British Museum, London, UK",
			"languages": "Akkadian;Sumerian",
			"materials": "clay",
			"publications_key": "1435168",
			"publications_type": "history",
			"external_resources": "eBL; CAMS/Ludlul; ARMEP; BM",
			"external_resources_key": "BM.93079; P247823; P247823; W_1882-0918-5555",
			"languages_uncertain": "0;0",
			"xproject": "CDLI",
			"xproject": "CDLI"
		},
		"geometry": {
			"type": "Point",
			"coordinates": [44.253809,33.059195]
		}
	}, {
		"type": "Feature",
		"properties": {
			"id_text": "P338349",
			"designation": "CDLI Literary 002701.01, ex. 001",
			"artifact_type": "tablet",
			"period": "Neo-Assyrian",
			"provenience": "Huzirina (mod. Sultantepe)",
			"composites": "Q002701.01",
			"museum_no": "AMM —",
			"height": "103.0",
			"width": "84.0",
			"excavation_no": "SU 1951, 010",
			"collections": "Anadolu Medeniyetleri Müzesi, Ankara, Turkey",
			"genres": "Literary",
			"languages": "Akkadian",
			"materials": "clay",
			"publications_key": "1438075",
			"publications_type": "history",
			"external_resources": "eBL; CAMS/GKAB; ARMEP",
			"external_resources_key": "SU-1951.10; P338349; P338349",
			"genres_comment": "ludlul bēl nēmeqi 1 (witness)",
			"xproject": "CDLI",
			"xproject": "CDLI"
		},
		"geometry": {
			"type": "Point",
			"coordinates": [38.9061,37.05]
		}
	}, {
		"type": "Feature",
		"properties": {
			"id_text": "P338350",
			"designation": "CDLI Literary 002701.02, ex. 001",
			"artifact_type": "tablet",
			"period": "Neo-Assyrian",
			"provenience": "Huzirina (mod. Sultantepe)",
			"composites": "Q002701.02",
			"museum_no": "AMM —",
			"height": "160.0",
			"width": "79.0",
			"excavation_no": "SU 1951, 015a + SU 1951, 032 + SU 1951, 046 + SU 1951, 103a",
			"collections": "Anadolu Medeniyetleri Müzesi, Ankara, Turkey",
			"genres": "Literary",
			"languages": "Akkadian",
			"materials": "clay",
			"publications_key": "1438076",
			"publications_type": "history",
			"external_resources": "eBL; eBL; eBL; eBL; CAMS/GKAB; ARMEP",
			"external_resources_key": "SU-1951.15.A; SU-1951.32; SU-1951.46; SU-1951.103.A; P338350; P338350",
			"genres_comment": "ludlul bēl nēmeqi 2 (witness)",
			"xproject": "CDLI",
			"xproject": "CDLI"
		},
		"geometry": {
			"type": "Point",
			"coordinates": [38.9061,37.05]
		}
	}, {
		"type": "Feature",
		"properties": {
			"id_text": "P338437",
			"designation": "CDLI Literary 002701.05, ex. 008",
			"artifact_type": "tablet",
			"period": "Neo-Assyrian",
			"provenience": "Huzirina (mod. Sultantepe)",
			"composites": "Q002701.05",
			"museum_no": "AMM —",
			"height": "30.0",
			"width": "20.0",
			"excavation_no": "SU 1952, 212 + SU 1952, 291 + SU 1952, 302 (Oshima all 1951)",
			"collections": "Anadolu Medeniyetleri Müzesi, Ankara, Turkey",
			"genres": "Literary",
			"languages": "Akkadian",
			"materials": "clay",
			"publications_key": "1438081",
			"publications_type": "history",
			"external_resources": "eBL; eBL; CAMS/Ludlul; ARMEP",
			"external_resources_key": "SU-1952.212; SU-1952.291; P338437; P338437",
			"genres_comment": "ludlul bēl nēmeqi 5 (witness)",
			"xproject": "CDLI",
			"xproject": "CDLI"
		},
		"geometry": {
			"type": "Point",
			"coordinates": [38.9061,37.05]
		}
	}, {
		"type": "Feature",
		"properties": {
			"id_text": "P347243",
			"designation": "CDLI Literary 002701.05, ex. 011",
			"artifact_type": "tablet",
			"period": "Neo-Babylonian",
			"provenience": "Bābili (mod. Babylon)",
			"composites": "Q002701.05; Q002718.04; Q002721",
			"museum_no": "VAT 17489",
			"collections": "Vorderasiatisches Museum, Berlin, Germany",
			"genres": "Literary",
			"languages": "Akkadian",
			"materials": "clay",
			"publications_key": "1406493",
			"publications_type": "history",
			"external_resources": "CAMS/Ludlul; ARMEP",
			"external_resources_key": "P347243; P347243",
			"genres_comment": "ludlul bēl nēmeqi 5 (witness); enuma elish 4 (witness) enuma elish IV 17",
			"xproject": "CDLI",
			"xproject": "CDLI"
		},
		"geometry": {
			"type": "Point",
			"coordinates": [44.422236,32.543395]
		}
	}, {
		"type": "Feature",
		"properties": {
			"id_text": "P348934",
			"designation": "CDLI Literary 002701.01, ex. 023 & 002701.05, ex. 010",
			"artifact_type": "tablet",
			"period": "Neo-Babylonian",
			"provenience": "Kish (mod. Tell Uhaimir)",
			"composites": "Q002701.01; Q002701.05",
			"museum_no": "Ashm 1924-1795",
			"is_provenience_uncertain": "1",
			"collections": "Ashmolean Museum, Oxford, UK",
			"genres": "Literary",
			"languages": "Akkadian",
			"materials": "clay",
			"publications_key": "1438830",
			"publications_type": "history",
			"external_resources": "eBL; CAMS/Ludlul; ARMEP",
			"external_resources_key": "Ashm-1924.1795; P348934; P348934",
			"genres_comment": "ludlul bēl nēmeqi 1, 5 (witness)",
			"xproject": "CDLI",
			"xproject": "CDLI"
		},
		"geometry": {
			"type": "Point",
			"coordinates": [44.585271,32.551977]
		}
	}, {
		"type": "Feature",
		"properties": {
			"id_text": "P369002",
			"designation": "CDLI Literary 002701.05, ex. 004",
			"artifact_type": "tablet",
			"period": "Neo-Assyrian",
			"provenience": "Assur (mod. Qalat Sherqat)",
			"composites": "Q002701.05",
			"museum_no": "VAT 09303",
			"collections": "Vorderasiatisches Museum, Berlin, Germany",
			"genres": "Literary",
			"languages": "Akkadian",
			"materials": "clay",
			"publications_key": "1439814",
			"publications_type": "history",
			"external_resources": "CAMS/Ludlul; ARMEP",
			"external_resources_key": "P369002; P369002",
			"genres_comment": "ludlul bēl nēmeqi 5 (witness)",
			"xproject": "CDLI",
			"xproject": "CDLI"
		},
		"geometry": {
			"type": "Point",
			"coordinates": [43.262037,35.458121]
		}
	}, {
		"type": "Feature",
		"properties": {
			"id_text": "P369003",
			"designation": "CDLI Literary 002701.05, ex. 005",
			"artifact_type": "tablet",
			"period": "Neo-Assyrian",
			"provenience": "Assur (mod. Qalat Sherqat)",
			"composites": "Q002701.05",
			"museum_no": "VAT 09442",
			"collections": "Vorderasiatisches Museum, Berlin, Germany",
			"genres": "Literary",
			"languages": "Akkadian",
			"materials": "clay",
			"publications_key": "1439815",
			"publications_type": "history",
			"external_resources": "CAMS/Ludlul; ARMEP",
			"external_resources_key": "P369003; P369003",
			"genres_comment": "ludlul bēl nēmeqi 5 (witness)",
			"xproject": "CDLI",
			"xproject": "CDLI"
		},
		"geometry": {
			"type": "Point",
			"coordinates": [43.262037,35.458121]
		}
	}, {
		"type": "Feature",
		"properties": {
			"id_text": "P369089",
			"designation": "CDLI Literary 002701.02, ex. 002",
			"artifact_type": "tablet",
			"period": "Neo-Assyrian",
			"provenience": "Assur (mod. Qalat Sherqat)",
			"composites": "Q002701.02",
			"museum_no": "VAT 10601 (+) VAT 10657",
			"collections": "Vorderasiatisches Museum, Berlin, Germany",
			"genres": "Literary",
			"languages": "Akkadian",
			"materials": "clay",
			"publications_key": "1439821",
			"publications_type": "history",
			"external_resources": "CAMS/Ludlul; ARMEP",
			"external_resources_key": "P369089; P369089",
			"genres_comment": "ludlul bēl nēmeqi 2 (witness)",
			"xproject": "CDLI",
			"xproject": "CDLI"
		},
		"geometry": {
			"type": "Point",
			"coordinates": [43.262037,35.458121]
		}
	}, {
		"type": "Feature",
		"properties": {
			"id_text": "P369096",
			"cdli_comments": "20170812 cdliadmin: new identifications provided by Andrea Ulshöfer",
			"designation": "CDLI Literary 002701.05, ex. 007",
			"artifact_type": "tablet",
			"period": "Middle Assyrian",
			"provenience": "Assur (mod. Qalat Sherqat)",
			"composites": "Q002701.05",
			"museum_no": "VAT 11245bis ?",
			"collections": "Vorderasiatisches Museum, Berlin, Germany",
			"genres": "Literary",
			"languages": "Akkadian",
			"materials": "clay",
			"publications_key": "1439822",
			"publications_type": "history",
			"external_resources": "CAMS/Ludlul; ARMEP",
			"external_resources_key": "P369096; P369096",
			"genres_comment": "ludlul bēl nēmeqi 5 (witness)",
			"xproject": "CDLI",
			"xproject": "CDLI"
		},
		"geometry": {
			"type": "Point",
			"coordinates": [43.262037,35.458121]
		}
	}, {
		"type": "Feature",
		"properties": {
			"id_text": "P369143",
			"designation": "CDLI Literary 002701.03, ex. 001",
			"artifact_type": "tablet",
			"period": "Neo-Assyrian",
			"provenience": "Assur (mod. Qalat Sherqat)",
			"composites": "Q002701.03",
			"museum_no": "VAT 09954",
			"collections": "Vorderasiatisches Museum, Berlin, Germany",
			"genres": "Literary",
			"languages": "Akkadian",
			"materials": "clay",
			"publications_key": "1439830",
			"publications_type": "history",
			"external_resources": "CAMS/Ludlul; ARMEP",
			"external_resources_key": "P369143; P369143",
			"genres_comment": "ludlul bēl nēmeqi 3 (witness)",
			"xproject": "CDLI",
			"xproject": "CDLI"
		},
		"geometry": {
			"type": "Point",
			"coordinates": [43.262037,35.458121]
		}
	}, {
		"type": "Feature",
		"properties": {
			"id_text": "P381770",
			"designation": "CDLI Literary 002701.01, ex. 024 & 002718.01, ex. 031",
			"artifact_type": "tablet",
			"period": "Neo-Assyrian",
			"provenience": "Assur (mod. Qalat Sherqat)",
			"composites": "Q000101; Q000146; Q000204; Q000205; Q002701.01; Q002718.01",
			"museum_no": "VAT 10071",
			"is_school_text": "1",
			"collections": "Vorderasiatisches Museum, Berlin, Germany",
			"languages": "Akkadian",
			"materials": "clay",
			"publications_key": "1440206",
			"publications_type": "history",
			"external_resources": "CAMS/Ludlul; ARMEP; CMAwRo",
			"external_resources_key": "P381770; P381770; Q002708",
			"xproject": "CDLI",
			"xproject": "CDLI"
		},
		"geometry": {
			"type": "Point",
			"coordinates": [43.262037,35.458121]
		}
	}, {
		"type": "Feature",
		"properties": {
			"id_text": "P381794",
			"designation": "CDLI Literary 002701.01, ex. 025 & 002718.01, ex. 032",
			"artifact_type": "tablet",
			"period": "Neo-Assyrian",
			"provenience": "Assur (mod. Qalat Sherqat)",
			"composites": "Q000101; Q000146; Q000204; Q000205; Q002701.01; Q002718.01",
			"museum_no": "VAT 10756",
			"is_school_text": "1",
			"collections": "Vorderasiatisches Museum, Berlin, Germany",
			"languages": "Akkadian",
			"materials": "clay",
			"publications_key": "1440207",
			"publications_type": "history",
			"external_resources": "CAMS/Ludlul; ARMEP; CMAwRo",
			"external_resources_key": "P381794; P381794; Q002708",
			"xproject": "CDLI",
			"xproject": "CDLI"
		},
		"geometry": {
			"type": "Point",
			"coordinates": [43.262037,35.458121]
		}
	}, {
		"type": "Feature",
		"properties": {
			"id_text": "P382528",
			"designation": "CDLI Literary 002701.01, ex. 004",
			"artifact_type": "tablet",
			"period": "Neo-Assyrian",
			"provenience": "Assur (mod. Qalat Sherqat)",
			"composites": "Q002701.01",
			"museum_no": "VAT 10522",
			"collections": "Vorderasiatisches Museum, Berlin, Germany",
			"genres": "Literary",
			"languages": "Akkadian",
			"materials": "clay",
			"publications_key": "1440214",
			"publications_type": "history",
			"external_resources": "CAMS/Ludlul; ARMEP",
			"external_resources_key": "P382528; P382528",
			"genres_comment": "ludlul bēl nēmeqi 1 (witness)",
			"xproject": "CDLI",
			"xproject": "CDLI"
		},
		"geometry": {
			"type": "Point",
			"coordinates": [43.262037,35.458121]
		}
	}, {
		"type": "Feature",
		"properties": {
			"id_text": "P382529",
			"designation": "CDLI Literary 002701.01, ex. 005",
			"artifact_type": "tablet",
			"period": "Neo-Assyrian",
			"provenience": "Nineveh (mod. Kuyunjik)",
			"composites": "Q002701.01",
			"museum_no": "BM —",
			"accession_no": "K 09392 + K 09810",
			"collections": "British Museum, London, UK",
			"genres": "Literary",
			"languages": "Akkadian",
			"materials": "clay",
			"publications_key": "1440215",
			"publications_type": "history",
			"external_resources": "eBL; eBL; CAMS/Ludlul; ARMEP; AsbP; BM",
			"external_resources_key": "K.9392; K.9810; P382529; P382529; P382529; W_K-9810",
			"genres_comment": "ludlul bēl nēmeqi 1 (witness)",
			"xproject": "CDLI",
			"xproject": "CDLI"
		},
		"geometry": {
			"type": "Point",
			"coordinates": [43.151937,36.358684]
		}
	}, {
		"type": "Feature",
		"properties": {
			"id_text": "P394033",
			"designation": "CDLI Literary 002701.01, ex. 017",
			"artifact_type": "tablet",
			"period": "Neo-Assyrian",
			"provenience": "Nineveh (mod. Kuyunjik)",
			"composites": "Q002701.01",
			"museum_no": "BM —",
			"accession_no": "K 01757 + K 18963",
			"collections": "British Museum, London, UK",
			"genres": "Literary",
			"languages": "Akkadian",
			"materials": "clay",
			"publications_key": "1413448",
			"publications_type": "history",
			"external_resources": "eBL; eBL; CAMS/Ludlul; ARMEP; AsbP",
			"external_resources_key": "K.1757; K.18963; P394033; P394033; P394033",
			"genres_comment": "ludlul bēl nēmeqi 1 (witness)",
			"xproject": "CDLI",
			"xproject": "CDLI"
		},
		"geometry": {
			"type": "Point",
			"coordinates": [43.151937,36.358684]
		}
	}, {
		"type": "Feature",
		"properties": {
			"id_text": "P394482",
			"designation": "CDLI Literary 002701.02, ex. 003",
			"artifact_type": "tablet",
			"period": "Neo-Assyrian",
			"provenience": "Nineveh (mod. Kuyunjik)",
			"composites": "Q002701.02",
			"museum_no": "BM —",
			"accession_no": "K 02518 + DT 358",
			"collections": "British Museum, London, UK",
			"genres": "Literary",
			"languages": "Akkadian",
			"materials": "clay",
			"publications_key": "1440561",
			"publications_type": "history",
			"external_resources": "eBL; eBL; CAMS/Ludlul; ARMEP; AsbP",
			"external_resources_key": "DT.358; K.2518; P394482; P394482; P394482",
			"genres_comment": "ludlul bēl nēmeqi 2 (witness)",
			"xproject": "CDLI",
			"xproject": "CDLI"
		},
		"geometry": {
			"type": "Point",
			"coordinates": [43.151937,36.358684]
		}
	}, {
		"type": "Feature",
		"properties": {
			"id_text": "P394923",
			"designation": "CDLI Literary 002701.com, ex. 001",
			"artifact_type": "tablet",
			"period": "Neo-Assyrian",
			"provenience": "Nineveh (mod. Kuyunjik)",
			"composites": "Q002701.com",
			"museum_no": "BM —",
			"accession_no": "K 03291",
			"collections": "British Museum, London, UK",
			"genres": "Literary",
			"languages": "Akkadian",
			"materials": "clay",
			"publications_key": "1440589",
			"publications_type": "history",
			"external_resources": "eBL; CAMS/Ludlul; ARMEP; AsbP; BM",
			"external_resources_key": "K.3291; P394923; P394923; P394923; W_K-3291",
			"genres_comment": "ludlul bēl nēmeqi 1-4 (commentary) commentary",
			"xproject": "CDLI",
			"xproject": "CDLI"
		},
		"geometry": {
			"type": "Point",
			"coordinates": [43.151937,36.358684]
		}
	}, {
		"type": "Feature",
		"properties": {
			"id_text": "P394941",
			"designation": "CDLI Literary 002701.02, ex. 004",
			"artifact_type": "tablet",
			"period": "Neo-Assyrian",
			"provenience": "Nineveh (mod. Kuyunjik)",
			"composites": "Q002701.02",
			"museum_no": "BM —",
			"accession_no": "K 03323 + K 18186 + Rm 0444 + Rm 0941 (+) K 08396",
			"collections": "British Museum, London, UK",
			"genres": "Literary",
			"languages": "Akkadian",
			"materials": "clay",
			"publications_key": "1440590",
			"publications_type": "history",
			"external_resources": "eBL; eBL; eBL; eBL; CAMS/Ludlul; ARMEP; AsbP; BM",
			"external_resources_key": "K.18186; K.3323; Rm.444; Rm.941; P394941; P394941; P394941; W_K-18186",
			"genres_comment": "ludlul bēl nēmeqi 2 (witness)",
			"xproject": "CDLI",
			"xproject": "CDLI"
		},
		"geometry": {
			"type": "Point",
			"coordinates": [43.151937,36.358684]
		}
	}, {
		"type": "Feature",
		"properties": {
			"id_text": "P395335",
			"designation": "CDLI Literary 002701.02, ex. 005",
			"artifact_type": "tablet",
			"period": "Neo-Assyrian",
			"provenience": "Nineveh (mod. Kuyunjik)",
			"composites": "Q002701.02",
			"museum_no": "BM —",
			"accession_no": "K 03972",
			"collections": "British Museum, London, UK",
			"genres": "Literary",
			"languages": "Akkadian",
			"materials": "clay",
			"publications_key": "1440604",
			"publications_type": "history",
			"external_resources": "eBL; CAMS/Ludlul; ARMEP; AsbP",
			"external_resources_key": "K.3972; P395335; P395335; P395335",
			"genres_comment": "ludlul bēl nēmeqi 2 (witness)",
			"xproject": "CDLI",
			"xproject": "CDLI"
		},
		"geometry": {
			"type": "Point",
			"coordinates": [43.151937,36.358684]
		}
	}, {
		"type": "Feature",
		"properties": {
			"id_text": "P396913",
			"designation": "CDLI Literary 002701.02, ex. 006",
			"artifact_type": "tablet",
			"period": "Neo-Assyrian",
			"provenience": "Nineveh (mod. Kuyunjik)",
			"composites": "Q002701.02",
			"museum_no": "BM —",
			"accession_no": "K 06935",
			"collections": "British Museum, London, UK",
			"genres": "Literary",
			"languages": "Akkadian",
			"materials": "clay",
			"publications_key": "1440635",
			"publications_type": "history",
			"external_resources": "eBL; CAMS/Ludlul; ARMEP; AsbP; BM",
			"external_resources_key": "K.6935; P396913; P396913; P396913; W_K-6935",
			"genres_comment": "ludlul bēl nēmeqi 2 (witness)",
			"xproject": "CDLI",
			"xproject": "CDLI"
		},
		"geometry": {
			"type": "Point",
			"coordinates": [43.151937,36.358684]
		}
	}, {
		"type": "Feature",
		"properties": {
			"id_text": "P397986",
			"designation": "CDLI Literary 002701.01, ex. 006",
			"artifact_type": "tablet",
			"period": "Neo-Assyrian",
			"provenience": "Nineveh (mod. Kuyunjik)",
			"composites": "Q002701.01",
			"museum_no": "BM —",
			"accession_no": "K 09237",
			"collections": "British Museum, London, UK",
			"genres": "Literary",
			"languages": "Akkadian",
			"materials": "clay",
			"publications_key": "1440645",
			"publications_type": "history",
			"external_resources": "eBL; CAMS/Ludlul; ARMEP; AsbP; BM",
			"external_resources_key": "K.9237; P397986; P397986; P397986; W_K-9237",
			"genres_comment": "ludlul bēl nēmeqi 1 (witness)",
			"xproject": "CDLI",
			"xproject": "CDLI"
		},
		"geometry": {
			"type": "Point",
			"coordinates": [43.151937,36.358684]
		}
	}, {
		"type": "Feature",
		"properties": {
			"id_text": "P398276",
			"designation": "CDLI Literary 002701.04, ex. 001",
			"artifact_type": "tablet",
			"period": "Neo-Assyrian",
			"provenience": "Nineveh (mod. Kuyunjik)",
			"composites": "Q002701.04",
			"museum_no": "BM —",
			"accession_no": "K 09724",
			"collections": "British Museum, London, UK",
			"genres": "Literary",
			"languages": "Akkadian",
			"materials": "clay",
			"publications_key": "1440649",
			"publications_type": "history",
			"external_resources": "eBL; CAMS/Ludlul; ARMEP; AsbP; BM",
			"external_resources_key": "K.9724; P398276; P398276; P398276; W_K-9724",
			"genres_comment": "ludlul bēl nēmeqi 4 (Oshima)",
			"xproject": "CDLI",
			"xproject": "CDLI"
		},
		"geometry": {
			"type": "Point",
			"coordinates": [43.151937,36.358684]
		}
	}, {
		"type": "Feature",
		"properties": {
			"id_text": "P398719",
			"designation": "CDLI Literary 002701.01, ex. 007",
			"artifact_type": "tablet",
			"period": "Neo-Assyrian",
			"provenience": "Nineveh (mod. Kuyunjik)",
			"composites": "Q002701.01",
			"museum_no": "BM —",
			"accession_no": "K 10503 (+) Sm 2139",
			"collections": "British Museum, London, UK",
			"genres": "Literary",
			"languages": "Akkadian",
			"materials": "clay",
			"publications_key": "1440654",
			"publications_type": "history",
			"external_resources": "eBL; eBL; CAMS/Ludlul; ARMEP; AsbP; BM",
			"external_resources_key": "K.10503; Sm.2139; P398719; P398719; P398719; W_K-10503",
			"genres_comment": "ludlul bēl nēmeqi 1 (witness)",
			"xproject": "CDLI",
			"xproject": "CDLI"
		},
		"geometry": {
			"type": "Point",
			"coordinates": [43.151937,36.358684]
		}
	}, {
		"type": "Feature",
		"properties": {
			"id_text": "P404880",
			"designation": "CDLI Literary 002701.02, ex. 008",
			"artifact_type": "tablet",
			"period": "Neo-Assyrian",
			"provenience": "Nineveh (mod. Kuyunjik)",
			"composites": "Q002701.02",
			"museum_no": "BM —",
			"accession_no": "Sm 1745",
			"collections": "British Museum, London, UK",
			"genres": "Literary",
			"languages": "Akkadian",
			"materials": "clay",
			"publications_key": "1440666",
			"publications_type": "history",
			"external_resources": "eBL; CAMS/Ludlul; ARMEP; AsbP",
			"external_resources_key": "Sm.1745; P404880; P404880; P404880",
			"genres_comment": "ludlul bēl nēmeqi 2 (witness)",
			"xproject": "CDLI",
			"xproject": "CDLI"
		},
		"geometry": {
			"type": "Point",
			"coordinates": [43.151937,36.358684]
		}
	}, {
		"type": "Feature",
		"properties": {
			"id_text": "P404881",
			"designation": "CDLI Literary 002701.02, ex. 009",
			"artifact_type": "tablet",
			"period": "Neo-Assyrian",
			"provenience": "Nineveh (mod. Kuyunjik)",
			"composites": "Q002701.02",
			"museum_no": "BM —",
			"accession_no": "DT 151",
			"collections": "British Museum, London, UK",
			"genres": "Literary",
			"languages": "Akkadian",
			"materials": "clay",
			"publications_key": "1440667",
			"publications_type": "history",
			"external_resources": "eBL; CAMS/Ludlul; ARMEP; AsbP; BM",
			"external_resources_key": "DT.151; P404881; P404881; P404881; W_DT-151",
			"genres_comment": "ludlul bēl nēmeqi 2 (witness)",
			"xproject": "CDLI",
			"xproject": "CDLI"
		},
		"geometry": {
			"type": "Point",
			"coordinates": [43.151937,36.358684]
		}
	}, {
		"type": "Feature",
		"properties": {
			"id_text": "P404888",
			"designation": "BWL pl. 58, 79-07-08,245",
			"artifact_type": "tablet",
			"period": "Neo-Assyrian",
			"provenience": "Nineveh (mod. Kuyunjik)",
			"museum_no": "BM —",
			"accession_no": "1879-07-08, 0245",
			"collections": "British Museum, London, UK",
			"genres": "Literary",
			"languages": "Akkadian;Sumerian",
			"materials": "clay",
			"publications_key": "Lambert1960-41;1414202",
			"publications_type": "primary;history",
			"external_resources": "eBL; CAMS/Ludlul; ARMEP; AsbP; BM",
			"external_resources_key": "1879,0708.245; P404888; P404888; P404888; W_1879-0708-245",
			"languages_uncertain": "0;0",
			"xproject": "CDLI",
			"xproject": "CDLI"
		},
		"geometry": {
			"type": "Point",
			"coordinates": [43.151937,36.358684]
		}
	}, {
		"type": "Feature",
		"properties": {
			"id_text": "P404893",
			"designation": "CDLI Literary 002701.01, ex. 010 & 002701.02, ex. 007 & 002701.05, ex. 001",
			"artifact_type": "tablet",
			"period": "Neo-Babylonian",
			"provenience": "Bābili (mod. Babylon)",
			"composites": "Q002701.01; Q002701.02; Q002701.05",
			"museum_no": "BM 032208 + BM 032214 + BM 032371 + BM 032378 + BM 032449 + BM 032659 + BM 032694 + frags.",
			"accession_no": "1876-11-17, 1935 + 1876-11-17, 1941 + 1876-11-17, 2463 + 1876-11-17, 2478",
			"collections": "British Museum, London, UK",
			"genres": "Literary",
			"languages": "Akkadian",
			"materials": "clay",
			"publications_key": "1440668",
			"publications_type": "history",
			"external_resources": "eBL; CAMS/Ludlul; ARMEP; BM",
			"external_resources_key": "BM.32208; P404893; P404893; W_1876-1117-1935",
			"genres_comment": "ludlul bēl nēmeqi 1-2, 5 (witness)",
			"xproject": "CDLI",
			"xproject": "CDLI"
		},
		"geometry": {
			"type": "Point",
			"coordinates": [44.422236,32.543395]
		}
	}, {
		"type": "Feature",
		"properties": {
			"id_text": "P404900",
			"designation": "CDLI Literary 002701.02, ex. 015",
			"artifact_type": "tablet",
			"period": "Neo-Babylonian",
			"provenience": "Bābili (mod. Babylon)",
			"composites": "Q002701.02",
			"museum_no": "BM 037576",
			"collections": "British Museum, London, UK",
			"genres": "Literary",
			"languages": "Akkadian",
			"materials": "clay",
			"publications_key": "1414208",
			"publications_type": "history",
			"external_resources": "eBL; CAMS/Ludlul; ARMEP; BM",
			"external_resources_key": "BM.37576; P404900; P404900; W_1880-0617-1333",
			"genres_comment": "ludlul bēl nēmeqi 2 (witness)",
			"xproject": "CDLI",
			"xproject": "CDLI"
		},
		"geometry": {
			"type": "Point",
			"coordinates": [44.422236,32.543395]
		}
	}, {
		"type": "Feature",
		"properties": {
			"id_text": "P404901",
			"designation": "CDLI Literary 002701.01, ex. 013",
			"artifact_type": "tablet",
			"period": "Neo-Babylonian",
			"provenience": "Bābili (mod. Babylon)",
			"composites": "Q002701.01",
			"museum_no": "BM 037695",
			"collections": "British Museum, London, UK",
			"genres": "Literary",
			"languages": "Akkadian",
			"materials": "clay",
			"publications_key": "1414209",
			"publications_type": "history",
			"external_resources": "eBL; CAMS/Ludlul; ARMEP; BM",
			"external_resources_key": "BM.37695; P404901; P404901; W_1880-0617-1452",
			"genres_comment": "ludlul bēl nēmeqi 1 (witness)",
			"xproject": "CDLI",
			"xproject": "CDLI"
		},
		"geometry": {
			"type": "Point",
			"coordinates": [44.422236,32.543395]
		}
	}, {
		"type": "Feature",
		"properties": {
			"id_text": "P404902",
			"designation": "CDLI Literary 002701.02, ex. 016",
			"artifact_type": "tablet",
			"period": "Neo-Babylonian",
			"provenience": "Bābili (mod. Babylon)",
			"composites": "Q002701.02",
			"museum_no": "BM 038067",
			"collections": "British Museum, London, UK",
			"genres": "Literary",
			"languages": "Akkadian",
			"materials": "clay",
			"publications_key": "1414210",
			"publications_type": "history",
			"external_resources": "eBL; CAMS/Ludlul; ARMEP; BM",
			"external_resources_key": "BM.38067; P404902; P404902; W_1880-0617-1896",
			"genres_comment": "ludlul bēl nēmeqi 2 (witness)",
			"xproject": "CDLI",
			"xproject": "CDLI"
		},
		"geometry": {
			"type": "Point",
			"coordinates": [44.422236,32.543395]
		}
	}, {
		"type": "Feature",
		"properties": {
			"id_text": "P404910",
			"designation": "CDLI Literary 002701.02, ex. 013",
			"artifact_type": "tablet",
			"period": "Neo-Babylonian",
			"provenience": "Sippar-Yahrurum (mod. Tell Abu Habbah)",
			"composites": "Q002701.02",
			"museum_no": "BM 054794",
			"accession_no": "1882-05-22, 1123",
			"collections": "British Museum, London, UK",
			"genres": "Literary",
			"languages": "Akkadian",
			"materials": "clay",
			"publications_key": "1414212",
			"publications_type": "history",
			"external_resources": "eBL; CAMS/Ludlul; ARMEP; BM",
			"external_resources_key": "BM.54794; P404910; P404910; W_1882-0522-1123",
			"genres_comment": "ludlul bēl nēmeqi 2 (witness)",
			"xproject": "CDLI",
			"xproject": "CDLI"
		},
		"geometry": {
			"type": "Point",
			"coordinates": [44.253809,33.059195]
		}
	}, {
		"type": "Feature",
		"properties": {
			"id_text": "P404913",
			"designation": "CDLI Literary 002701.01, ex. 011 & 002718.05, ex. 015",
			"artifact_type": "tablet",
			"period": "Neo-Babylonian",
			"provenience": "Sippar-Yahrurum (mod. Tell Abu Habbah)",
			"composites": "Q002701.01; Q002718.05",
			"museum_no": "BM 061433",
			"accession_no": "1882-09-18 AH, 01407",
			"collections": "British Museum, London, UK",
			"genres": "Literary",
			"languages": "Akkadian",
			"materials": "clay",
			"publications_key": "1440671",
			"publications_type": "history",
			"external_resources": "eBL; CAMS/Ludlul; ARMEP; BM",
			"external_resources_key": "BM.61433; P404913; P404913; W_1882-0918-1407",
			"genres_comment": "ludlul bēl nēmeqi 1 (witness); enuma elish 5 (witness)",
			"xproject": "CDLI",
			"xproject": "CDLI"
		},
		"geometry": {
			"type": "Point",
			"coordinates": [44.253809,33.059195]
		}
	}, {
		"type": "Feature",
		"properties": {
			"id_text": "P404915",
			"designation": "CDLI Literary 002701.02, ex. 014",
			"artifact_type": "tablet",
			"period": "Neo-Babylonian",
			"provenience": "Sippar-Yahrurum (mod. Tell Abu Habbah)",
			"composites": "Q002701.02",
			"museum_no": "BM 065956 + BM 067872 + BM 093047",
			"collections": "British Museum, London, UK",
			"genres": "Literary",
			"languages": "Akkadian",
			"materials": "clay",
			"publications_key": "1414213",
			"publications_type": "history",
			"external_resources": "eBL; CAMS/Ludlul; ARMEP; BM",
			"external_resources_key": "BM.65956; P404915; P404915; W_1882-0918-5948",
			"genres_comment": "ludlul bēl nēmeqi 2 (witness)",
			"xproject": "CDLI",
			"xproject": "CDLI"
		},
		"geometry": {
			"type": "Point",
			"coordinates": [44.253809,33.059195]
		}
	}, {
		"type": "Feature",
		"properties": {
			"id_text": "P404916",
			"designation": "CDLI Literary 002701.01, ex. 014",
			"artifact_type": "tablet",
			"period": "Neo-Babylonian",
			"provenience": "Sippar-Yahrurum (mod. Tell Abu Habbah)",
			"composites": "Q002701.01",
			"museum_no": "BM 066345",
			"collections": "British Museum, London, UK",
			"genres": "Literary",
			"languages": "Akkadian",
			"materials": "clay",
			"publications_key": "1414214",
			"publications_type": "history",
			"external_resources": "eBL; CAMS/Ludlul; ARMEP; BM",
			"external_resources_key": "BM.66345; P404916; P404916; W_1882-0918-6338",
			"genres_comment": "ludlul bēl nēmeqi 1 (witness)",
			"xproject": "CDLI",
			"xproject": "CDLI"
		},
		"geometry": {
			"type": "Point",
			"coordinates": [44.253809,33.059195]
		}
	}, {
		"type": "Feature",
		"properties": {
			"id_text": "P404918",
			"designation": "CDLI Literary 002701.01, ex. 015",
			"artifact_type": "tablet",
			"period": "Neo-Babylonian",
			"provenience": "Sippar-Yahrurum (mod. Tell Abu Habbah)",
			"composites": "Q002701.01",
			"museum_no": "BM 068444",
			"collections": "British Museum, London, UK",
			"genres": "Literary",
			"languages": "Akkadian",
			"materials": "clay",
			"publications_key": "1414215",
			"publications_type": "history",
			"external_resources": "eBL; CAMS/Ludlul; ARMEP; BM",
			"external_resources_key": "BM.68444; P404918; P404918; W_1882-0918-8442",
			"genres_comment": "ludlul bēl nēmeqi 1 (witness)",
			"xproject": "CDLI",
			"xproject": "CDLI"
		},
		"geometry": {
			"type": "Point",
			"coordinates": [44.253809,33.059195]
		}
	}, {
		"type": "Feature",
		"properties": {
			"id_text": "P404919",
			"designation": "CDLI Literary 002701.01, ex. 016",
			"artifact_type": "tablet",
			"period": "Neo-Babylonian",
			"provenience": "Sippar-Yahrurum (mod. Tell Abu Habbah)",
			"composites": "Q002701.01",
			"museum_no": "BM 073592",
			"collections": "British Museum, London, UK",
			"genres": "Literary",
			"languages": "Akkadian",
			"materials": "clay",
			"publications_key": "1414216",
			"publications_type": "history",
			"external_resources": "eBL; CAMS/Ludlul; ARMEP; BM",
			"external_resources_key": "BM.73592; P404919; P404919; W_1882-0918-13603",
			"genres_comment": "ludlul bēl nēmeqi 1 (witness)",
			"xproject": "CDLI",
			"xproject": "CDLI"
		},
		"geometry": {
			"type": "Point",
			"coordinates": [44.253809,33.059195]
		}
	}, {
		"type": "Feature",
		"properties": {
			"id_text": "P404961",
			"designation": "CDLI Literary 002701.02, ex. 010",
			"artifact_type": "tablet",
			"period": "Neo-Babylonian",
			"provenience": "Sippar-Yahrurum (mod. Tell Abu Habbah)",
			"composites": "Q002701.02",
			"museum_no": "Ist Si 0037 + Ist Si 0881",
			"collections": "Arkeoloji Müzeleri, Istanbul, Turkey",
			"genres": "Literary",
			"languages": "Akkadian",
			"materials": "clay",
			"publications_key": "1440675",
			"publications_type": "history",
			"external_resources": "eBL; eBL; CAMS/Ludlul; ARMEP",
			"external_resources_key": "Si.37; Si.881; P404961; P404961",
			"genres_comment": "ludlul bēl nēmeqi 2 (witness)",
			"xproject": "CDLI",
			"xproject": "CDLI"
		},
		"geometry": {
			"type": "Point",
			"coordinates": [44.253809,33.059195]
		}
	}, {
		"type": "Feature",
		"properties": {
			"id_text": "P404964",
			"designation": "CDLI Literary 002701.03, ex. 003",
			"artifact_type": "tablet",
			"period": "Neo-Babylonian",
			"provenience": "Sippar-Yahrurum (mod. Tell Abu Habbah)",
			"composites": "Q002701.03",
			"museum_no": "Ist Si 0055",
			"collections": "Arkeoloji Müzeleri, Istanbul, Turkey",
			"genres": "Literary",
			"languages": "Akkadian",
			"materials": "clay",
			"publications_key": "1440676",
			"publications_type": "history",
			"external_resources": "eBL; CAMS/Ludlul; ARMEP",
			"external_resources_key": "Si.55; P404964; P404964",
			"genres_comment": "ludlul bēl nēmeqi 3 (witness)",
			"xproject": "CDLI",
			"xproject": "CDLI"
		},
		"geometry": {
			"type": "Point",
			"coordinates": [44.253809,33.059195]
		}
	}, {
		"type": "Feature",
		"properties": {
			"id_text": "P404972",
			"designation": "CDLI Literary 002701.05, ex. 006",
			"artifact_type": "tablet",
			"period": "Neo-Assyrian",
			"provenience": "Assur (mod. Qalat Sherqat)",
			"composites": "Q002701.05",
			"museum_no": "VAT 10538 + VAT 10650",
			"collections": "Vorderasiatisches Museum, Berlin, Germany",
			"genres": "Literary",
			"languages": "Akkadian",
			"materials": "clay",
			"publications_key": "1440677",
			"publications_type": "history",
			"external_resources": "CAMS/Ludlul; ARMEP",
			"external_resources_key": "P404972; P404972",
			"genres_comment": "ludlul bēl nēmeqi 5 (witness)",
			"xproject": "CDLI",
			"xproject": "CDLI"
		},
		"geometry": {
			"type": "Point",
			"coordinates": [43.262037,35.458121]
		}
	}, {
		"type": "Feature",
		"properties": {
			"id_text": "P404973",
			"designation": "CDLI Literary 002701.02, ex. 011",
			"artifact_type": "tablet",
			"period": "Neo-Assyrian",
			"provenience": "Assur (mod. Qalat Sherqat)",
			"composites": "Q002701.02",
			"museum_no": "VAT 10569",
			"collections": "Vorderasiatisches Museum, Berlin, Germany",
			"genres": "Literary",
			"languages": "Akkadian",
			"materials": "clay",
			"publications_key": "1440678",
			"publications_type": "history",
			"external_resources": "CAMS/Ludlul; ARMEP",
			"external_resources_key": "P404973; P404973",
			"genres_comment": "ludlul bēl nēmeqi 2 (witness)",
			"xproject": "CDLI",
			"xproject": "CDLI"
		},
		"geometry": {
			"type": "Point",
			"coordinates": [43.262037,35.458121]
		}
	}, {
		"type": "Feature",
		"properties": {
			"id_text": "P404976",
			"designation": "CDLI Literary 002701.01, ex. 009",
			"artifact_type": "tablet",
			"period": "Neo-Assyrian",
			"provenience": "Assur (mod. Qalat Sherqat)",
			"composites": "Q002701.01",
			"museum_no": "VAT 11100",
			"collections": "Vorderasiatisches Museum, Berlin, Germany",
			"genres": "Literary",
			"languages": "Akkadian",
			"materials": "clay",
			"publications_key": "1440679",
			"publications_type": "history",
			"external_resources": "CAMS/Ludlul; ARMEP",
			"external_resources_key": "P404976; P404976",
			"genres_comment": "ludlul bēl nēmeqi 1 (witness)",
			"xproject": "CDLI",
			"xproject": "CDLI"
		},
		"geometry": {
			"type": "Point",
			"coordinates": [43.262037,35.458121]
		}
	}, {
		"type": "Feature",
		"properties": {
			"id_text": "P404977",
			"designation": "CDLI Literary 002701.03, ex. 004",
			"artifact_type": "tablet",
			"period": "Neo-Assyrian",
			"provenience": "Assur (mod. Qalat Sherqat)",
			"composites": "Q002701.03",
			"museum_no": "VAT 11179",
			"collections": "Vorderasiatisches Museum, Berlin, Germany",
			"genres": "Literary",
			"languages": "Akkadian",
			"materials": "clay",
			"publications_key": "1414221",
			"publications_type": "history",
			"external_resources": "CAMS/Ludlul; ARMEP",
			"external_resources_key": "P404977; P404977",
			"genres_comment": "ludlul bēl nēmeqi 3 (witness)",
			"xproject": "CDLI",
			"xproject": "CDLI"
		},
		"geometry": {
			"type": "Point",
			"coordinates": [43.262037,35.458121]
		}
	}, {
		"type": "Feature",
		"properties": {
			"id_text": "P404980",
			"designation": "CDLI Literary 002701.01, ex. 019",
			"artifact_type": "tablet",
			"period": "Neo-Assyrian",
			"provenience": "Assur (mod. Qalat Sherqat)",
			"composites": "Q002701.01",
			"museum_no": "VAT 11565",
			"collections": "Vorderasiatisches Museum, Berlin, Germany",
			"genres": "Literary",
			"languages": "Akkadian",
			"materials": "clay",
			"publications_key": "1439832",
			"publications_type": "history",
			"external_resources": "CAMS/Ludlul; ARMEP",
			"external_resources_key": "P404980; P404980",
			"genres_comment": "ludlul bēl nēmeqi 1 (witness)",
			"xproject": "CDLI",
			"xproject": "CDLI"
		},
		"geometry": {
			"type": "Point",
			"coordinates": [43.262037,35.458121]
		}
	}]
}
