{
	"type": "FeatureCollection",
	"features": [{
		"type": "Feature",
		"properties": {
			"project": "szibaniba",
			"id_text": "P282749",
			"primary_publication": "Billa 068",
			"museum_no": "UM 33-58-068",
			"provenience": "Tell Billa (Šibaniba)",
			"archive": "002 - Šibaniba 2",
			"date": "861-VI-14",
			"long_date": "Ulūlu 14th, [eponymy of] Ninurta-ilāya",
			"atae_attribution": "Adapted from J.J. Finkelstein, &quot;Cuneiform Texts from Tell Billa,&quot; Journal of Cuneiform Studies 7 (1953):111–176, by Jamie Novotny and Poppy Tushingham (2021) for the Munich Open-access Cuneiform Corpus Initiative (MOCCI), which is funded by LMU Munich and the Alexander von Humboldt Foundation at the Historisches Seminar - Abteilung Alte Geschichte of Ludwig-Maximilians-Universität München. The online edition is released under the Creative Commons Attribution Share-Alike license 3.0.",
			"cite_as": "Please cite this page as http://oracc.org/atae/P282749/.",
			"collection": "University of Pennsylvania Museum of Archaeology and Anthropology, Philadelphia, Pennsylvania, USA",
			"composite_witness": "witness",
			"credits": "Adapted from J.J. Finkelstein, &quot;Cuneiform Texts from Tell Billa,&quot; Journal of Cuneiform Studies 7 (1953):111–176, by Jamie Novotny and Poppy Tushingham (2021) for the Munich Open-access Cuneiform Corpus Initiative (MOCCI), which is funded by LMU Munich and the Alexander von Humboldt Foundation at the Historisches Seminar - Abteilung Alte Geschichte of Ludwig-Maximilians-Universität München. The online edition is released under the Creative Commons Attribution Share-Alike license 3.0. Please cite this page as http://oracc.org/atae/P282749/.",
			"date_gen": "861-VI-14",
			"date_of_origin": "00..06.14",
			"day": "14",
			"designation": "Billa 068",
			"dialect": "Neo-Assyrian",
			"display_name": "Billa 068",
			"eponym": "Ninurta-ilāya",
			"genre": "Legal Transaction",
			"has_date": "yes",
			"language": "Akkadian",
			"last_mod_by": "ARMEP",
			"last_modified": "31.01.2022",
			"list_name": "atae/szibaniba:P282749",
			"long_date_gen": "Ulūlu 14th, eponymy of Ninurta-ilāya",
			"material": "clay",
			"month": "VI",
			"object_type": "tablet",
			"period": "Neo-Assyrian",
			"regnal_dates": "883–859 BC",
			"ruler": "Ashurnasirpal II",
			"script": "Neo-Assyrian",
			"script_remarks": "inscribed",
			"script_type": "Cuneiform",
			"year": "861"
		},
		"geometry": {
			"type": "Point",
			"coordinates": [43.347545,36.4330610]
		}
	}, {
		"type": "Feature",
		"properties": {
			"project": "szibaniba",
			"id_text": "P282750",
			"primary_publication": "Billa 069",
			"museum_no": "UM 33-58-142",
			"provenience": "Tell Billa (Šibaniba)",
			"archive": "002 - Šibaniba 2",
			"atae_attribution": "Adapted from J.J. Finkelstein, &quot;Cuneiform Texts from Tell Billa,&quot; Journal of Cuneiform Studies 7 (1953):111–176, by Jamie Novotny and Poppy Tushingham (2021) for the Munich Open-access Cuneiform Corpus Initiative (MOCCI), which is funded by LMU Munich and the Alexander von Humboldt Foundation at the Historisches Seminar - Abteilung Alte Geschichte of Ludwig-Maximilians-Universität München. The online edition is released under the Creative Commons Attribution Share-Alike license 3.0.",
			"cite_as": "Please cite this page as http://oracc.org/atae/P282750/.",
			"collection": "University of Pennsylvania Museum of Archaeology and Anthropology, Philadelphia, Pennsylvania, USA",
			"composite_witness": "witness",
			"credits": "Adapted from J.J. Finkelstein, &quot;Cuneiform Texts from Tell Billa,&quot; Journal of Cuneiform Studies 7 (1953):111–176, by Jamie Novotny and Poppy Tushingham (2021) for the Munich Open-access Cuneiform Corpus Initiative (MOCCI), which is funded by LMU Munich and the Alexander von Humboldt Foundation at the Historisches Seminar - Abteilung Alte Geschichte of Ludwig-Maximilians-Universität München. The online edition is released under the Creative Commons Attribution Share-Alike license 3.0. Please cite this page as http://oracc.org/atae/P282750/.",
			"date_of_origin": "00.000.00.00",
			"designation": "Billa 069",
			"dialect": "Neo-Assyrian",
			"display_name": "Billa 069",
			"genre": "Administrative Record",
			"has_date": "no",
			"language": "Akkadian",
			"last_mod_by": "ARMEP",
			"last_modified": "31.01.2022",
			"list_name": "atae/szibaniba:P282750",
			"material": "clay",
			"object_type": "tablet",
			"period": "Neo-Assyrian",
			"script": "Neo-Assyrian",
			"script_remarks": "inscribed",
			"script_type": "Cuneiform"
		},
		"geometry": {
			"type": "Point",
			"coordinates": [43.347545,36.4330610]
		}
	}, {
		"type": "Feature",
		"properties": {
			"project": "szibaniba",
			"id_text": "P282751",
			"primary_publication": "Billa 070",
			"museum_no": "UM 33-58-127",
			"provenience": "Tell Billa (Šibaniba)",
			"archive": "002 - Šibaniba 2",
			"date": "857-[...]-29",
			"long_date": "[...] 29th, [year] after [the eponymy of] Shalmaneser (III), the king",
			"atae_attribution": "Adapted from J.J. Finkelstein, &quot;Cuneiform Texts from Tell Billa,&quot; Journal of Cuneiform Studies 7 (1953):111–176, by Jamie Novotny and Poppy Tushingham (2021) for the Munich Open-access Cuneiform Corpus Initiative (MOCCI), which is funded by LMU Munich and the Alexander von Humboldt Foundation at the Historisches Seminar - Abteilung Alte Geschichte of Ludwig-Maximilians-Universität München. The online edition is released under the Creative Commons Attribution Share-Alike license 3.0.",
			"cite_as": "Please cite this page as http://oracc.org/atae/P282751/.",
			"collection": "University of Pennsylvania Museum of Archaeology and Anthropology, Philadelphia, Pennsylvania, USA",
			"composite_witness": "witness",
			"credits": "Adapted from J.J. Finkelstein, &quot;Cuneiform Texts from Tell Billa,&quot; Journal of Cuneiform Studies 7 (1953):111–176, by Jamie Novotny and Poppy Tushingham (2021) for the Munich Open-access Cuneiform Corpus Initiative (MOCCI), which is funded by LMU Munich and the Alexander von Humboldt Foundation at the Historisches Seminar - Abteilung Alte Geschichte of Ludwig-Maximilians-Universität München. The online edition is released under the Creative Commons Attribution Share-Alike license 3.0. Please cite this page as http://oracc.org/atae/P282751/.",
			"date_gen": "856-[...]-29",
			"date_of_origin": "Shalmaneser3..00.29",
			"day": "29",
			"designation": "Billa 070",
			"dialect": "Neo-Assyrian",
			"display_name": "Billa 070",
			"genre": "Administrative Record",
			"has_date": "yes, but date partially preserved",
			"language": "Akkadian",
			"last_mod_by": "ARMEP",
			"last_modified": "31.01.2022",
			"list_name": "atae/szibaniba:P282751",
			"long_date_gen": "... 29th",
			"material": "clay",
			"month": "[...]",
			"object_type": "tablet",
			"period": "Neo-Assyrian",
			"regnal_dates": "858–824 BC",
			"ruler": "Shalmaneser III",
			"script": "Neo-Assyrian",
			"script_remarks": "inscribed",
			"script_type": "Cuneiform",
			"year": "856"
		},
		"geometry": {
			"type": "Point",
			"coordinates": [43.347545,36.4330610]
		}
	}, {
		"type": "Feature",
		"properties": {
			"project": "szibaniba",
			"id_text": "P282752",
			"primary_publication": "Billa 071",
			"museum_no": "UM 33-58-155",
			"provenience": "Tell Billa (Šibaniba)",
			"archive": "002 - Šibaniba 2",
			"atae_attribution": "Adapted from J.J. Finkelstein, &quot;Cuneiform Texts from Tell Billa,&quot; Journal of Cuneiform Studies 7 (1953):111–176, by Jamie Novotny and Poppy Tushingham (2021) for the Munich Open-access Cuneiform Corpus Initiative (MOCCI), which is funded by LMU Munich and the Alexander von Humboldt Foundation at the Historisches Seminar - Abteilung Alte Geschichte of Ludwig-Maximilians-Universität München. The online edition is released under the Creative Commons Attribution Share-Alike license 3.0.",
			"cite_as": "Please cite this page as http://oracc.org/atae/P282752/.",
			"collection": "University of Pennsylvania Museum of Archaeology and Anthropology, Philadelphia, Pennsylvania, USA",
			"composite_witness": "witness",
			"credits": "Adapted from J.J. Finkelstein, &quot;Cuneiform Texts from Tell Billa,&quot; Journal of Cuneiform Studies 7 (1953):111–176, by Jamie Novotny and Poppy Tushingham (2021) for the Munich Open-access Cuneiform Corpus Initiative (MOCCI), which is funded by LMU Munich and the Alexander von Humboldt Foundation at the Historisches Seminar - Abteilung Alte Geschichte of Ludwig-Maximilians-Universität München. The online edition is released under the Creative Commons Attribution Share-Alike license 3.0. Please cite this page as http://oracc.org/atae/P282752/.",
			"date_of_origin": "00.000.00.00",
			"designation": "Billa 071",
			"dialect": "Neo-Assyrian",
			"display_name": "Billa 071",
			"genre": "Administrative Record",
			"has_date": "no",
			"language": "Akkadian",
			"last_mod_by": "ARMEP",
			"last_modified": "31.01.2022",
			"list_name": "atae/szibaniba:P282752",
			"material": "clay",
			"object_type": "tablet",
			"period": "Neo-Assyrian",
			"script": "Neo-Assyrian",
			"script_remarks": "inscribed",
			"script_type": "Cuneiform"
		},
		"geometry": {
			"type": "Point",
			"coordinates": [43.347545,36.4330610]
		}
	}, {
		"type": "Feature",
		"properties": {
			"project": "szibaniba",
			"id_text": "P282753",
			"primary_publication": "Billa 072",
			"museum_no": "UM 33-58-123",
			"provenience": "Tell Billa (Šibaniba)",
			"archive": "002 - Šibaniba 2",
			"atae_attribution": "Adapted from J.J. Finkelstein, &quot;Cuneiform Texts from Tell Billa,&quot; Journal of Cuneiform Studies 7 (1953):111–176, by Jamie Novotny and Poppy Tushingham (2021) for the Munich Open-access Cuneiform Corpus Initiative (MOCCI), which is funded by LMU Munich and the Alexander von Humboldt Foundation at the Historisches Seminar - Abteilung Alte Geschichte of Ludwig-Maximilians-Universität München. The online edition is released under the Creative Commons Attribution Share-Alike license 3.0.",
			"cite_as": "Please cite this page as http://oracc.org/atae/P282753/.",
			"collection": "University of Pennsylvania Museum of Archaeology and Anthropology, Philadelphia, Pennsylvania, USA",
			"composite_witness": "witness",
			"credits": "Adapted from J.J. Finkelstein, &quot;Cuneiform Texts from Tell Billa,&quot; Journal of Cuneiform Studies 7 (1953):111–176, by Jamie Novotny and Poppy Tushingham (2021) for the Munich Open-access Cuneiform Corpus Initiative (MOCCI), which is funded by LMU Munich and the Alexander von Humboldt Foundation at the Historisches Seminar - Abteilung Alte Geschichte of Ludwig-Maximilians-Universität München. The online edition is released under the Creative Commons Attribution Share-Alike license 3.0. Please cite this page as http://oracc.org/atae/P282753/.",
			"date_of_origin": "00.000.00.00",
			"designation": "Billa 072",
			"dialect": "Neo-Assyrian",
			"display_name": "Billa 072",
			"genre": "Administrative Record",
			"has_date": "no",
			"language": "Akkadian",
			"last_mod_by": "ARMEP",
			"last_modified": "31.01.2022",
			"list_name": "atae/szibaniba:P282753",
			"material": "clay",
			"object_type": "tablet",
			"period": "Neo-Assyrian",
			"script": "Neo-Assyrian",
			"script_remarks": "inscribed",
			"script_type": "Cuneiform"
		},
		"geometry": {
			"type": "Point",
			"coordinates": [43.347545,36.4330610]
		}
	}, {
		"type": "Feature",
		"properties": {
			"project": "szibaniba",
			"id_text": "P282754",
			"primary_publication": "Billa 073 + 074",
			"museum_no": "UM 33-58-156 + UM 33-58-149",
			"provenience": "Tell Billa (Šibaniba)",
			"archive": "002 - Šibaniba 2",
			"atae_attribution": "Adapted from J.J. Finkelstein, &quot;Cuneiform Texts from Tell Billa,&quot; Journal of Cuneiform Studies 7 (1953):111–176, by Jamie Novotny and Poppy Tushingham (2021) for the Munich Open-access Cuneiform Corpus Initiative (MOCCI), which is funded by LMU Munich and the Alexander von Humboldt Foundation at the Historisches Seminar - Abteilung Alte Geschichte of Ludwig-Maximilians-Universität München. The online edition is released under the Creative Commons Attribution Share-Alike license 3.0.",
			"cite_as": "Please cite this page as http://oracc.org/atae/P282754/.",
			"collection": "University of Pennsylvania Museum of Archaeology and Anthropology, Philadelphia, Pennsylvania, USA",
			"composite_witness": "witness",
			"credits": "Adapted from J.J. Finkelstein, &quot;Cuneiform Texts from Tell Billa,&quot; Journal of Cuneiform Studies 7 (1953):111–176, by Jamie Novotny and Poppy Tushingham (2021) for the Munich Open-access Cuneiform Corpus Initiative (MOCCI), which is funded by LMU Munich and the Alexander von Humboldt Foundation at the Historisches Seminar - Abteilung Alte Geschichte of Ludwig-Maximilians-Universität München. The online edition is released under the Creative Commons Attribution Share-Alike license 3.0. Please cite this page as http://oracc.org/atae/P282754/.",
			"date_of_origin": "Shalmaneser3.000.00.00",
			"designation": "Billa 073 + 074",
			"dialect": "Neo-Assyrian",
			"display_name": "Billa 073 + 074",
			"genre": "Administrative Record",
			"has_date": "no",
			"language": "Akkadian",
			"last_mod_by": "ARMEP",
			"last_modified": "31.01.2022",
			"list_name": "atae/szibaniba:P282754",
			"material": "clay",
			"object_type": "tablet",
			"period": "Neo-Assyrian",
			"regnal_dates": "858–824 BC",
			"ruler": "Shalmaneser III",
			"script": "Neo-Assyrian",
			"script_remarks": "inscribed",
			"script_type": "Cuneiform"
		},
		"geometry": {
			"type": "Point",
			"coordinates": [43.347545,36.4330610]
		}
	}, {
		"type": "Feature",
		"properties": {
			"project": "szibaniba",
			"id_text": "P282756",
			"primary_publication": "Billa 075",
			"museum_no": "UM 33-58-121",
			"provenience": "Tell Billa (Šibaniba)",
			"archive": "002 - Šibaniba 2",
			"atae_attribution": "Adapted from J.J. Finkelstein, &quot;Cuneiform Texts from Tell Billa,&quot; Journal of Cuneiform Studies 7 (1953):111–176, by Jamie Novotny and Poppy Tushingham (2021) for the Munich Open-access Cuneiform Corpus Initiative (MOCCI), which is funded by LMU Munich and the Alexander von Humboldt Foundation at the Historisches Seminar - Abteilung Alte Geschichte of Ludwig-Maximilians-Universität München. The online edition is released under the Creative Commons Attribution Share-Alike license 3.0.",
			"cite_as": "Please cite this page as http://oracc.org/atae/P282756/.",
			"collection": "University of Pennsylvania Museum of Archaeology and Anthropology, Philadelphia, Pennsylvania, USA",
			"composite_witness": "witness",
			"credits": "Adapted from J.J. Finkelstein, &quot;Cuneiform Texts from Tell Billa,&quot; Journal of Cuneiform Studies 7 (1953):111–176, by Jamie Novotny and Poppy Tushingham (2021) for the Munich Open-access Cuneiform Corpus Initiative (MOCCI), which is funded by LMU Munich and the Alexander von Humboldt Foundation at the Historisches Seminar - Abteilung Alte Geschichte of Ludwig-Maximilians-Universität München. The online edition is released under the Creative Commons Attribution Share-Alike license 3.0. Please cite this page as http://oracc.org/atae/P282756/.",
			"date_of_origin": "Shalmaneser3.000.00.00",
			"designation": "Billa 075",
			"dialect": "Neo-Assyrian",
			"display_name": "Billa 075",
			"genre": "Administrative Record",
			"has_date": "no",
			"language": "Akkadian",
			"last_mod_by": "ARMEP",
			"last_modified": "31.01.2022",
			"list_name": "atae/szibaniba:P282756",
			"material": "clay",
			"object_type": "tablet",
			"period": "Neo-Assyrian",
			"regnal_dates": "858–824 BC",
			"ruler": "Shalmaneser III",
			"script": "Neo-Assyrian",
			"script_remarks": "inscribed",
			"script_type": "Cuneiform"
		},
		"geometry": {
			"type": "Point",
			"coordinates": [43.347545,36.4330610]
		}
	}, {
		"type": "Feature",
		"properties": {
			"project": "szibaniba",
			"id_text": "P282757",
			"primary_publication": "Billa 076",
			"museum_no": "UM 33-58-117",
			"provenience": "Tell Billa (Šibaniba)",
			"archive": "002 - Šibaniba 2",
			"atae_attribution": "Adapted from J.J. Finkelstein, &quot;Cuneiform Texts from Tell Billa,&quot; Journal of Cuneiform Studies 7 (1953):111–176, by Jamie Novotny and Poppy Tushingham (2021) for the Munich Open-access Cuneiform Corpus Initiative (MOCCI), which is funded by LMU Munich and the Alexander von Humboldt Foundation at the Historisches Seminar - Abteilung Alte Geschichte of Ludwig-Maximilians-Universität München. The online edition is released under the Creative Commons Attribution Share-Alike license 3.0.",
			"cite_as": "Please cite this page as http://oracc.org/atae/P282757/.",
			"collection": "University of Pennsylvania Museum of Archaeology and Anthropology, Philadelphia, Pennsylvania, USA",
			"composite_witness": "witness",
			"credits": "Adapted from J.J. Finkelstein, &quot;Cuneiform Texts from Tell Billa,&quot; Journal of Cuneiform Studies 7 (1953):111–176, by Jamie Novotny and Poppy Tushingham (2021) for the Munich Open-access Cuneiform Corpus Initiative (MOCCI), which is funded by LMU Munich and the Alexander von Humboldt Foundation at the Historisches Seminar - Abteilung Alte Geschichte of Ludwig-Maximilians-Universität München. The online edition is released under the Creative Commons Attribution Share-Alike license 3.0. Please cite this page as http://oracc.org/atae/P282757/.",
			"date_of_origin": "Shalmaneser3.000.00.00",
			"designation": "Billa 076",
			"dialect": "Neo-Assyrian",
			"display_name": "Billa 076",
			"genre": "Administrative Record",
			"has_date": "no",
			"language": "Akkadian",
			"last_mod_by": "ARMEP",
			"last_modified": "31.01.2022",
			"list_name": "atae/szibaniba:P282757",
			"material": "clay",
			"object_type": "tablet",
			"period": "Neo-Assyrian",
			"regnal_dates": "858–824 BC",
			"ruler": "Shalmaneser III",
			"script": "Neo-Assyrian",
			"script_remarks": "inscribed",
			"script_type": "Cuneiform"
		},
		"geometry": {
			"type": "Point",
			"coordinates": [43.347545,36.4330610]
		}
	}, {
		"type": "Feature",
		"properties": {
			"project": "szibaniba",
			"id_text": "P282758",
			"primary_publication": "Billa 077",
			"museum_no": "UM 33-58-144",
			"provenience": "Tell Billa (Šibaniba)",
			"archive": "002 - Šibaniba 2",
			"atae_attribution": "Adapted from J.J. Finkelstein, &quot;Cuneiform Texts from Tell Billa,&quot; Journal of Cuneiform Studies 7 (1953):111–176, by Jamie Novotny and Poppy Tushingham (2021) for the Munich Open-access Cuneiform Corpus Initiative (MOCCI), which is funded by LMU Munich and the Alexander von Humboldt Foundation at the Historisches Seminar - Abteilung Alte Geschichte of Ludwig-Maximilians-Universität München. The online edition is released under the Creative Commons Attribution Share-Alike license 3.0.",
			"cite_as": "Please cite this page as http://oracc.org/atae/P282758/.",
			"collection": "University of Pennsylvania Museum of Archaeology and Anthropology, Philadelphia, Pennsylvania, USA",
			"composite_witness": "witness",
			"credits": "Adapted from J.J. Finkelstein, &quot;Cuneiform Texts from Tell Billa,&quot; Journal of Cuneiform Studies 7 (1953):111–176, by Jamie Novotny and Poppy Tushingham (2021) for the Munich Open-access Cuneiform Corpus Initiative (MOCCI), which is funded by LMU Munich and the Alexander von Humboldt Foundation at the Historisches Seminar - Abteilung Alte Geschichte of Ludwig-Maximilians-Universität München. The online edition is released under the Creative Commons Attribution Share-Alike license 3.0. Please cite this page as http://oracc.org/atae/P282758/.",
			"date_of_origin": "00.000.00.00",
			"designation": "Billa 077",
			"dialect": "Neo-Assyrian",
			"display_name": "Billa 077",
			"genre": "Administrative Record",
			"has_date": "no",
			"language": "Akkadian",
			"last_mod_by": "ARMEP",
			"last_modified": "31.01.2022",
			"list_name": "atae/szibaniba:P282758",
			"material": "clay",
			"object_type": "tablet",
			"period": "Neo-Assyrian",
			"script": "Neo-Assyrian",
			"script_remarks": "inscribed",
			"script_type": "Cuneiform"
		},
		"geometry": {
			"type": "Point",
			"coordinates": [43.347545,36.4330610]
		}
	}, {
		"type": "Feature",
		"properties": {
			"project": "szibaniba",
			"id_text": "P282759",
			"primary_publication": "Billa 078",
			"museum_no": "UM 33-58-016",
			"provenience": "Tell Billa (Šibaniba)",
			"archive": "002 - Šibaniba 2",
			"atae_attribution": "Adapted from J.J. Finkelstein, &quot;Cuneiform Texts from Tell Billa,&quot; Journal of Cuneiform Studies 7 (1953):111–176, by Jamie Novotny and Poppy Tushingham (2021) for the Munich Open-access Cuneiform Corpus Initiative (MOCCI), which is funded by LMU Munich and the Alexander von Humboldt Foundation at the Historisches Seminar - Abteilung Alte Geschichte of Ludwig-Maximilians-Universität München. The online edition is released under the Creative Commons Attribution Share-Alike license 3.0.",
			"cite_as": "Please cite this page as http://oracc.org/atae/P282759/.",
			"collection": "University of Pennsylvania Museum of Archaeology and Anthropology, Philadelphia, Pennsylvania, USA",
			"composite_witness": "witness",
			"credits": "Adapted from J.J. Finkelstein, &quot;Cuneiform Texts from Tell Billa,&quot; Journal of Cuneiform Studies 7 (1953):111–176, by Jamie Novotny and Poppy Tushingham (2021) for the Munich Open-access Cuneiform Corpus Initiative (MOCCI), which is funded by LMU Munich and the Alexander von Humboldt Foundation at the Historisches Seminar - Abteilung Alte Geschichte of Ludwig-Maximilians-Universität München. The online edition is released under the Creative Commons Attribution Share-Alike license 3.0. Please cite this page as http://oracc.org/atae/P282759/.",
			"date_of_origin": "00.000.00.00",
			"designation": "Billa 078",
			"dialect": "Neo-Assyrian",
			"display_name": "Billa 078",
			"genre": "Administrative Record",
			"has_date": "no",
			"language": "Akkadian",
			"last_mod_by": "ARMEP",
			"last_modified": "31.01.2022",
			"list_name": "atae/szibaniba:P282759",
			"material": "clay",
			"object_type": "tablet",
			"period": "Neo-Assyrian",
			"script": "Neo-Assyrian",
			"script_remarks": "inscribed",
			"script_type": "Cuneiform"
		},
		"geometry": {
			"type": "Point",
			"coordinates": [43.347545,36.4330610]
		}
	}, {
		"type": "Feature",
		"properties": {
			"project": "szibaniba",
			"id_text": "P461352",
			"primary_publication": "Billa 079",
			"museum_no": "UM 33-58-154",
			"provenience": "Tell Billa (Šibaniba)",
			"archive": "002 - Šibaniba 2",
			"atae_attribution": "Adapted from J.J. Finkelstein, &quot;Cuneiform Texts from Tell Billa,&quot; Journal of Cuneiform Studies 7 (1953):111–176, by Jamie Novotny and Poppy Tushingham (2021) for the Munich Open-access Cuneiform Corpus Initiative (MOCCI), which is funded by LMU Munich and the Alexander von Humboldt Foundation at the Historisches Seminar - Abteilung Alte Geschichte of Ludwig-Maximilians-Universität München. The online edition is released under the Creative Commons Attribution Share-Alike license 3.0.",
			"cite_as": "Please cite this page as http://oracc.org/atae/P461352/.",
			"collection": "University of Pennsylvania Museum of Archaeology and Anthropology, Philadelphia, Pennsylvania, USA",
			"composite_witness": "witness",
			"credits": "Adapted from J.J. Finkelstein, &quot;Cuneiform Texts from Tell Billa,&quot; Journal of Cuneiform Studies 7 (1953):111–176, by Jamie Novotny and Poppy Tushingham (2021) for the Munich Open-access Cuneiform Corpus Initiative (MOCCI), which is funded by LMU Munich and the Alexander von Humboldt Foundation at the Historisches Seminar - Abteilung Alte Geschichte of Ludwig-Maximilians-Universität München. The online edition is released under the Creative Commons Attribution Share-Alike license 3.0. Please cite this page as http://oracc.org/atae/P461352/.",
			"date_of_origin": "00.000.00.00",
			"designation": "Billa 079",
			"dialect": "Neo-Assyrian",
			"display_name": "Billa 079",
			"genre": "Administrative Record",
			"has_date": "no",
			"language": "Akkadian",
			"last_mod_by": "ARMEP",
			"last_modified": "31.01.2022",
			"list_name": "atae/szibaniba:P461352",
			"material": "clay",
			"object_type": "tablet",
			"period": "Neo-Assyrian",
			"script": "Neo-Assyrian",
			"script_remarks": "inscribed",
			"script_type": "Cuneiform"
		},
		"geometry": {
			"type": "Point",
			"coordinates": [43.347545,36.4330610]
		}
	}, {
		"type": "Feature",
		"properties": {
			"project": "szibaniba",
			"id_text": "P282761",
			"primary_publication": "Billa 080",
			"museum_no": "UM 33-58-001",
			"provenience": "Tell Billa (Šibaniba)",
			"archive": "002 - Šibaniba 2",
			"atae_attribution": "Adapted from J.J. Finkelstein, &quot;Cuneiform Texts from Tell Billa,&quot; Journal of Cuneiform Studies 7 (1953):111–176, by Jamie Novotny and Poppy Tushingham (2021) for the Munich Open-access Cuneiform Corpus Initiative (MOCCI), which is funded by LMU Munich and the Alexander von Humboldt Foundation at the Historisches Seminar - Abteilung Alte Geschichte of Ludwig-Maximilians-Universität München. The online edition is released under the Creative Commons Attribution Share-Alike license 3.0.",
			"cite_as": "Please cite this page as http://oracc.org/atae/P282761/.",
			"collection": "University of Pennsylvania Museum of Archaeology and Anthropology, Philadelphia, Pennsylvania, USA",
			"composite_witness": "witness",
			"credits": "Adapted from J.J. Finkelstein, &quot;Cuneiform Texts from Tell Billa,&quot; Journal of Cuneiform Studies 7 (1953):111–176, by Jamie Novotny and Poppy Tushingham (2021) for the Munich Open-access Cuneiform Corpus Initiative (MOCCI), which is funded by LMU Munich and the Alexander von Humboldt Foundation at the Historisches Seminar - Abteilung Alte Geschichte of Ludwig-Maximilians-Universität München. The online edition is released under the Creative Commons Attribution Share-Alike license 3.0. Please cite this page as http://oracc.org/atae/P282761/.",
			"date_of_origin": "00.000.00.00",
			"designation": "Billa 080",
			"dialect": "Neo-Assyrian",
			"display_name": "Billa 080",
			"genre": "Administrative Record",
			"has_date": "no",
			"language": "Akkadian",
			"last_mod_by": "ARMEP",
			"last_modified": "31.01.2022",
			"list_name": "atae/szibaniba:P282761",
			"material": "clay",
			"object_type": "tablet",
			"period": "Neo-Assyrian",
			"script": "Neo-Assyrian",
			"script_remarks": "inscribed",
			"script_type": "Cuneiform"
		},
		"geometry": {
			"type": "Point",
			"coordinates": [43.347545,36.4330610]
		}
	}, {
		"type": "Feature",
		"properties": {
			"project": "szibaniba",
			"id_text": "P282762",
			"primary_publication": "Billa 081",
			"museum_no": "UM 33-58-143",
			"provenience": "Tell Billa (Šibaniba)",
			"archive": "002 - Šibaniba 2",
			"atae_attribution": "Adapted from J.J. Finkelstein, &quot;Cuneiform Texts from Tell Billa,&quot; Journal of Cuneiform Studies 7 (1953):111–176, by Jamie Novotny and Poppy Tushingham (2021) for the Munich Open-access Cuneiform Corpus Initiative (MOCCI), which is funded by LMU Munich and the Alexander von Humboldt Foundation at the Historisches Seminar - Abteilung Alte Geschichte of Ludwig-Maximilians-Universität München. The online edition is released under the Creative Commons Attribution Share-Alike license 3.0.",
			"cite_as": "Please cite this page as http://oracc.org/atae/P282762/.",
			"collection": "University of Pennsylvania Museum of Archaeology and Anthropology, Philadelphia, Pennsylvania, USA",
			"composite_witness": "witness",
			"credits": "Adapted from J.J. Finkelstein, &quot;Cuneiform Texts from Tell Billa,&quot; Journal of Cuneiform Studies 7 (1953):111–176, by Jamie Novotny and Poppy Tushingham (2021) for the Munich Open-access Cuneiform Corpus Initiative (MOCCI), which is funded by LMU Munich and the Alexander von Humboldt Foundation at the Historisches Seminar - Abteilung Alte Geschichte of Ludwig-Maximilians-Universität München. The online edition is released under the Creative Commons Attribution Share-Alike license 3.0. Please cite this page as http://oracc.org/atae/P282762/.",
			"date_of_origin": "00.000.00.00",
			"designation": "Billa 081",
			"dialect": "Neo-Assyrian",
			"display_name": "Billa 081",
			"genre": "Administrative Record",
			"has_date": "no",
			"language": "Akkadian",
			"last_mod_by": "ARMEP",
			"last_modified": "31.01.2022",
			"list_name": "atae/szibaniba:P282762",
			"material": "clay",
			"object_type": "tablet",
			"period": "Neo-Assyrian",
			"script": "Neo-Assyrian",
			"script_remarks": "inscribed",
			"script_type": "Cuneiform"
		},
		"geometry": {
			"type": "Point",
			"coordinates": [43.347545,36.4330610]
		}
	}, {
		"type": "Feature",
		"properties": {
			"project": "szibaniba",
			"id_text": "P282763",
			"primary_publication": "Billa 082",
			"museum_no": "UM 33-58-002",
			"provenience": "Tell Billa (Šibaniba)",
			"archive": "002 - Šibaniba 2",
			"atae_attribution": "Adapted from J.J. Finkelstein, &quot;Cuneiform Texts from Tell Billa,&quot; Journal of Cuneiform Studies 7 (1953):111–176, by Jamie Novotny and Poppy Tushingham (2021) for the Munich Open-access Cuneiform Corpus Initiative (MOCCI), which is funded by LMU Munich and the Alexander von Humboldt Foundation at the Historisches Seminar - Abteilung Alte Geschichte of Ludwig-Maximilians-Universität München. The online edition is released under the Creative Commons Attribution Share-Alike license 3.0.",
			"cite_as": "Please cite this page as http://oracc.org/atae/P282763/.",
			"collection": "University of Pennsylvania Museum of Archaeology and Anthropology, Philadelphia, Pennsylvania, USA",
			"composite_witness": "witness",
			"credits": "Adapted from J.J. Finkelstein, &quot;Cuneiform Texts from Tell Billa,&quot; Journal of Cuneiform Studies 7 (1953):111–176, by Jamie Novotny and Poppy Tushingham (2021) for the Munich Open-access Cuneiform Corpus Initiative (MOCCI), which is funded by LMU Munich and the Alexander von Humboldt Foundation at the Historisches Seminar - Abteilung Alte Geschichte of Ludwig-Maximilians-Universität München. The online edition is released under the Creative Commons Attribution Share-Alike license 3.0. Please cite this page as http://oracc.org/atae/P282763/.",
			"date_of_origin": "00.000.00.00",
			"designation": "Billa 082",
			"dialect": "Neo-Assyrian",
			"display_name": "Billa 082",
			"genre": "Administrative Record",
			"has_date": "no",
			"language": "Akkadian",
			"last_mod_by": "ARMEP",
			"last_modified": "31.01.2022",
			"list_name": "atae/szibaniba:P282763",
			"material": "clay",
			"object_type": "tablet",
			"period": "Neo-Assyrian",
			"script": "Neo-Assyrian",
			"script_remarks": "inscribed",
			"script_type": "Cuneiform"
		},
		"geometry": {
			"type": "Point",
			"coordinates": [43.347545,36.4330610]
		}
	}, {
		"type": "Feature",
		"properties": {
			"project": "szibaniba",
			"id_text": "P282764",
			"primary_publication": "Billa 083",
			"museum_no": "UM 33-58-150",
			"provenience": "Tell Billa (Šibaniba)",
			"archive": "002 - Šibaniba 2",
			"atae_attribution": "Adapted from J.J. Finkelstein, &quot;Cuneiform Texts from Tell Billa,&quot; Journal of Cuneiform Studies 7 (1953):111–176, by Jamie Novotny and Poppy Tushingham (2021) for the Munich Open-access Cuneiform Corpus Initiative (MOCCI), which is funded by LMU Munich and the Alexander von Humboldt Foundation at the Historisches Seminar - Abteilung Alte Geschichte of Ludwig-Maximilians-Universität München. The online edition is released under the Creative Commons Attribution Share-Alike license 3.0.",
			"cite_as": "Please cite this page as http://oracc.org/atae/P282764/.",
			"collection": "University of Pennsylvania Museum of Archaeology and Anthropology, Philadelphia, Pennsylvania, USA",
			"composite_witness": "witness",
			"credits": "Adapted from J.J. Finkelstein, &quot;Cuneiform Texts from Tell Billa,&quot; Journal of Cuneiform Studies 7 (1953):111–176, by Jamie Novotny and Poppy Tushingham (2021) for the Munich Open-access Cuneiform Corpus Initiative (MOCCI), which is funded by LMU Munich and the Alexander von Humboldt Foundation at the Historisches Seminar - Abteilung Alte Geschichte of Ludwig-Maximilians-Universität München. The online edition is released under the Creative Commons Attribution Share-Alike license 3.0. Please cite this page as http://oracc.org/atae/P282764/.",
			"date_of_origin": "00.000.00.00",
			"designation": "Billa 083",
			"dialect": "Neo-Assyrian",
			"display_name": "Billa 083",
			"genre": "Administrative Record",
			"has_date": "no",
			"language": "Akkadian",
			"last_mod_by": "ARMEP",
			"last_modified": "31.01.2022",
			"list_name": "atae/szibaniba:P282764",
			"material": "clay",
			"object_type": "tablet",
			"period": "Neo-Assyrian",
			"script": "Neo-Assyrian",
			"script_remarks": "inscribed",
			"script_type": "Cuneiform"
		},
		"geometry": {
			"type": "Point",
			"coordinates": [43.347545,36.4330610]
		}
	}, {
		"type": "Feature",
		"properties": {
			"project": "szibaniba",
			"id_text": "P282765",
			"primary_publication": "Billa 084",
			"museum_no": "UM 33-58-151",
			"provenience": "Tell Billa (Šibaniba)",
			"archive": "002 - Šibaniba 2",
			"atae_attribution": "Adapted from J.J. Finkelstein, &quot;Cuneiform Texts from Tell Billa,&quot; Journal of Cuneiform Studies 7 (1953):111–176, by Jamie Novotny and Poppy Tushingham (2021) for the Munich Open-access Cuneiform Corpus Initiative (MOCCI), which is funded by LMU Munich and the Alexander von Humboldt Foundation at the Historisches Seminar - Abteilung Alte Geschichte of Ludwig-Maximilians-Universität München. The online edition is released under the Creative Commons Attribution Share-Alike license 3.0.",
			"cite_as": "Please cite this page as http://oracc.org/atae/P282765/.",
			"collection": "University of Pennsylvania Museum of Archaeology and Anthropology, Philadelphia, Pennsylvania, USA",
			"composite_witness": "witness",
			"credits": "Adapted from J.J. Finkelstein, &quot;Cuneiform Texts from Tell Billa,&quot; Journal of Cuneiform Studies 7 (1953):111–176, by Jamie Novotny and Poppy Tushingham (2021) for the Munich Open-access Cuneiform Corpus Initiative (MOCCI), which is funded by LMU Munich and the Alexander von Humboldt Foundation at the Historisches Seminar - Abteilung Alte Geschichte of Ludwig-Maximilians-Universität München. The online edition is released under the Creative Commons Attribution Share-Alike license 3.0. Please cite this page as http://oracc.org/atae/P282765/.",
			"date_of_origin": "00.000.00.00",
			"designation": "Billa 084",
			"dialect": "Neo-Assyrian",
			"display_name": "Billa 084",
			"genre": "Administrative Record",
			"has_date": "no",
			"language": "Akkadian",
			"last_mod_by": "ARMEP",
			"last_modified": "31.01.2022",
			"list_name": "atae/szibaniba:P282765",
			"material": "clay",
			"object_type": "tablet",
			"period": "Neo-Assyrian",
			"script": "Neo-Assyrian",
			"script_remarks": "inscribed",
			"script_type": "Cuneiform"
		},
		"geometry": {
			"type": "Point",
			"coordinates": [43.347545,36.4330610]
		}
	}, {
		"type": "Feature",
		"properties": {
			"project": "szibaniba",
			"id_text": "P282766",
			"primary_publication": "Billa 085",
			"museum_no": "UM 33-58-030",
			"provenience": "Tell Billa (Šibaniba)",
			"archive": "002 - Šibaniba 2",
			"atae_attribution": "Adapted from J.J. Finkelstein, &quot;Cuneiform Texts from Tell Billa,&quot; Journal of Cuneiform Studies 7 (1953):111–176, by Jamie Novotny and Poppy Tushingham (2021) for the Munich Open-access Cuneiform Corpus Initiative (MOCCI), which is funded by LMU Munich and the Alexander von Humboldt Foundation at the Historisches Seminar - Abteilung Alte Geschichte of Ludwig-Maximilians-Universität München. The online edition is released under the Creative Commons Attribution Share-Alike license 3.0.",
			"cite_as": "Please cite this page as http://oracc.org/atae/P282766/.",
			"collection": "University of Pennsylvania Museum of Archaeology and Anthropology, Philadelphia, Pennsylvania, USA",
			"composite_witness": "witness",
			"credits": "Adapted from J.J. Finkelstein, &quot;Cuneiform Texts from Tell Billa,&quot; Journal of Cuneiform Studies 7 (1953):111–176, by Jamie Novotny and Poppy Tushingham (2021) for the Munich Open-access Cuneiform Corpus Initiative (MOCCI), which is funded by LMU Munich and the Alexander von Humboldt Foundation at the Historisches Seminar - Abteilung Alte Geschichte of Ludwig-Maximilians-Universität München. The online edition is released under the Creative Commons Attribution Share-Alike license 3.0. Please cite this page as http://oracc.org/atae/P282766/.",
			"date_of_origin": "00.000.00.00",
			"designation": "Billa 085",
			"dialect": "Neo-Assyrian",
			"display_name": "Billa 085",
			"genre": "Administrative Record",
			"has_date": "no",
			"language": "Akkadian",
			"last_mod_by": "ARMEP",
			"last_modified": "31.01.2022",
			"list_name": "atae/szibaniba:P282766",
			"material": "clay",
			"object_type": "tablet",
			"period": "Neo-Assyrian",
			"script": "Neo-Assyrian",
			"script_remarks": "inscribed",
			"script_type": "Cuneiform"
		},
		"geometry": {
			"type": "Point",
			"coordinates": [43.347545,36.4330610]
		}
	}, {
		"type": "Feature",
		"properties": {
			"project": "szibaniba",
			"id_text": "P282767",
			"primary_publication": "Billa 086",
			"museum_no": "UM 33-58-124",
			"provenience": "Tell Billa (Šibaniba)",
			"archive": "002 - Šibaniba 2",
			"atae_attribution": "Adapted from J.J. Finkelstein, &quot;Cuneiform Texts from Tell Billa,&quot; Journal of Cuneiform Studies 7 (1953):111–176, by Jamie Novotny and Poppy Tushingham (2021) for the Munich Open-access Cuneiform Corpus Initiative (MOCCI), which is funded by LMU Munich and the Alexander von Humboldt Foundation at the Historisches Seminar - Abteilung Alte Geschichte of Ludwig-Maximilians-Universität München. The online edition is released under the Creative Commons Attribution Share-Alike license 3.0.",
			"cite_as": "Please cite this page as http://oracc.org/atae/P282767/.",
			"collection": "University of Pennsylvania Museum of Archaeology and Anthropology, Philadelphia, Pennsylvania, USA",
			"composite_witness": "witness",
			"credits": "Adapted from J.J. Finkelstein, &quot;Cuneiform Texts from Tell Billa,&quot; Journal of Cuneiform Studies 7 (1953):111–176, by Jamie Novotny and Poppy Tushingham (2021) for the Munich Open-access Cuneiform Corpus Initiative (MOCCI), which is funded by LMU Munich and the Alexander von Humboldt Foundation at the Historisches Seminar - Abteilung Alte Geschichte of Ludwig-Maximilians-Universität München. The online edition is released under the Creative Commons Attribution Share-Alike license 3.0. Please cite this page as http://oracc.org/atae/P282767/.",
			"date_of_origin": "00.000.00.00",
			"designation": "Billa 086",
			"dialect": "Neo-Assyrian",
			"display_name": "Billa 086",
			"genre": "Administrative Record",
			"has_date": "no",
			"language": "Akkadian",
			"last_mod_by": "ARMEP",
			"last_modified": "31.01.2022",
			"list_name": "atae/szibaniba:P282767",
			"material": "clay",
			"object_type": "tablet",
			"period": "Neo-Assyrian",
			"script": "Neo-Assyrian",
			"script_remarks": "inscribed",
			"script_type": "Cuneiform"
		},
		"geometry": {
			"type": "Point",
			"coordinates": [43.347545,36.4330610]
		}
	}, {
		"type": "Feature",
		"properties": {
			"project": "szibaniba",
			"id_text": "P282768",
			"primary_publication": "Billa 087",
			"museum_no": "UM 33-58-153",
			"provenience": "Tell Billa (Šibaniba)",
			"archive": "002 - Šibaniba 2",
			"atae_attribution": "Adapted from J.J. Finkelstein, &quot;Cuneiform Texts from Tell Billa,&quot; Journal of Cuneiform Studies 7 (1953):111–176, by Jamie Novotny and Poppy Tushingham (2021) for the Munich Open-access Cuneiform Corpus Initiative (MOCCI), which is funded by LMU Munich and the Alexander von Humboldt Foundation at the Historisches Seminar - Abteilung Alte Geschichte of Ludwig-Maximilians-Universität München. The online edition is released under the Creative Commons Attribution Share-Alike license 3.0.",
			"cite_as": "Please cite this page as http://oracc.org/atae/P282768/.",
			"collection": "University of Pennsylvania Museum of Archaeology and Anthropology, Philadelphia, Pennsylvania, USA",
			"composite_witness": "witness",
			"credits": "Adapted from J.J. Finkelstein, &quot;Cuneiform Texts from Tell Billa,&quot; Journal of Cuneiform Studies 7 (1953):111–176, by Jamie Novotny and Poppy Tushingham (2021) for the Munich Open-access Cuneiform Corpus Initiative (MOCCI), which is funded by LMU Munich and the Alexander von Humboldt Foundation at the Historisches Seminar - Abteilung Alte Geschichte of Ludwig-Maximilians-Universität München. The online edition is released under the Creative Commons Attribution Share-Alike license 3.0. Please cite this page as http://oracc.org/atae/P282768/.",
			"date_of_origin": "00.000.00.00",
			"designation": "Billa 087",
			"dialect": "Neo-Assyrian",
			"display_name": "Billa 087",
			"genre": "Administrative Record",
			"has_date": "no",
			"language": "Akkadian",
			"last_mod_by": "ARMEP",
			"last_modified": "31.01.2022",
			"list_name": "atae/szibaniba:P282768",
			"material": "clay",
			"object_type": "tablet",
			"period": "Neo-Assyrian",
			"script": "Neo-Assyrian",
			"script_remarks": "inscribed",
			"script_type": "Cuneiform"
		},
		"geometry": {
			"type": "Point",
			"coordinates": [43.347545,36.4330610]
		}
	}, {
		"type": "Feature",
		"properties": {
			"project": "szibaniba",
			"id_text": "P461385",
			"primary_publication": "Billa 088",
			"museum_no": "UM 33-58-116 + UM 33-58-145",
			"provenience": "Tell Billa (Šibaniba)",
			"archive": "002 - Šibaniba 2",
			"atae_attribution": "Adapted from J.J. Finkelstein, &quot;Cuneiform Texts from Tell Billa,&quot; Journal of Cuneiform Studies 7 (1953):111–176, by Jamie Novotny and Poppy Tushingham (2021) for the Munich Open-access Cuneiform Corpus Initiative (MOCCI), which is funded by LMU Munich and the Alexander von Humboldt Foundation at the Historisches Seminar - Abteilung Alte Geschichte of Ludwig-Maximilians-Universität München. The online edition is released under the Creative Commons Attribution Share-Alike license 3.0.",
			"cite_as": "Please cite this page as http://oracc.org/atae/P461385/.",
			"collection": "University of Pennsylvania Museum of Archaeology and Anthropology, Philadelphia, Pennsylvania, USA",
			"composite_witness": "witness",
			"credits": "Adapted from J.J. Finkelstein, &quot;Cuneiform Texts from Tell Billa,&quot; Journal of Cuneiform Studies 7 (1953):111–176, by Jamie Novotny and Poppy Tushingham (2021) for the Munich Open-access Cuneiform Corpus Initiative (MOCCI), which is funded by LMU Munich and the Alexander von Humboldt Foundation at the Historisches Seminar - Abteilung Alte Geschichte of Ludwig-Maximilians-Universität München. The online edition is released under the Creative Commons Attribution Share-Alike license 3.0. Please cite this page as http://oracc.org/atae/P461385/.",
			"date_of_origin": "00.000.00.00",
			"designation": "Billa 088",
			"dialect": "Neo-Assyrian",
			"display_name": "Billa 088",
			"genre": "Administrative Record",
			"has_date": "no",
			"language": "Akkadian",
			"last_mod_by": "ARMEP",
			"last_modified": "31.01.2022",
			"list_name": "atae/szibaniba:P461385",
			"material": "clay",
			"object_type": "tablet",
			"period": "Neo-Assyrian",
			"script": "Neo-Assyrian",
			"script_remarks": "inscribed",
			"script_type": "Cuneiform"
		},
		"geometry": {
			"type": "Point",
			"coordinates": [43.347545,36.4330610]
		}
	}, {
		"type": "Feature",
		"properties": {
			"project": "szibaniba",
			"id_text": "P282770",
			"primary_publication": "Billa 089",
			"museum_no": "UM 33-58-009",
			"provenience": "Tell Billa (Šibaniba)",
			"archive": "002 - Šibaniba 2",
			"atae_attribution": "Adapted from J.J. Finkelstein, &quot;Cuneiform Texts from Tell Billa,&quot; Journal of Cuneiform Studies 7 (1953):111–176, by Jamie Novotny and Poppy Tushingham (2021) for the Munich Open-access Cuneiform Corpus Initiative (MOCCI), which is funded by LMU Munich and the Alexander von Humboldt Foundation at the Historisches Seminar - Abteilung Alte Geschichte of Ludwig-Maximilians-Universität München. The online edition is released under the Creative Commons Attribution Share-Alike license 3.0.",
			"cite_as": "Please cite this page as http://oracc.org/atae/P282770/.",
			"collection": "University of Pennsylvania Museum of Archaeology and Anthropology, Philadelphia, Pennsylvania, USA",
			"composite_witness": "witness",
			"credits": "Adapted from J.J. Finkelstein, &quot;Cuneiform Texts from Tell Billa,&quot; Journal of Cuneiform Studies 7 (1953):111–176, by Jamie Novotny and Poppy Tushingham (2021) for the Munich Open-access Cuneiform Corpus Initiative (MOCCI), which is funded by LMU Munich and the Alexander von Humboldt Foundation at the Historisches Seminar - Abteilung Alte Geschichte of Ludwig-Maximilians-Universität München. The online edition is released under the Creative Commons Attribution Share-Alike license 3.0. Please cite this page as http://oracc.org/atae/P282770/.",
			"date_of_origin": "00.000.00.00",
			"designation": "Billa 089",
			"dialect": "Neo-Assyrian",
			"display_name": "Billa 089",
			"genre": "Administrative Record",
			"has_date": "no",
			"language": "Akkadian",
			"last_mod_by": "ARMEP",
			"last_modified": "31.01.2022",
			"list_name": "atae/szibaniba:P282770",
			"material": "clay",
			"object_type": "tablet",
			"period": "Neo-Assyrian",
			"script": "Neo-Assyrian",
			"script_remarks": "inscribed",
			"script_type": "Cuneiform"
		},
		"geometry": {
			"type": "Point",
			"coordinates": [43.347545,36.4330610]
		}
	}, {
		"type": "Feature",
		"properties": {
			"project": "szibaniba",
			"id_text": "P282771",
			"primary_publication": "Billa 090",
			"museum_no": "UM 33-58-152",
			"provenience": "Tell Billa (Šibaniba)",
			"archive": "002 - Šibaniba 2",
			"atae_attribution": "Adapted from J.J. Finkelstein, &quot;Cuneiform Texts from Tell Billa,&quot; Journal of Cuneiform Studies 7 (1953):111–176, by Jamie Novotny and Poppy Tushingham (2021) for the Munich Open-access Cuneiform Corpus Initiative (MOCCI), which is funded by LMU Munich and the Alexander von Humboldt Foundation at the Historisches Seminar - Abteilung Alte Geschichte of Ludwig-Maximilians-Universität München. The online edition is released under the Creative Commons Attribution Share-Alike license 3.0.",
			"cite_as": "Please cite this page as http://oracc.org/atae/P282771/.",
			"collection": "University of Pennsylvania Museum of Archaeology and Anthropology, Philadelphia, Pennsylvania, USA",
			"composite_witness": "witness",
			"credits": "Adapted from J.J. Finkelstein, &quot;Cuneiform Texts from Tell Billa,&quot; Journal of Cuneiform Studies 7 (1953):111–176, by Jamie Novotny and Poppy Tushingham (2021) for the Munich Open-access Cuneiform Corpus Initiative (MOCCI), which is funded by LMU Munich and the Alexander von Humboldt Foundation at the Historisches Seminar - Abteilung Alte Geschichte of Ludwig-Maximilians-Universität München. The online edition is released under the Creative Commons Attribution Share-Alike license 3.0. Please cite this page as http://oracc.org/atae/P282771/.",
			"date_of_origin": "00.000.00.00",
			"designation": "Billa 090",
			"dialect": "Neo-Assyrian",
			"display_name": "Billa 090",
			"genre": "Administrative Record",
			"has_date": "no",
			"language": "Akkadian",
			"last_mod_by": "ARMEP",
			"last_modified": "31.01.2022",
			"list_name": "atae/szibaniba:P282771",
			"material": "clay",
			"object_type": "tablet",
			"period": "Neo-Assyrian",
			"script": "Neo-Assyrian",
			"script_remarks": "inscribed",
			"script_type": "Cuneiform"
		},
		"geometry": {
			"type": "Point",
			"coordinates": [43.347545,36.4330610]
		}
	}]
}
