{
	"type": "FeatureCollection",
	"features": [{
		"type": "Feature",
		"properties": {
			"cdli_id": "P468876",
			"collection": "Vorderasiatisches Museum, Berlin, Germany",
			"credits": "Based on Grant Frame, Rulers of Babylonia: From the Second Dynasty of Isin to the End of Assyrian Domination (1157-612 BC) (RIMB 2; Toronto, 1995). Digitized, lemmatized, and updated by Alexa Bartelmus, 2015-16, for the Munich Open-access Cuneiform Corpus Initiative (MOCCI), a corpus-building initiative funded by LMU Munich and the Alexander von Humboldt Foundation (through the establishment of the Alexander von Humboldt Chair for Ancient History of the Near and Middle East) and based at the Historisches Seminar - Abteilung Alte Geschichte of Ludwig-Maximilians-Universität München. The annotated edition is released under the Creative Commons Attribution Share-Alike license 3.0. Please cite this page as http://oracc.org/ribo/Q006239/.",
			"date_of_origin": "1139-1132",
			"designation": "Itti-Marduk-balaṭu 1",
			"display_name": "RIBo Itti-Marduk-balaṭu 1",
			"dynastic_seat": "Babyon",
			"exemplars": "VA 02577",
			"genre": "Royal Inscription",
			"id_composite": "Q006239",
			"language": "Akkadian",
			"material": "stone",
			"object_type": "uncertain",
			"period": "Middle Babylonian",
			"pleiades_id": "912816",
			"popular_name": "RIMB 2 B.2.2.1",
			"primary_publication": "Itti-Marduk-balaṭu 1",
			"provenience": "Babylonia",
			"ruler": "Itti-Marduk-balaṭu",
			"script": "Neo-Babylonian",
			"script_remarks": "inscribed",
			"script_type": "Cuneiform",
			"subgenre": "Itti-Marduk-balaṭu",
			"supergenre": "LIT"
		},
		"geometry": {
			"type": "Point",
			"coordinates": [44.5,32.5]
		}
	}, {
		"type": "Feature",
		"properties": {
			"cdli_id": "P468882",
			"collection": "Private Collection: Foroughi, Teheran, Iran",
			"credits": "Based on Grant Frame, Rulers of Babylonia: From the Second Dynasty of Isin to the End of Assyrian Domination (1157-612 BC) (RIMB 2; Toronto, 1995). Digitized, lemmatized, and updated by Alexa Bartelmus, 2015-16, for the Munich Open-access Cuneiform Corpus Initiative (MOCCI), a corpus-building initiative funded by LMU Munich and the Alexander von Humboldt Foundation (through the establishment of the Alexander von Humboldt Chair for Ancient History of the Near and Middle East) and based at the Historisches Seminar - Abteilung Alte Geschichte of Ludwig-Maximilians-Universität München. The annotated edition is released under the Creative Commons Attribution Share-Alike license 3.0. Please cite this page as http://oracc.org/ribo/Q006240/.",
			"date_of_origin": "1131-1126",
			"designation": "Ninurta-nadin-šumi 1",
			"display_name": "RIBo Ninurta-nadin-šumi 1",
			"dynastic_seat": "Babyon",
			"exemplars": "Foroughi -; Foroughi -",
			"genre": "Royal Inscription",
			"id_composite": "Q006240",
			"language": "Akkadian",
			"material": "metal",
			"object_type": "dagger",
			"period": "Middle Babylonian",
			"pleiades_id": "191400484",
			"popular_name": "RIMB 2 B.2.3.1",
			"primary_publication": "Ninurta-nadin-šumi 1",
			"provenience": "Luristan",
			"ruler": "Ninurta-nadin-šumi",
			"script": "Neo-Babylonian",
			"script_remarks": "inscribed",
			"script_type": "Cuneiform",
			"subgenre": "Ninurta-nadin-šumi",
			"supergenre": "LIT"
		},
		"geometry": {
			"type": "Point",
			"coordinates": [48.4,33.6]
		}
	}, {
		"type": "Feature",
		"properties": {
			"cdli_id": "P468881",
			"collection": "de Liagre Böhl Collection, Netherlands Institute for the Near East, Leiden, Holland; Oriental Institute, University of Chicago, Chicago, Illinois, USA",
			"credits": "Based on Grant Frame, Rulers of Babylonia: From the Second Dynasty of Isin to the End of Assyrian Domination (1157-612 BC) (RIMB 2; Toronto, 1995). Digitized, lemmatized, and updated by Alexa Bartelmus, 2015-16, for the Munich Open-access Cuneiform Corpus Initiative (MOCCI), a corpus-building initiative funded by LMU Munich and the Alexander von Humboldt Foundation (through the establishment of the Alexander von Humboldt Chair for Ancient History of the Near and Middle East) and based at the Historisches Seminar - Abteilung Alte Geschichte of Ludwig-Maximilians-Universität München. The annotated edition is released under the Creative Commons Attribution Share-Alike license 3.0. Please cite this page as http://oracc.org/ribo/Q006241/.",
			"date_of_origin": "1125-1104",
			"designation": "Nebuchadnezzar I 01",
			"display_name": "RIBo Nebuchadnezzar I 01",
			"dynastic_seat": "Babyon",
			"exemplars": "LB 1530; A 03647",
			"genre": "Royal Inscription",
			"id_composite": "Q006241",
			"language": "Sumerian, Akkadian",
			"material": "stone",
			"object_type": "tablet",
			"period": "Middle Babylonian",
			"pleiades_id": "893951",
			"popular_name": "RIMB 2 B.2.4.1",
			"primary_publication": "Nebuchadnezzar I 01",
			"provenience": "Babylon",
			"ruler": "Nebuchadnezzar I",
			"script": "Neo-Babylonian",
			"script_remarks": "inscribed",
			"script_type": "Cuneiform",
			"subgenre": "Nebuchadnezzar I",
			"supergenre": "LIT"
		},
		"geometry": {
			"type": "Point",
			"coordinates": [44.422236,32.543395]
		}
	}, {
		"type": "Feature",
		"properties": {
			"cdli_id": "P468880",
			"collection": "University of Pennsylvania Museum of Archaeology and Anthropology, Philadelphia, Pennsylvania, USA",
			"credits": "Based on Grant Frame, Rulers of Babylonia: From the Second Dynasty of Isin to the End of Assyrian Domination (1157-612 BC) (RIMB 2; Toronto, 1995). Digitized, lemmatized, and updated by Alexa Bartelmus, 2015-16, for the Munich Open-access Cuneiform Corpus Initiative (MOCCI), a corpus-building initiative funded by LMU Munich and the Alexander von Humboldt Foundation (through the establishment of the Alexander von Humboldt Chair for Ancient History of the Near and Middle East) and based at the Historisches Seminar - Abteilung Alte Geschichte of Ludwig-Maximilians-Universität München. The annotated edition is released under the Creative Commons Attribution Share-Alike license 3.0. Please cite this page as http://oracc.org/ribo/Q006242/.",
			"date_of_origin": "1125-1104",
			"designation": "Nebuchadnezzar I 02",
			"display_name": "RIBo Nebuchadnezzar I 02",
			"dynastic_seat": "Babyon",
			"exemplars": "CBS - (2N-T0483)",
			"genre": "Royal Inscription",
			"id_composite": "Q006242",
			"language": "Sumerian",
			"material": "clay",
			"object_type": "brick",
			"period": "Middle Babylonian",
			"pleiades_id": "912910",
			"popular_name": "RIMB 2 B.2.4.2",
			"primary_publication": "Nebuchadnezzar I 02",
			"provenience": "Nippur",
			"ruler": "Nebuchadnezzar I",
			"script": "Neo-Babylonian",
			"script_remarks": "stamped",
			"script_type": "Cuneiform",
			"subgenre": "Nebuchadnezzar I",
			"supergenre": "LIT"
		},
		"geometry": {
			"type": "Point",
			"coordinates": [45.230832,32.126944]
		}
	}, {
		"type": "Feature",
		"properties": {
			"cdli_id": "P468879",
			"collection": "Private Collection: Foroughi, Teheran, Iran; Iran Bastan Museum, Teheran, Iran",
			"credits": "Based on Grant Frame, Rulers of Babylonia: From the Second Dynasty of Isin to the End of Assyrian Domination (1157-612 BC) (RIMB 2; Toronto, 1995). Digitized, lemmatized, and updated by Alexa Bartelmus, 2015-16, for the Munich Open-access Cuneiform Corpus Initiative (MOCCI), a corpus-building initiative funded by LMU Munich and the Alexander von Humboldt Foundation (through the establishment of the Alexander von Humboldt Chair for Ancient History of the Near and Middle East) and based at the Historisches Seminar - Abteilung Alte Geschichte of Ludwig-Maximilians-Universität München. The annotated edition is released under the Creative Commons Attribution Share-Alike license 3.0. Please cite this page as http://oracc.org/ribo/Q006243/.",
			"date_of_origin": "1125-1104",
			"designation": "Nebuchadnezzar I 03",
			"display_name": "RIBo Nebuchadnezzar I 03",
			"dynastic_seat": "Babyon",
			"exemplars": "Foroughi -; Foroughi -; Foroughi -; Iran Bastan Museum -",
			"genre": "Royal Inscription",
			"id_composite": "Q006243",
			"language": "Akkadian",
			"material": "metal",
			"object_type": "dagger",
			"period": "Middle Babylonian",
			"pleiades_id": "191400484",
			"popular_name": "RIMB 2 B.2.4.3",
			"primary_publication": "Nebuchadnezzar I 03",
			"provenience": "Luristan",
			"ruler": "Nebuchadnezzar I",
			"script": "Neo-Babylonian",
			"script_remarks": "inscribed",
			"script_type": "Cuneiform",
			"subgenre": "Nebuchadnezzar I",
			"supergenre": "LIT"
		},
		"geometry": {
			"type": "Point",
			"coordinates": [48.4,33.6]
		}
	}, {
		"type": "Feature",
		"properties": {
			"cdli_id": "P468878",
			"collection": "Private Collection: Foroughi, Teheran, Iran",
			"credits": "Based on Grant Frame, Rulers of Babylonia: From the Second Dynasty of Isin to the End of Assyrian Domination (1157-612 BC) (RIMB 2; Toronto, 1995). Digitized, lemmatized, and updated by Alexa Bartelmus, 2015-16, for the Munich Open-access Cuneiform Corpus Initiative (MOCCI), a corpus-building initiative funded by LMU Munich and the Alexander von Humboldt Foundation (through the establishment of the Alexander von Humboldt Chair for Ancient History of the Near and Middle East) and based at the Historisches Seminar - Abteilung Alte Geschichte of Ludwig-Maximilians-Universität München. The annotated edition is released under the Creative Commons Attribution Share-Alike license 3.0. Please cite this page as http://oracc.org/ribo/Q006244/.",
			"date_of_origin": "1125-1104",
			"designation": "Nebuchadnezzar I 04",
			"display_name": "RIBo Nebuchadnezzar I 04",
			"dynastic_seat": "Babyon",
			"exemplars": "Foroughi -; Foroughi -",
			"genre": "Royal Inscription",
			"id_composite": "Q006244",
			"language": "Akkadian",
			"material": "metal",
			"object_type": "hatchet",
			"period": "Middle Babylonian",
			"pleiades_id": "191400484",
			"popular_name": "RIMB 2 B.2.4.4",
			"primary_publication": "Nebuchadnezzar I 04",
			"provenience": "Luristan",
			"ruler": "Nebuchadnezzar I",
			"script": "Neo-Babylonian",
			"script_remarks": "inscribed",
			"script_type": "Cuneiform",
			"subgenre": "Nebuchadnezzar I",
			"supergenre": "LIT"
		},
		"geometry": {
			"type": "Point",
			"coordinates": [48.4,33.6]
		}
	}, {
		"type": "Feature",
		"properties": {
			"cdli_id": "P468877",
			"collection": "British Museum, London, UK",
			"credits": "Based on Grant Frame, Rulers of Babylonia: From the Second Dynasty of Isin to the End of Assyrian Domination (1157-612 BC) (RIMB 2; Toronto, 1995). Digitized, lemmatized, and updated by Alexa Bartelmus, 2015-16, for the Munich Open-access Cuneiform Corpus Initiative (MOCCI), a corpus-building initiative funded by LMU Munich and the Alexander von Humboldt Foundation (through the establishment of the Alexander von Humboldt Chair for Ancient History of the Near and Middle East) and based at the Historisches Seminar - Abteilung Alte Geschichte of Ludwig-Maximilians-Universität München. The annotated edition is released under the Creative Commons Attribution Share-Alike license 3.0. Please cite this page as http://oracc.org/ribo/Q006245/.",
			"date_of_origin": "1125-1104",
			"designation": "Nebuchadnezzar I 05",
			"display_name": "RIBo Nebuchadnezzar I 05",
			"dynastic_seat": "Babyon",
			"exemplars": "K 03426",
			"genre": "Royal Inscription",
			"id_composite": "Q006245",
			"language": "Akkadian",
			"material": "clay",
			"object_type": "tablet",
			"period": "Neo-Assyrian",
			"pleiades_id": "874621",
			"popular_name": "RIMB 2 B.2.4.5",
			"primary_publication": "Nebuchadnezzar I 05",
			"provenience": "Nineveh",
			"ruler": "Nebuchadnezzar I",
			"script": "Neo-Assyrian",
			"script_remarks": "inscribed",
			"script_type": "Cuneiform",
			"subgenre": "Nebuchadnezzar I",
			"supergenre": "LIT"
		},
		"geometry": {
			"type": "Point",
			"coordinates": [43.151937,36.358684]
		}
	}, {
		"type": "Feature",
		"properties": {
			"cdli_id": "P469028",
			"collection": "British Museum, London, UK",
			"credits": "Based on Grant Frame, Rulers of Babylonia: From the Second Dynasty of Isin to the End of Assyrian Domination (1157-612 BC) (RIMB 2; Toronto, 1995). Digitized, lemmatized, and updated by Alexa Bartelmus, 2015-16, for the Munich Open-access Cuneiform Corpus Initiative (MOCCI), a corpus-building initiative funded by LMU Munich and the Alexander von Humboldt Foundation (through the establishment of the Alexander von Humboldt Chair for Ancient History of the Near and Middle East) and based at the Historisches Seminar - Abteilung Alte Geschichte of Ludwig-Maximilians-Universität München. The annotated edition is released under the Creative Commons Attribution Share-Alike license 3.0. Please cite this page as http://oracc.org/ribo/Q006246/.",
			"date_of_origin": "1125-1104",
			"designation": "Nebuchadnezzar I 06",
			"display_name": "RIBo Nebuchadnezzar I 06",
			"dynastic_seat": "Babyon",
			"exemplars": "K 02660",
			"genre": "Royal Inscription",
			"id_composite": "Q006246",
			"language": "Akkadian",
			"material": "clay",
			"object_type": "tablet",
			"period": "Neo-Assyrian",
			"pleiades_id": "874621",
			"popular_name": "RIMB 2 B.2.4.6",
			"primary_publication": "Nebuchadnezzar I 06",
			"provenience": "Nineveh",
			"ruler": "Nebuchadnezzar I",
			"script": "Neo-Assyrian",
			"script_remarks": "inscribed",
			"script_type": "Cuneiform",
			"subgenre": "Nebuchadnezzar I",
			"supergenre": "LIT"
		},
		"geometry": {
			"type": "Point",
			"coordinates": [43.151937,36.358684]
		}
	}, {
		"type": "Feature",
		"properties": {
			"cdli_id": "P469029",
			"collection": "Vorderasiatisches Museum, Berlin, Germany",
			"credits": "Based on Grant Frame, Rulers of Babylonia: From the Second Dynasty of Isin to the End of Assyrian Domination (1157-612 BC) (RIMB 2; Toronto, 1995). Digitized, lemmatized, and updated by Alexa Bartelmus, 2015-16, for the Munich Open-access Cuneiform Corpus Initiative (MOCCI), a corpus-building initiative funded by LMU Munich and the Alexander von Humboldt Foundation (through the establishment of the Alexander von Humboldt Chair for Ancient History of the Near and Middle East) and based at the Historisches Seminar - Abteilung Alte Geschichte of Ludwig-Maximilians-Universität München. The annotated edition is released under the Creative Commons Attribution Share-Alike license 3.0. Please cite this page as http://oracc.org/ribo/Q006247/.",
			"date_of_origin": "1125-1104",
			"designation": "Nebuchadnezzar I 07",
			"display_name": "RIBo Nebuchadnezzar I 07",
			"dynastic_seat": "Babyon",
			"exemplars": "VAT 15584 (BE 46154)",
			"genre": "Royal Inscription",
			"id_composite": "Q006247",
			"language": "Akkadian",
			"material": "clay",
			"object_type": "tablet",
			"period": "Neo-Babylonian",
			"pleiades_id": "893951",
			"popular_name": "RIMB 2 B.2.4.7",
			"primary_publication": "Nebuchadnezzar I 07",
			"provenience": "Babylon",
			"ruler": "Nebuchadnezzar I",
			"script": "Neo-Babylonian",
			"script_remarks": "inscribed",
			"script_type": "Cuneiform",
			"subgenre": "Nebuchadnezzar I",
			"supergenre": "LIT"
		},
		"geometry": {
			"type": "Point",
			"coordinates": [44.422236,32.543395]
		}
	}, {
		"type": "Feature",
		"properties": {
			"cdli_id": "P469030",
			"collection": "Vorderasiatisches Museum, Berlin, Germany; British Museum, London, UK",
			"credits": "Based on Grant Frame, Rulers of Babylonia: From the Second Dynasty of Isin to the End of Assyrian Domination (1157-612 BC) (RIMB 2; Toronto, 1995). Digitized, lemmatized, and updated by Alexa Bartelmus, 2015-16, for the Munich Open-access Cuneiform Corpus Initiative (MOCCI), a corpus-building initiative funded by LMU Munich and the Alexander von Humboldt Foundation (through the establishment of the Alexander von Humboldt Chair for Ancient History of the Near and Middle East) and based at the Historisches Seminar - Abteilung Alte Geschichte of Ludwig-Maximilians-Universität München. The annotated edition is released under the Creative Commons Attribution Share-Alike license 3.0. Please cite this page as http://oracc.org/ribo/Q006248/.",
			"date_of_origin": "1125-1104",
			"designation": "Nebuchadnezzar I 08",
			"display_name": "RIBo Nebuchadnezzar I 08",
			"dynastic_seat": "Babyon",
			"exemplars": "K 04874 (+) Rm 0255 (+) K 06088; K 02211 + K 03649 + K 06189 + K 08636 + K 09168 (+) K 10739; VAT 17051 (BE 33135); BM 047805 + BM 048032 + BM 048035 + BM 048037 + BM 048046 (1881-11-03, 0512 + 1881-11-03, 0741 + 1881-11-03, 0744 + 1881-11-03, 0746 + 1881-11-03, 0755)",
			"genre": "Royal Inscription",
			"id_composite": "Q006248",
			"language": "Sumerian, Akkadian",
			"material": "clay",
			"object_type": "tablet",
			"period": "Neo-Assyrian",
			"pleiades_id": "893951",
			"popular_name": "RIMB 2 B.2.4.8",
			"primary_publication": "Nebuchadnezzar I 08",
			"provenience": "Babylon",
			"ruler": "Nebuchadnezzar I",
			"script": "Neo-Assyrian, Neo-Babylonian",
			"script_remarks": "inscribed",
			"script_type": "Cuneiform",
			"subgenre": "Nebuchadnezzar I",
			"supergenre": "LIT"
		},
		"geometry": {
			"type": "Point",
			"coordinates": [44.422236,32.543395]
		}
	}, {
		"type": "Feature",
		"properties": {
			"cdli_id": "P469031",
			"collection": "British Museum, London, UK",
			"credits": "Based on Grant Frame, Rulers of Babylonia: From the Second Dynasty of Isin to the End of Assyrian Domination (1157-612 BC) (RIMB 2; Toronto, 1995). Digitized, lemmatized, and updated by Alexa Bartelmus, 2015-16, for the Munich Open-access Cuneiform Corpus Initiative (MOCCI), a corpus-building initiative funded by LMU Munich and the Alexander von Humboldt Foundation (through the establishment of the Alexander von Humboldt Chair for Ancient History of the Near and Middle East) and based at the Historisches Seminar - Abteilung Alte Geschichte of Ludwig-Maximilians-Universität München. The annotated edition is released under the Creative Commons Attribution Share-Alike license 3.0. Please cite this page as http://oracc.org/ribo/Q006249/.",
			"date_of_origin": "1125-1104",
			"designation": "Nebuchadnezzar I 09",
			"display_name": "RIBo Nebuchadnezzar I 09",
			"dynastic_seat": "Babyon",
			"exemplars": "K 03444 + BM 099067 (Ki 1904-10-04, 0096); K 03317 + K 03319; K 05191; BM 035000 (Sp 2, 524)",
			"genre": "Royal Inscription",
			"id_composite": "Q006249",
			"language": "Sumerian, Akkadian",
			"material": "clay",
			"object_type": "tablet",
			"period": "Neo-Assyrian",
			"pleiades_id": "874621",
			"popular_name": "RIMB 2 B.2.4.9",
			"primary_publication": "Nebuchadnezzar I 09",
			"provenience": "Nineveh",
			"ruler": "Nebuchadnezzar I",
			"script": "Neo-Assyrian, Neo-Babylonian",
			"script_remarks": "inscribed",
			"script_type": "Cuneiform",
			"subgenre": "Nebuchadnezzar I",
			"supergenre": "LIT"
		},
		"geometry": {
			"type": "Point",
			"coordinates": [43.151937,36.358684]
		}
	}, {
		"type": "Feature",
		"properties": {
			"cdli_id": "P469032",
			"collection": "British Museum, London, UK",
			"credits": "Based on Grant Frame, Rulers of Babylonia: From the Second Dynasty of Isin to the End of Assyrian Domination (1157-612 BC) (RIMB 2; Toronto, 1995). Digitized, lemmatized, and updated by Alexa Bartelmus, 2015-16, for the Munich Open-access Cuneiform Corpus Initiative (MOCCI), a corpus-building initiative funded by LMU Munich and the Alexander von Humboldt Foundation (through the establishment of the Alexander von Humboldt Chair for Ancient History of the Near and Middle East) and based at the Historisches Seminar - Abteilung Alte Geschichte of Ludwig-Maximilians-Universität München. The annotated edition is released under the Creative Commons Attribution Share-Alike license 3.0. Please cite this page as http://oracc.org/ribo/Q006250/.",
			"date_of_origin": "1125-1104",
			"designation": "Nebuchadnezzar I 10",
			"display_name": "RIBo Nebuchadnezzar I 10",
			"dynastic_seat": "Babyon",
			"exemplars": "BM 051255 (1882-03-23, 2251)",
			"genre": "Royal Inscription",
			"id_composite": "Q006250",
			"language": "Sumerian, Akkadian",
			"material": "clay",
			"object_type": "cylinder",
			"period": "Middle Babylonian",
			"pleiades_id": "912816",
			"popular_name": "RIMB 2 B.2.4.10",
			"primary_publication": "Nebuchadnezzar I 10",
			"provenience": "Babylonia",
			"ruler": "Nebuchadnezzar I",
			"script": "Archaizing  Neo-Babylonian",
			"script_remarks": "inscribed",
			"script_type": "Cuneiform",
			"subgenre": "Nebuchadnezzar I",
			"supergenre": "LIT"
		},
		"geometry": {
			"type": "Point",
			"coordinates": [44.5,32.5]
		}
	}, {
		"type": "Feature",
		"properties": {
			"cdli_id": "P469034",
			"collection": "British Museum, London, UK",
			"credits": "Based on Grant Frame, Rulers of Babylonia: From the Second Dynasty of Isin to the End of Assyrian Domination (1157-612 BC) (RIMB 2; Toronto, 1995). Digitized, lemmatized, and updated by Alexa Bartelmus, 2015-16, for the Munich Open-access Cuneiform Corpus Initiative (MOCCI), a corpus-building initiative funded by LMU Munich and the Alexander von Humboldt Foundation (through the establishment of the Alexander von Humboldt Chair for Ancient History of the Near and Middle East) and based at the Historisches Seminar - Abteilung Alte Geschichte of Ludwig-Maximilians-Universität München. The annotated edition is released under the Creative Commons Attribution Share-Alike license 3.0. Please cite this page as http://oracc.org/ribo/Q006251/.",
			"date_of_origin": "1125-1104",
			"designation": "Nebuchadnezzar I 11",
			"display_name": "RIBo Nebuchadnezzar I 11",
			"dynastic_seat": "Babyon",
			"exemplars": "BM 090858 (1882-05-22, 1800)",
			"genre": "Royal Inscription",
			"id_composite": "Q006251",
			"language": "Akkadian",
			"material": "stone",
			"object_type": "kudurru (boundary stone)",
			"period": "Middle Babylonian",
			"pleiades_id": "894089",
			"popular_name": "RIMB 2 B.2.4.11",
			"primary_publication": "Nebuchadnezzar I 11",
			"provenience": "Sippar",
			"ruler": "Nebuchadnezzar I",
			"script": "Neo-Babylonian",
			"script_remarks": "inscribed",
			"script_type": "Cuneiform",
			"subgenre": "Nebuchadnezzar I",
			"supergenre": "LIT"
		},
		"geometry": {
			"type": "Point",
			"coordinates": [44.253809,33.059195]
		}
	}, {
		"type": "Feature",
		"properties": {
			"cdli_id": "P469033",
			"collection": "British Museum, London, UK",
			"credits": "Based on Grant Frame, Rulers of Babylonia: From the Second Dynasty of Isin to the End of Assyrian Domination (1157-612 BC) (RIMB 2; Toronto, 1995). Digitized, lemmatized, and updated by Alexa Bartelmus, 2015-16, for the Munich Open-access Cuneiform Corpus Initiative (MOCCI), a corpus-building initiative funded by LMU Munich and the Alexander von Humboldt Foundation (through the establishment of the Alexander von Humboldt Chair for Ancient History of the Near and Middle East) and based at the Historisches Seminar - Abteilung Alte Geschichte of Ludwig-Maximilians-Universität München. The annotated edition is released under the Creative Commons Attribution Share-Alike license 3.0. Please cite this page as http://oracc.org/ribo/Q006252/.",
			"date_of_origin": "1125-1104",
			"designation": "Nebuchadnezzar I 1001",
			"display_name": "RIBo Nebuchadnezzar I 1001",
			"dynastic_seat": "Babyon",
			"exemplars": "BM 034637 (Sp 2, 120)",
			"genre": "Royal Inscription",
			"id_composite": "Q006252",
			"language": "Akkadian",
			"material": "clay",
			"object_type": "tablet",
			"period": "Neo-Babylonian",
			"pleiades_id": "912816",
			"popular_name": "RIMB 2 B.2.4.12",
			"primary_publication": "Nebuchadnezzar I 1001",
			"provenience": "Babylonia",
			"ruler": "Nebuchadnezzar I",
			"script": "Neo-Babylonian",
			"script_remarks": "inscribed",
			"script_type": "Cuneiform",
			"subgenre": "Nebuchadnezzar I",
			"supergenre": "LIT"
		},
		"geometry": {
			"type": "Point",
			"coordinates": [44.5,32.5]
		}
	}, {
		"type": "Feature",
		"properties": {
			"cdli_id": "P469035",
			"collection": "Private Collection: Foroughi, Teheran, Iran",
			"credits": "Based on Grant Frame, Rulers of Babylonia: From the Second Dynasty of Isin to the End of Assyrian Domination (1157-612 BC) (RIMB 2; Toronto, 1995). Digitized, lemmatized, and updated by Alexa Bartelmus, 2015-16, for the Munich Open-access Cuneiform Corpus Initiative (MOCCI), a corpus-building initiative funded by LMU Munich and the Alexander von Humboldt Foundation (through the establishment of the Alexander von Humboldt Chair for Ancient History of the Near and Middle East) and based at the Historisches Seminar - Abteilung Alte Geschichte of Ludwig-Maximilians-Universität München. The annotated edition is released under the Creative Commons Attribution Share-Alike license 3.0. Please cite this page as http://oracc.org/ribo/Q006253/.",
			"date_of_origin": "1103-1100",
			"designation": "Enlil-nadin-apli 1",
			"display_name": "RIBo Enlil-nadin-apli 1",
			"dynastic_seat": "Babyon",
			"exemplars": "Foroughi -",
			"genre": "Royal Inscription",
			"id_composite": "Q006253",
			"language": "Akkadian",
			"material": "metal",
			"object_type": "dagger",
			"period": "Middle Babylonian",
			"pleiades_id": "191400484",
			"popular_name": "RIMB 2 B.2.5.1",
			"primary_publication": "Enlil-nadin-apli 1",
			"provenience": "Luristan",
			"ruler": "Enlil-nadin-apli",
			"script": "Neo-Babylonian",
			"script_remarks": "inscribed",
			"script_type": "Cuneiform",
			"subgenre": "Enlil-nadin-apli",
			"supergenre": "LIT"
		},
		"geometry": {
			"type": "Point",
			"coordinates": [48.4,33.6]
		}
	}, {
		"type": "Feature",
		"properties": {
			"cdli_id": "P469036",
			"collection": "British Museum, London, UK; University of Pennsylvania Museum of Archaeology and Anthropology, Philadelphia, Pennsylvania, USA",
			"credits": "Based on Grant Frame, Rulers of Babylonia: From the Second Dynasty of Isin to the End of Assyrian Domination (1157-612 BC) (RIMB 2; Toronto, 1995). Digitized, lemmatized, and updated by Alexa Bartelmus, 2015-16, for the Munich Open-access Cuneiform Corpus Initiative (MOCCI), a corpus-building initiative funded by LMU Munich and the Alexander von Humboldt Foundation (through the establishment of the Alexander von Humboldt Chair for Ancient History of the Near and Middle East) and based at the Historisches Seminar - Abteilung Alte Geschichte of Ludwig-Maximilians-Universität München. The annotated edition is released under the Creative Commons Attribution Share-Alike license 3.0. Please cite this page as http://oracc.org/ribo/Q006254/.",
			"date_of_origin": "1099-1082",
			"designation": "Marduk-nadin-ahhe 1",
			"display_name": "RIBo Marduk-nadin-ahhe 1",
			"dynastic_seat": "Babyon",
			"exemplars": "CBS 17244 (U 07818); BM 120518 (1928-10-09, 0001; U 07818);  U 07818; U 07818",
			"genre": "Royal Inscription",
			"id_composite": "Q006254",
			"language": "Sumerian",
			"material": "clay",
			"object_type": "brick",
			"period": "Middle Babylonian",
			"pleiades_id": "912985",
			"popular_name": "RIMB 2 B.2.6.1",
			"primary_publication": "Marduk-nadin-ahhe 1",
			"provenience": "Ur",
			"ruler": "Marduk-nadin-ahhe",
			"script": "Neo-Babylonian",
			"script_remarks": "inscribed",
			"script_type": "Cuneiform",
			"subgenre": "Marduk-nadin-ahhe",
			"supergenre": "LIT"
		},
		"geometry": {
			"type": "Point",
			"coordinates": [46.104748,30.961580]
		}
	}, {
		"type": "Feature",
		"properties": {
			"cdli_id": "P469037",
			"collection": "British Museum, London, UK",
			"credits": "Based on Grant Frame, Rulers of Babylonia: From the Second Dynasty of Isin to the End of Assyrian Domination (1157-612 BC) (RIMB 2; Toronto, 1995). Digitized, lemmatized, and updated by Alexa Bartelmus, 2015-16, for the Munich Open-access Cuneiform Corpus Initiative (MOCCI), a corpus-building initiative funded by LMU Munich and the Alexander von Humboldt Foundation (through the establishment of the Alexander von Humboldt Chair for Ancient History of the Near and Middle East) and based at the Historisches Seminar - Abteilung Alte Geschichte of Ludwig-Maximilians-Universität München. The annotated edition is released under the Creative Commons Attribution Share-Alike license 3.0. Please cite this page as http://oracc.org/ribo/Q006255/.",
			"date_of_origin": "1099-1082",
			"designation": "Marduk-nadin-ahhe 2",
			"display_name": "RIBo Marduk-nadin-ahhe 2",
			"dynastic_seat": "Babyon",
			"exemplars": "BM 123124 (1932-10-08, 0008; U 17627a)",
			"genre": "Royal Inscription",
			"id_composite": "Q006255",
			"language": "Sumerian",
			"material": "metal",
			"object_type": "cylinder",
			"period": "Middle Babylonian",
			"pleiades_id": "912985",
			"popular_name": "RIMB 2 B.2.6.2",
			"primary_publication": "Marduk-nadin-ahhe 2",
			"provenience": "Ur",
			"ruler": "Marduk-nadin-ahhe",
			"script": "Neo-Babylonian",
			"script_remarks": "inscribed",
			"script_type": "Cuneiform",
			"subgenre": "Marduk-nadin-ahhe",
			"supergenre": "LIT"
		},
		"geometry": {
			"type": "Point",
			"coordinates": [46.104748,30.961580]
		}
	}, {
		"type": "Feature",
		"properties": {
			"cdli_id": "P469038",
			"collection": "Louvre Museum, Paris, France",
			"credits": "Based on Grant Frame, Rulers of Babylonia: From the Second Dynasty of Isin to the End of Assyrian Domination (1157-612 BC) (RIMB 2; Toronto, 1995). Digitized, lemmatized, and updated by Alexa Bartelmus, 2015-16, for the Munich Open-access Cuneiform Corpus Initiative (MOCCI), a corpus-building initiative funded by LMU Munich and the Alexander von Humboldt Foundation (through the establishment of the Alexander von Humboldt Chair for Ancient History of the Near and Middle East) and based at the Historisches Seminar - Abteilung Alte Geschichte of Ludwig-Maximilians-Universität München. The annotated edition is released under the Creative Commons Attribution Share-Alike license 3.0. Please cite this page as http://oracc.org/ribo/Q006256/.",
			"date_of_origin": "1099-1082",
			"designation": "Marduk-nadin-ahhe 3",
			"display_name": "RIBo Marduk-nadin-ahhe 3",
			"dynastic_seat": "Babyon",
			"exemplars": "AO 14055",
			"genre": "Royal Inscription",
			"id_composite": "Q006256",
			"language": "Akkadian",
			"material": "metal",
			"object_type": "dagger",
			"period": "Middle Babylonian",
			"pleiades_id": "191400484",
			"popular_name": "RIMB 2 B.2.6.3",
			"primary_publication": "Marduk-nadin-ahhe 3",
			"provenience": "Luristan",
			"ruler": "Marduk-nadin-ahhe",
			"script": "Neo-Babylonian",
			"script_remarks": "inscribed",
			"script_type": "Cuneiform",
			"subgenre": "Marduk-nadin-ahhe",
			"supergenre": "LIT"
		},
		"geometry": {
			"type": "Point",
			"coordinates": [48.4,33.6]
		}
	}, {
		"type": "Feature",
		"properties": {
			"cdli_id": "P469039",
			"collection": "British Museum, London, UK; Private Collection: Foroughi, Teheran, Iran; Los Angeles County Museum of Art (LACMA), Los Angeles, California, USA",
			"credits": "Based on Grant Frame, Rulers of Babylonia: From the Second Dynasty of Isin to the End of Assyrian Domination (1157-612 BC) (RIMB 2; Toronto, 1995). Digitized, lemmatized, and updated by Alexa Bartelmus, 2015-16, for the Munich Open-access Cuneiform Corpus Initiative (MOCCI), a corpus-building initiative funded by LMU Munich and the Alexander von Humboldt Foundation (through the establishment of the Alexander von Humboldt Chair for Ancient History of the Near and Middle East) and based at the Historisches Seminar - Abteilung Alte Geschichte of Ludwig-Maximilians-Universität München. The annotated edition is released under the Creative Commons Attribution Share-Alike license 3.0. Please cite this page as http://oracc.org/ribo/Q006257/.",
			"date_of_origin": "1099-1082",
			"designation": "Marduk-nadin-ahhe 4",
			"display_name": "RIBo Marduk-nadin-ahhe 4",
			"dynastic_seat": "Babyon",
			"exemplars": "M.76.97.498; BM 123061 (1932-05-14, 0002); Foroughi -",
			"genre": "Royal Inscription",
			"id_composite": "Q006257",
			"language": "Akkadian",
			"material": "metal",
			"object_type": "dagger",
			"period": "Middle Babylonian",
			"pleiades_id": "191400484",
			"popular_name": "RIMB 2 B.2.6.4",
			"primary_publication": "Marduk-nadin-ahhe 4",
			"provenience": "Luristan",
			"ruler": "Marduk-nadin-ahhe",
			"script": "Neo-Babylonian",
			"script_remarks": "inscribed",
			"script_type": "Cuneiform",
			"subgenre": "Marduk-nadin-ahhe",
			"supergenre": "LIT"
		},
		"geometry": {
			"type": "Point",
			"coordinates": [48.4,33.6]
		}
	}, {
		"type": "Feature",
		"properties": {
			"cdli_id": "P469040",
			"collection": "British Museum, London, UK",
			"credits": "Based on Grant Frame, Rulers of Babylonia: From the Second Dynasty of Isin to the End of Assyrian Domination (1157-612 BC) (RIMB 2; Toronto, 1995). Digitized, lemmatized, and updated by Alexa Bartelmus, 2015-16, for the Munich Open-access Cuneiform Corpus Initiative (MOCCI), a corpus-building initiative funded by LMU Munich and the Alexander von Humboldt Foundation (through the establishment of the Alexander von Humboldt Chair for Ancient History of the Near and Middle East) and based at the Historisches Seminar - Abteilung Alte Geschichte of Ludwig-Maximilians-Universität München. The annotated edition is released under the Creative Commons Attribution Share-Alike license 3.0. Please cite this page as http://oracc.org/ribo/Q006258/.",
			"date_of_origin": "1099-1082",
			"designation": "Marduk-nadin-ahhe 2001",
			"display_name": "RIBo Marduk-nadin-ahhe 2001",
			"dynastic_seat": "Babyon",
			"exemplars": "BM 123060 (1932-05-14, 0001)",
			"genre": "Royal Inscription",
			"id_composite": "Q006258",
			"language": "Akkadian",
			"material": "metal",
			"object_type": "dagger",
			"period": "Middle Babylonian",
			"pleiades_id": "191400484",
			"popular_name": "RIMB 2 B.2.6.2001",
			"primary_publication": "Marduk-nadin-ahhe 2001",
			"provenience": "Luristan",
			"ruler": "Marduk-nadin-ahhe",
			"script": "Neo-Babylonian",
			"script_remarks": "inscribed",
			"script_type": "Cuneiform",
			"subgenre": "Marduk-nadin-ahhe",
			"supergenre": "LIT"
		},
		"geometry": {
			"type": "Point",
			"coordinates": [48.4,33.6]
		}
	}, {
		"type": "Feature",
		"properties": {
			"cdli_id": "P469041",
			"collection": "Private Collection: Williams, Philadelphia, Pennsylvania, USA",
			"credits": "Based on Grant Frame, Rulers of Babylonia: From the Second Dynasty of Isin to the End of Assyrian Domination (1157-612 BC) (RIMB 2; Toronto, 1995). Digitized, lemmatized, and updated by Alexa Bartelmus, 2015-16, for the Munich Open-access Cuneiform Corpus Initiative (MOCCI), a corpus-building initiative funded by LMU Munich and the Alexander von Humboldt Foundation (through the establishment of the Alexander von Humboldt Chair for Ancient History of the Near and Middle East) and based at the Historisches Seminar - Abteilung Alte Geschichte of Ludwig-Maximilians-Universität München. The annotated edition is released under the Creative Commons Attribution Share-Alike license 3.0. Please cite this page as http://oracc.org/ribo/Q006259/.",
			"date_of_origin": "1081-1069",
			"designation": "Marduk-šapik-zeri 1",
			"display_name": "RIBo Marduk-šapik-zeri 1",
			"dynastic_seat": "Babyon",
			"exemplars": "Williams -",
			"genre": "Royal Inscription",
			"id_composite": "Q006259",
			"language": "Akkadian",
			"material": "clay",
			"object_type": "cylinder",
			"period": "Middle Babylonian",
			"pleiades_id": "912816",
			"popular_name": "RIMB 2 B.2.7.1",
			"primary_publication": "Marduk-šapik-zeri 1",
			"provenience": "Babylonia",
			"ruler": "Marduk-šapik-zeri",
			"script": "Neo-Babylonian",
			"script_remarks": "inscribed",
			"script_type": "Cuneiform",
			"subgenre": "Marduk-shapik-zeri",
			"supergenre": "LIT"
		},
		"geometry": {
			"type": "Point",
			"coordinates": [44.5,32.5]
		}
	}, {
		"type": "Feature",
		"properties": {
			"cdli_id": "P469042",
			"collection": "British Museum, London, UK",
			"credits": "Based on Grant Frame, Rulers of Babylonia: From the Second Dynasty of Isin to the End of Assyrian Domination (1157-612 BC) (RIMB 2; Toronto, 1995). Digitized, lemmatized, and updated by Alexa Bartelmus, 2015-16, for the Munich Open-access Cuneiform Corpus Initiative (MOCCI), a corpus-building initiative funded by LMU Munich and the Alexander von Humboldt Foundation (through the establishment of the Alexander von Humboldt Chair for Ancient History of the Near and Middle East) and based at the Historisches Seminar - Abteilung Alte Geschichte of Ludwig-Maximilians-Universität München. The annotated edition is released under the Creative Commons Attribution Share-Alike license 3.0. Please cite this page as http://oracc.org/ribo/Q006260/.",
			"date_of_origin": "1081-1069",
			"designation": "Marduk-šapik-zeri 2",
			"display_name": "RIBo Marduk-šapik-zeri 2",
			"dynastic_seat": "Babyon",
			"exemplars": "BM 026295 (1898-05-14, 0113)",
			"genre": "Royal Inscription",
			"id_composite": "Q006260",
			"language": "Sumerian, Akkadian",
			"material": "clay",
			"object_type": "tablet",
			"period": "Neo-Babylonian",
			"pleiades_id": "912816",
			"popular_name": "RIMB 2 B.2.7.2",
			"primary_publication": "Marduk-šapik-zeri 2",
			"provenience": "Babylonia",
			"ruler": "Marduk-šapik-zeri",
			"script": "Archaizing  Neo-Babylonian",
			"script_remarks": "inscribed",
			"script_type": "Cuneiform",
			"subgenre": "Marduk-shapik-zeri",
			"supergenre": "LIT"
		},
		"geometry": {
			"type": "Point",
			"coordinates": [44.5,32.5]
		}
	}, {
		"type": "Feature",
		"properties": {
			"cdli_id": "P469043",
			"collection": "Royal Ontario Museum of Archaeology, Toronto, Ontario, Canada",
			"credits": "Based on Grant Frame, Rulers of Babylonia: From the Second Dynasty of Isin to the End of Assyrian Domination (1157-612 BC) (RIMB 2; Toronto, 1995). Digitized, lemmatized, and updated by Alexa Bartelmus, 2015-16, for the Munich Open-access Cuneiform Corpus Initiative (MOCCI), a corpus-building initiative funded by LMU Munich and the Alexander von Humboldt Foundation (through the establishment of the Alexander von Humboldt Chair for Ancient History of the Near and Middle East) and based at the Historisches Seminar - Abteilung Alte Geschichte of Ludwig-Maximilians-Universität München. The annotated edition is released under the Creative Commons Attribution Share-Alike license 3.0. Please cite this page as http://oracc.org/ribo/Q006261/.",
			"date_of_origin": "1081-1069",
			"designation": "Marduk-šapik-zeri 3",
			"display_name": "RIBo Marduk-šapik-zeri 3",
			"dynastic_seat": "Babyon",
			"exemplars": "ROM 938.035.000 (D1513)",
			"genre": "Royal Inscription",
			"id_composite": "Q006261",
			"language": "Akkadian",
			"material": "metal",
			"object_type": "dagger",
			"period": "Middle Babylonian",
			"pleiades_id": "191400484",
			"popular_name": "RIMB 2 B.2.7.3",
			"primary_publication": "Marduk-šapik-zeri 3",
			"provenience": "Luristan",
			"ruler": "Marduk-šapik-zeri",
			"script": "Neo-Babylonian",
			"script_remarks": "inscribed",
			"script_type": "Cuneiform",
			"subgenre": "Marduk-shapik-zeri",
			"supergenre": "LIT"
		},
		"geometry": {
			"type": "Point",
			"coordinates": [48.4,33.6]
		}
	}, {
		"type": "Feature",
		"properties": {
			"cdli_id": "P469044",
			"collection": "Iraq Museum, Baghdad, Iraq",
			"credits": "Based on Grant Frame, Rulers of Babylonia: From the Second Dynasty of Isin to the End of Assyrian Domination (1157-612 BC) (RIMB 2; Toronto, 1995). Digitized, lemmatized, and updated by Alexa Bartelmus, 2015-16, for the Munich Open-access Cuneiform Corpus Initiative (MOCCI), a corpus-building initiative funded by LMU Munich and the Alexander von Humboldt Foundation (through the establishment of the Alexander von Humboldt Chair for Ancient History of the Near and Middle East) and based at the Historisches Seminar - Abteilung Alte Geschichte of Ludwig-Maximilians-Universität München. The annotated edition is released under the Creative Commons Attribution Share-Alike license 3.0. Please cite this page as http://oracc.org/ribo/Q006262/.",
			"date_of_origin": "1081-1069",
			"designation": "Marduk-šapik-zeri 2001",
			"display_name": "RIBo Marduk-šapik-zeri 2001",
			"dynastic_seat": "Babyon",
			"exemplars": "IM 071204 (9N-T0099)",
			"genre": "Royal Inscription",
			"id_composite": "Q006262",
			"language": "Sumerian",
			"material": "stone",
			"object_type": "duck weight",
			"period": "Middle Babylonian",
			"pleiades_id": "912910",
			"popular_name": "RIMB 2 B.2.7.2001",
			"primary_publication": "Marduk-šapik-zeri 2001",
			"provenience": "Nippur",
			"ruler": "Marduk-šapik-zeri",
			"script": "Neo-Babylonian",
			"script_remarks": "inscribed",
			"script_type": "Cuneiform",
			"subgenre": "Marduk-shapik-zeri",
			"supergenre": "LIT"
		},
		"geometry": {
			"type": "Point",
			"coordinates": [45.230832,32.126944]
		}
	}, {
		"type": "Feature",
		"properties": {
			"cdli_id": "P469045",
			"credits": "Based on Grant Frame, Rulers of Babylonia: From the Second Dynasty of Isin to the End of Assyrian Domination (1157-612 BC) (RIMB 2; Toronto, 1995). Digitized, lemmatized, and updated by Alexa Bartelmus, 2015-16, for the Munich Open-access Cuneiform Corpus Initiative (MOCCI), a corpus-building initiative funded by LMU Munich and the Alexander von Humboldt Foundation (through the establishment of the Alexander von Humboldt Chair for Ancient History of the Near and Middle East) and based at the Historisches Seminar - Abteilung Alte Geschichte of Ludwig-Maximilians-Universität München. The annotated edition is released under the Creative Commons Attribution Share-Alike license 3.0. Please cite this page as http://oracc.org/ribo/Q006263/.",
			"date_of_origin": "1068-1047",
			"designation": "Adad-apla-iddina 01",
			"display_name": "RIBo Adad-apla-iddina 01",
			"dynastic_seat": "Babyon",
			"exemplars": "BE 59431",
			"genre": "Royal Inscription",
			"id_composite": "Q006263",
			"language": "Akkadian",
			"material": "clay",
			"object_type": "brick",
			"period": "Middle Babylonian",
			"pleiades_id": "893951",
			"popular_name": "RIMB 2 B.2.8.1",
			"primary_publication": "Adad-apla-iddina 01",
			"provenience": "Babylon",
			"ruler": "Adad-apla-iddina",
			"script": "Neo-Babylonian",
			"script_remarks": "stamped",
			"script_type": "Cuneiform",
			"subgenre": "Adad-apla-iddina",
			"supergenre": "LIT"
		},
		"geometry": {
			"type": "Point",
			"coordinates": [44.422236,32.543395]
		}
	}, {
		"type": "Feature",
		"properties": {
			"cdli_id": "P469046",
			"collection": "Arkeoloji Müzerleri, Istanbul, Turkey",
			"credits": "Based on Grant Frame, Rulers of Babylonia: From the Second Dynasty of Isin to the End of Assyrian Domination (1157-612 BC) (RIMB 2; Toronto, 1995). Digitized, lemmatized, and updated by Alexa Bartelmus, 2015-16, for the Munich Open-access Cuneiform Corpus Initiative (MOCCI), a corpus-building initiative funded by LMU Munich and the Alexander von Humboldt Foundation (through the establishment of the Alexander von Humboldt Chair for Ancient History of the Near and Middle East) and based at the Historisches Seminar - Abteilung Alte Geschichte of Ludwig-Maximilians-Universität München. The annotated edition is released under the Creative Commons Attribution Share-Alike license 3.0. Please cite this page as http://oracc.org/ribo/Q006264/.",
			"date_of_origin": "1068-1047",
			"designation": "Adad-apla-iddina 02",
			"display_name": "RIBo Adad-apla-iddina 02",
			"dynastic_seat": "Babyon",
			"exemplars": "Ist B 0230a",
			"genre": "Royal Inscription",
			"id_composite": "Q006264",
			"language": "Akkadian",
			"material": "clay",
			"object_type": "cylinder",
			"period": "Middle Babylonian",
			"pleiades_id": "893951",
			"popular_name": "RIMB 2 B.2.8.2",
			"primary_publication": "Adad-apla-iddina 02",
			"provenience": "Babylon",
			"ruler": "Adad-apla-iddina",
			"script": "Neo-Babylonian",
			"script_remarks": "inscribed",
			"script_type": "Cuneiform",
			"subgenre": "Adad-apla-iddina",
			"supergenre": "LIT"
		},
		"geometry": {
			"type": "Point",
			"coordinates": [44.422236,32.543395]
		}
	}, {
		"type": "Feature",
		"properties": {
			"cdli_id": "P469047",
			"collection": "Iraq Museum, Baghdad, Iraq",
			"credits": "Based on Grant Frame, Rulers of Babylonia: From the Second Dynasty of Isin to the End of Assyrian Domination (1157-612 BC) (RIMB 2; Toronto, 1995). Digitized, lemmatized, and updated by Alexa Bartelmus, 2015-16, for the Munich Open-access Cuneiform Corpus Initiative (MOCCI), a corpus-building initiative funded by LMU Munich and the Alexander von Humboldt Foundation (through the establishment of the Alexander von Humboldt Chair for Ancient History of the Near and Middle East) and based at the Historisches Seminar - Abteilung Alte Geschichte of Ludwig-Maximilians-Universität München. The annotated edition is released under the Creative Commons Attribution Share-Alike license 3.0. Please cite this page as http://oracc.org/ribo/Q006265/.",
			"date_of_origin": "1068-1047",
			"designation": "Adad-apla-iddina 03",
			"display_name": "RIBo Adad-apla-iddina 03",
			"dynastic_seat": "Babyon",
			"exemplars": "IM 076765",
			"genre": "Royal Inscription",
			"id_composite": "Q006265",
			"language": "Sumerian",
			"material": "stone",
			"object_type": "bead",
			"period": "Middle Babylonian",
			"pleiades_id": "912816",
			"popular_name": "RIMB 2 B.2.8.3",
			"primary_publication": "Adad-apla-iddina 03",
			"provenience": "Babylonia",
			"ruler": "Adad-apla-iddina",
			"script": "Neo-Babylonian",
			"script_remarks": "inscribed",
			"script_type": "Cuneiform",
			"subgenre": "Adad-apla-iddina",
			"supergenre": "LIT"
		},
		"geometry": {
			"type": "Point",
			"coordinates": [44.5,32.5]
		}
	}, {
		"type": "Feature",
		"properties": {
			"cdli_id": "P469048",
			"collection": "British Museum, London, UK;  Ashmolean Museum, Oxford, UK; Field Museum of Natural History, Chicago, Illinois, USA",
			"credits": "Based on Grant Frame, Rulers of Babylonia: From the Second Dynasty of Isin to the End of Assyrian Domination (1157-612 BC) (RIMB 2; Toronto, 1995). Digitized, lemmatized, and updated by Alexa Bartelmus, 2015-16, for the Munich Open-access Cuneiform Corpus Initiative (MOCCI), a corpus-building initiative funded by LMU Munich and the Alexander von Humboldt Foundation (through the establishment of the Alexander von Humboldt Chair for Ancient History of the Near and Middle East) and based at the Historisches Seminar - Abteilung Alte Geschichte of Ludwig-Maximilians-Universität München. The annotated edition is released under the Creative Commons Attribution Share-Alike license 3.0. Please cite this page as http://oracc.org/ribo/Q006266/.",
			"date_of_origin": "1068-1047",
			"designation": "Adad-apla-iddina 04",
			"display_name": "RIBo Adad-apla-iddina 04",
			"dynastic_seat": "Babyon",
			"exemplars": "BM 090286; Ash 1924.0634 (HMR 342); Ash 1930.0039; FMNH 156011",
			"genre": "Royal Inscription",
			"id_composite": "Q006266",
			"language": "Sumerian",
			"material": "clay",
			"object_type": "brick",
			"period": "Middle Babylonian",
			"pleiades_id": "894028",
			"popular_name": "RIMB 2 B.2.8.4",
			"primary_publication": "Adad-apla-iddina 04",
			"provenience": "Kish",
			"ruler": "Adad-apla-iddina",
			"script": "Neo-Babylonian",
			"script_remarks": "stamped",
			"script_type": "Cuneiform",
			"subgenre": "Adad-apla-iddina",
			"supergenre": "LIT"
		},
		"geometry": {
			"type": "Point",
			"coordinates": [44.585271,32.551977]
		}
	}, {
		"type": "Feature",
		"properties": {
			"cdli_id": "P469049",
			"collection": "British Museum, London, UK",
			"credits": "Based on Grant Frame, Rulers of Babylonia: From the Second Dynasty of Isin to the End of Assyrian Domination (1157-612 BC) (RIMB 2; Toronto, 1995). Digitized, lemmatized, and updated by Alexa Bartelmus, 2015-16, for the Munich Open-access Cuneiform Corpus Initiative (MOCCI), a corpus-building initiative funded by LMU Munich and the Alexander von Humboldt Foundation (through the establishment of the Alexander von Humboldt Chair for Ancient History of the Near and Middle East) and based at the Historisches Seminar - Abteilung Alte Geschichte of Ludwig-Maximilians-Universität München. The annotated edition is released under the Creative Commons Attribution Share-Alike license 3.0. Please cite this page as http://oracc.org/ribo/Q006267/.",
			"date_of_origin": "1068-1047",
			"designation": "Adad-apla-iddina 05",
			"display_name": "RIBo Adad-apla-iddina 05",
			"dynastic_seat": "Babyon",
			"exemplars": "BM 079503 (1889-10-14, 0051); Sm 0397",
			"genre": "Royal Inscription",
			"id_composite": "Q006267",
			"language": "Sumerian, Akkadian",
			"material": "clay",
			"object_type": "tablet",
			"period": "Neo-Assyrian",
			"pleiades_id": "874621",
			"popular_name": "RIMB 2 B.2.8.5",
			"primary_publication": "Adad-apla-iddina 05",
			"provenience": "Nineveh",
			"ruler": "Adad-apla-iddina",
			"script": "Neo-Assyrian",
			"script_remarks": "inscribed",
			"script_type": "Cuneiform",
			"subgenre": "Adad-apla-iddina",
			"supergenre": "LIT"
		},
		"geometry": {
			"type": "Point",
			"coordinates": [43.151937,36.358684]
		}
	}, {
		"type": "Feature",
		"properties": {
			"cdli_id": "P469050",
			"credits": "Based on Grant Frame, Rulers of Babylonia: From the Second Dynasty of Isin to the End of Assyrian Domination (1157-612 BC) (RIMB 2; Toronto, 1995). Digitized, lemmatized, and updated by Alexa Bartelmus, 2015-16, for the Munich Open-access Cuneiform Corpus Initiative (MOCCI), a corpus-building initiative funded by LMU Munich and the Alexander von Humboldt Foundation (through the establishment of the Alexander von Humboldt Chair for Ancient History of the Near and Middle East) and based at the Historisches Seminar - Abteilung Alte Geschichte of Ludwig-Maximilians-Universität München. The annotated edition is released under the Creative Commons Attribution Share-Alike license 3.0. Please cite this page as http://oracc.org/ribo/Q006268/.",
			"date_of_origin": "1068-1047",
			"designation": "Adad-apla-iddina 06",
			"display_name": "RIBo Adad-apla-iddina 06",
			"dynastic_seat": "Babyon",
			"genre": "Royal Inscription",
			"id_composite": "Q006268",
			"language": "Akkadian",
			"material": "clay",
			"object_type": "cone",
			"period": "Middle Babylonian",
			"pleiades_id": "874458",
			"popular_name": "RIMB 2 B.2.8.6",
			"primary_publication": "Adad-apla-iddina 06",
			"provenience": "Dur-Šarrukin",
			"ruler": "Adad-apla-iddina",
			"script": "Neo-Babylonian",
			"script_remarks": "inscribed",
			"script_type": "Cuneiform",
			"subgenre": "Adad-apla-iddina",
			"supergenre": "LIT"
		},
		"geometry": {
			"type": "Point",
			"coordinates": [43.228261,36.510016]
		}
	}, {
		"type": "Feature",
		"properties": {
			"cdli_id": "P469051",
			"collection": "Iraq Museum, Baghdad, Iraq",
			"credits": "Based on Grant Frame, Rulers of Babylonia: From the Second Dynasty of Isin to the End of Assyrian Domination (1157-612 BC) (RIMB 2; Toronto, 1995). Digitized, lemmatized, and updated by Alexa Bartelmus, 2015-16, for the Munich Open-access Cuneiform Corpus Initiative (MOCCI), a corpus-building initiative funded by LMU Munich and the Alexander von Humboldt Foundation (through the establishment of the Alexander von Humboldt Chair for Ancient History of the Near and Middle East) and based at the Historisches Seminar - Abteilung Alte Geschichte of Ludwig-Maximilians-Universität München. The annotated edition is released under the Creative Commons Attribution Share-Alike license 3.0. Please cite this page as http://oracc.org/ribo/Q006269/.",
			"date_of_origin": "1068-1047",
			"designation": "Adad-apla-iddina 07",
			"display_name": "RIBo Adad-apla-iddina 07",
			"dynastic_seat": "Babyon",
			"exemplars": "IM 076547 (IB 0148a); IB 0148b",
			"genre": "Royal Inscription",
			"id_composite": "Q006269",
			"language": "Sumerian",
			"material": "clay",
			"object_type": "brick",
			"period": "Middle Babylonian",
			"pleiades_id": "912868",
			"popular_name": "RIMB 2 B.2.8.7",
			"primary_publication": "Adad-apla-iddina 07",
			"provenience": "Isin",
			"ruler": "Adad-apla-iddina",
			"script": "Neo-Babylonian",
			"script_remarks": "stamped",
			"script_type": "Cuneiform",
			"subgenre": "Adad-apla-iddina",
			"supergenre": "LIT"
		},
		"geometry": {
			"type": "Point",
			"coordinates": [45.267191,31.920259]
		}
	}, {
		"type": "Feature",
		"properties": {
			"cdli_id": "P469052",
			"collection": "Iraq Museum, Baghdad, Iraq",
			"credits": "Based on Grant Frame, Rulers of Babylonia: From the Second Dynasty of Isin to the End of Assyrian Domination (1157-612 BC) (RIMB 2; Toronto, 1995). Digitized, lemmatized, and updated by Alexa Bartelmus, 2015-16, for the Munich Open-access Cuneiform Corpus Initiative (MOCCI), a corpus-building initiative funded by LMU Munich and the Alexander von Humboldt Foundation (through the establishment of the Alexander von Humboldt Chair for Ancient History of the Near and Middle East) and based at the Historisches Seminar - Abteilung Alte Geschichte of Ludwig-Maximilians-Universität München. The annotated edition is released under the Creative Commons Attribution Share-Alike license 3.0. Please cite this page as http://oracc.org/ribo/Q006270/.",
			"date_of_origin": "1068-1047",
			"designation": "Adad-apla-iddina 08",
			"display_name": "RIBo Adad-apla-iddina 08",
			"dynastic_seat": "Babyon",
			"exemplars": "IM 078551 (W 23556)",
			"genre": "Royal Inscription",
			"id_composite": "Q006270",
			"language": "Sumerian, Akkadian",
			"material": "clay",
			"object_type": "tablet",
			"period": "Neo-Babylonian",
			"pleiades_id": "912986",
			"popular_name": "RIMB 2 B.2.8.8",
			"primary_publication": "Adad-apla-iddina 08",
			"provenience": "Uruk",
			"ruler": "Adad-apla-iddina",
			"script": "Neo-Babylonian",
			"script_remarks": "inscribed",
			"script_type": "Cuneiform",
			"subgenre": "Adad-apla-iddina",
			"supergenre": "LIT"
		},
		"geometry": {
			"type": "Point",
			"coordinates": [45.638752,31.32446]
		}
	}, {
		"type": "Feature",
		"properties": {
			"cdli_id": "P469053",
			"credits": "Based on Grant Frame, Rulers of Babylonia: From the Second Dynasty of Isin to the End of Assyrian Domination (1157-612 BC) (RIMB 2; Toronto, 1995). Digitized, lemmatized, and updated by Alexa Bartelmus, 2015-16, for the Munich Open-access Cuneiform Corpus Initiative (MOCCI), a corpus-building initiative funded by LMU Munich and the Alexander von Humboldt Foundation (through the establishment of the Alexander von Humboldt Chair for Ancient History of the Near and Middle East) and based at the Historisches Seminar - Abteilung Alte Geschichte of Ludwig-Maximilians-Universität München. The annotated edition is released under the Creative Commons Attribution Share-Alike license 3.0. Please cite this page as http://oracc.org/ribo/Q006271/.",
			"date_of_origin": "1068-1047",
			"designation": "Adad-apla-iddina 09",
			"display_name": "RIBo Adad-apla-iddina 09",
			"dynastic_seat": "Babyon",
			"exemplars": "L 07084",
			"genre": "Royal Inscription",
			"id_composite": "Q006271",
			"language": "Sumerian",
			"material": "clay",
			"object_type": "brick",
			"period": "Middle Babylonian",
			"pleiades_id": "912897",
			"popular_name": "RIMB 2 B.2.8.9",
			"primary_publication": "Adad-apla-iddina 09",
			"provenience": "Larsa",
			"ruler": "Adad-apla-iddina",
			"script": "Neo-Babylonian",
			"script_remarks": "stamped",
			"script_type": "Cuneiform",
			"subgenre": "Adad-apla-iddina",
			"supergenre": "LIT"
		},
		"geometry": {
			"type": "Point",
			"coordinates": [45.853611,31.285833]
		}
	}, {
		"type": "Feature",
		"properties": {
			"cdli_id": "P469054",
			"collection": "British Museum, London, UK; Iraq Museum, Baghdad, Iraq",
			"credits": "Based on Grant Frame, Rulers of Babylonia: From the Second Dynasty of Isin to the End of Assyrian Domination (1157-612 BC) (RIMB 2; Toronto, 1995). Digitized, lemmatized, and updated by Alexa Bartelmus, 2015-16, for the Munich Open-access Cuneiform Corpus Initiative (MOCCI), a corpus-building initiative funded by LMU Munich and the Alexander von Humboldt Foundation (through the establishment of the Alexander von Humboldt Chair for Ancient History of the Near and Middle East) and based at the Historisches Seminar - Abteilung Alte Geschichte of Ludwig-Maximilians-Universität München. The annotated edition is released under the Creative Commons Attribution Share-Alike license 3.0. Please cite this page as http://oracc.org/ribo/Q006272/.",
			"date_of_origin": "1068-1047",
			"designation": "Adad-apla-iddina 10",
			"display_name": "RIBo Adad-apla-iddina 10",
			"dynastic_seat": "Babyon",
			"exemplars": "BM 116989 (U 03130); IM 001038 (U 03130)",
			"genre": "Royal Inscription",
			"id_composite": "Q006272",
			"language": "Sumerian",
			"material": "clay",
			"object_type": "brick",
			"period": "Middle Babylonian",
			"pleiades_id": "912985",
			"popular_name": "RIMB 2 B.2.8.10",
			"primary_publication": "Adad-apla-iddina 10",
			"provenience": "Ur",
			"ruler": "Adad-apla-iddina",
			"script": "Neo-Babylonian",
			"script_remarks": "stamped",
			"script_type": "Cuneiform",
			"subgenre": "Adad-apla-iddina",
			"supergenre": "LIT"
		},
		"geometry": {
			"type": "Point",
			"coordinates": [46.104748,30.961580]
		}
	}, {
		"type": "Feature",
		"properties": {
			"cdli_id": "P469056",
			"collection": "University of Pennsylvania Museum of Archaeology and Anthropology, Philadelphia, Pennsylvania, USA",
			"credits": "Based on Grant Frame, Rulers of Babylonia: From the Second Dynasty of Isin to the End of Assyrian Domination (1157-612 BC) (RIMB 2; Toronto, 1995). Digitized, lemmatized, and updated by Alexa Bartelmus, 2015-16, for the Munich Open-access Cuneiform Corpus Initiative (MOCCI), a corpus-building initiative funded by LMU Munich and the Alexander von Humboldt Foundation (through the establishment of the Alexander von Humboldt Chair for Ancient History of the Near and Middle East) and based at the Historisches Seminar - Abteilung Alte Geschichte of Ludwig-Maximilians-Universität München. The annotated edition is released under the Creative Commons Attribution Share-Alike license 3.0. Please cite this page as http://oracc.org/ribo/Q006273/.",
			"date_of_origin": "1068-1047",
			"designation": "Adad-apla-iddina 11",
			"display_name": "RIBo Adad-apla-iddina 11",
			"dynastic_seat": "Babyon",
			"exemplars": "CBS 16482 (U 02877)",
			"genre": "Royal Inscription",
			"id_composite": "Q006273",
			"language": "Akkadian",
			"material": "clay",
			"object_type": "brick",
			"period": "Middle Babylonian",
			"pleiades_id": "912985",
			"popular_name": "RIMB 2 B.2.8.11",
			"primary_publication": "Adad-apla-iddina 11",
			"provenience": "Ur",
			"ruler": "Adad-apla-iddina",
			"script": "Neo-Babylonian",
			"script_remarks": "stamped",
			"script_type": "Cuneiform",
			"subgenre": "Adad-apla-iddina",
			"supergenre": "LIT"
		},
		"geometry": {
			"type": "Point",
			"coordinates": [46.104748,30.961580]
		}
	}, {
		"type": "Feature",
		"properties": {
			"cdli_id": "P469057",
			"collection": "Saint Louis Art Museum, St. Louis, Missouri, USA",
			"credits": "Based on Grant Frame, Rulers of Babylonia: From the Second Dynasty of Isin to the End of Assyrian Domination (1157-612 BC) (RIMB 2; Toronto, 1995). Digitized, lemmatized, and updated by Alexa Bartelmus, 2015-16, for the Munich Open-access Cuneiform Corpus Initiative (MOCCI), a corpus-building initiative funded by LMU Munich and the Alexander von Humboldt Foundation (through the establishment of the Alexander von Humboldt Chair for Ancient History of the Near and Middle East) and based at the Historisches Seminar - Abteilung Alte Geschichte of Ludwig-Maximilians-Universität München. The annotated edition is released under the Creative Commons Attribution Share-Alike license 3.0. Please cite this page as http://oracc.org/ribo/Q006274/.",
			"date_of_origin": "1068-1047",
			"designation": "Adad-apla-iddina 12",
			"display_name": "RIBo Adad-apla-iddina 12",
			"dynastic_seat": "Babyon",
			"exemplars": "11:64",
			"genre": "Royal Inscription",
			"id_composite": "Q006274",
			"language": "Akkadian",
			"material": "metal",
			"object_type": "dagger",
			"period": "Middle Babylonian",
			"pleiades_id": "191400484",
			"popular_name": "RIMB 2 B.2.8.12",
			"primary_publication": "Adad-apla-iddina 12",
			"provenience": "Luristan",
			"ruler": "Adad-apla-iddina",
			"script": "Neo-Babylonian",
			"script_remarks": "inscribed",
			"script_type": "Cuneiform",
			"subgenre": "Adad-apla-iddina",
			"supergenre": "LIT"
		},
		"geometry": {
			"type": "Point",
			"coordinates": [48.4,33.6]
		}
	}, {
		"type": "Feature",
		"properties": {
			"cdli_id": "P469055",
			"credits": "Based on Grant Frame, Rulers of Babylonia: From the Second Dynasty of Isin to the End of Assyrian Domination (1157-612 BC) (RIMB 2; Toronto, 1995). Digitized, lemmatized, and updated by Alexa Bartelmus, 2015-16, for the Munich Open-access Cuneiform Corpus Initiative (MOCCI), a corpus-building initiative funded by LMU Munich and the Alexander von Humboldt Foundation (through the establishment of the Alexander von Humboldt Chair for Ancient History of the Near and Middle East) and based at the Historisches Seminar - Abteilung Alte Geschichte of Ludwig-Maximilians-Universität München. The annotated edition is released under the Creative Commons Attribution Share-Alike license 3.0. Please cite this page as http://oracc.org/ribo/Q006275/.",
			"date_of_origin": "1068-1047",
			"designation": "Adad-apla-iddina 1001",
			"display_name": "RIBo Adad-apla-iddina 1001",
			"dynastic_seat": "Babyon",
			"exemplars": "79-B-13",
			"genre": "Royal Inscription",
			"id_composite": "Q006275",
			"language": "Sumerian",
			"material": "clay",
			"object_type": "cylinder",
			"period": "Middle Babylonian",
			"pleiades_id": "893951",
			"popular_name": "RIMB 2 B.2.8.1001",
			"primary_publication": "Adad-apla-iddina 1001",
			"provenience": "Babylon",
			"ruler": "Adad-apla-iddina",
			"script": "Neo-Babylonian",
			"script_remarks": "inscribed",
			"script_type": "Cuneiform",
			"subgenre": "Adad-apla-iddina",
			"supergenre": "LIT"
		},
		"geometry": {
			"type": "Point",
			"coordinates": [44.422236,32.543395]
		}
	}, {
		"type": "Feature",
		"properties": {
			"cdli_id": "P469058",
			"collection": "British Museum, London, UK",
			"credits": "Based on Grant Frame, Rulers of Babylonia: From the Second Dynasty of Isin to the End of Assyrian Domination (1157-612 BC) (RIMB 2; Toronto, 1995). Digitized, lemmatized, and updated by Alexa Bartelmus, 2015-16, for the Munich Open-access Cuneiform Corpus Initiative (MOCCI), a corpus-building initiative funded by LMU Munich and the Alexander von Humboldt Foundation (through the establishment of the Alexander von Humboldt Chair for Ancient History of the Near and Middle East) and based at the Historisches Seminar - Abteilung Alte Geschichte of Ludwig-Maximilians-Universität München. The annotated edition is released under the Creative Commons Attribution Share-Alike license 3.0. Please cite this page as http://oracc.org/ribo/Q006276/.",
			"date_of_origin": "1033-1026",
			"designation": "Nabû-šumu-libur 1",
			"display_name": "RIBo Nabû-šumu-libur 1",
			"dynastic_seat": "Babyon",
			"exemplars": "BM 091432 (1848-11-04, 0128)",
			"genre": "Royal Inscription",
			"id_composite": "Q006276",
			"language": "Akkadian",
			"material": "metal",
			"object_type": "duck weight",
			"period": "Middle Babylonian",
			"pleiades_id": "894019",
			"popular_name": "RIMB 2 B.2.11.1",
			"primary_publication": "Nabû-šumu-libur 1",
			"provenience": "Nimrud",
			"ruler": "Nabû-šumu-libur",
			"script": "Neo-Babylonian",
			"script_remarks": "inscribed",
			"script_type": "Cuneiform",
			"subgenre": "Nabû-šumu-libur",
			"supergenre": "LIT"
		},
		"geometry": {
			"type": "Point",
			"coordinates": [43.3275,36.099167]
		}
	}, {
		"type": "Feature",
		"properties": {
			"cdli_id": "P469059",
			"collection": "British Museum, London, UK",
			"credits": "Based on Grant Frame, Rulers of Babylonia: From the Second Dynasty of Isin to the End of Assyrian Domination (1157-612 BC) (RIMB 2; Toronto, 1995). Digitized, lemmatized, and updated by Alexa Bartelmus, 2015-16, for the Munich Open-access Cuneiform Corpus Initiative (MOCCI), a corpus-building initiative funded by LMU Munich and the Alexander von Humboldt Foundation (through the establishment of the Alexander von Humboldt Chair for Ancient History of the Near and Middle East) and based at the Historisches Seminar - Abteilung Alte Geschichte of Ludwig-Maximilians-Universität München. The annotated edition is released under the Creative Commons Attribution Share-Alike license 3.0. Please cite this page as http://oracc.org/ribo/Q006277/.",
			"date_of_origin": "12th-11th century",
			"designation": "Unidentified Second Isin Dynasty Ruler 1001",
			"display_name": "RIBo Unidentified Second Isin Dynasty Ruler 1001",
			"dynastic_seat": "Babyon",
			"exemplars": "K 18603",
			"genre": "Royal Inscription",
			"id_composite": "Q006277",
			"language": "Sumerian, Akkadian",
			"material": "clay",
			"object_type": "tablet",
			"period": "Neo-Assyrian",
			"pleiades_id": "874621",
			"popular_name": "RIMB 2 B.2.0.1001",
			"primary_publication": "Unidentified Second Isin Dynasty Ruler 1001",
			"provenience": "Nineveh",
			"ruler": "uncertain",
			"script": "Neo-Assyrian",
			"script_remarks": "inscribed",
			"script_type": "Cuneiform",
			"subgenre": "Unidentified Second Isin Dynasty Ruler",
			"supergenre": "LIT"
		},
		"geometry": {
			"type": "Point",
			"coordinates": [43.151937,36.358684]
		}
	}, {
		"type": "Feature",
		"properties": {
			"cdli_id": "P469060",
			"collection": "Private Collection: Foroughi, Teheran, Iran",
			"credits": "Based on Grant Frame, Rulers of Babylonia: From the Second Dynasty of Isin to the End of Assyrian Domination (1157-612 BC) (RIMB 2; Toronto, 1995). Digitized, lemmatized, and updated by Alexa Bartelmus, 2015-16, for the Munich Open-access Cuneiform Corpus Initiative (MOCCI), a corpus-building initiative funded by LMU Munich and the Alexander von Humboldt Foundation (through the establishment of the Alexander von Humboldt Chair for Ancient History of the Near and Middle East) and based at the Historisches Seminar - Abteilung Alte Geschichte of Ludwig-Maximilians-Universität München. The annotated edition is released under the Creative Commons Attribution Share-Alike license 3.0. Please cite this page as http://oracc.org/ribo/Q006278/.",
			"date_of_origin": "12th-11th century",
			"designation": "Unidentified Second Isin Dynasty Ruler 1002",
			"display_name": "RIBo Unidentified Second Isin Dynasty Ruler 1002",
			"dynastic_seat": "Babyon",
			"exemplars": "Foroughi -",
			"genre": "Royal Inscription",
			"id_composite": "Q006278",
			"language": "Akkadian",
			"material": "metal",
			"object_type": "dagger",
			"period": "Middle Babylonian",
			"pleiades_id": "191400484",
			"popular_name": "RIMB 2 B.2.0.1002",
			"primary_publication": "Unidentified Second Isin Dynasty Ruler 1002",
			"provenience": "Luristan",
			"ruler": "uncertain",
			"script": "Neo-Babylonian",
			"script_remarks": "inscribed",
			"script_type": "Cuneiform",
			"subgenre": "Unidentified Second Isin Dynasty Ruler",
			"supergenre": "LIT"
		},
		"geometry": {
			"type": "Point",
			"coordinates": [48.4,33.6]
		}
	}]
}
