{
	"type": "FeatureCollection",
	"features": [{
		"type": "Feature",
		"properties": {
			"designation": "SAAS 2 A01",
			"atae_lists": "atae/saao:P395483",
			"date": "910-659",
			"accession_no": "K 04329",
			"archive": "099 - Miscellaneous",
			"cdli_accession_no": "K 04329",
			"cdli_id": "P395483",
			"cdli_museum_no": "BM —",
			"ch_name": "Assyrian Eponym List",
			"ch_no": "1",
			"ch_num_name": "1 (Assyrian Eponym List)",
			"collection": "British Museum, London, UK",
			"comp_wit": "witness",
			"credits": "Adapted from Alan Millard (with a contribution by Robert Whiting), The Eponyms of the Assyrian Empire 910-612 BC (State Archives of Assyria Studies 2), 1994. Adapted and lemmatised by Nathan Morello, 2019, as part of the research programme of the Alexander von Humboldt Chair in the Ancient History of the Near and Middle East at LMU Munich (Karen Radner, Humboldt Professorship 2015). The annotated edition is released under the Creative Commons Attribution Share-Alike license 3.0. Please cite this page as http://oracc.org/saao/P395483/.",
			"date_of_origin": "00.000.00.00",
			"display_name": "SAAS 2 A01",
			"edited_twice": "no",
			"genre": "Eponym List",
			"id_text": "P395483",
			"language": "Akkadian",
			"material": "clay",
			"museum_no": "BM —",
			"object_type": "tablet",
			"oracc_header": "&amp;P395483 = SAAS 2 A01#project: saao/saa22#atf: lang nb#key: file=SAA22/SAA22.saa#key: musno=K 04329#key: cdli=K 04329#key: date=uncertain#key: writer=#key: preservation=",
			"other_pub": "3 R 1",
			"period": "Neo-Assyrian",
			"please_cite": "Please cite this page as http://oracc.org/saao/P395483/.",
			"pleiades_id": "874621",
			"primary_publication": "3 R 1",
			"project": "saas2",
			"proposed_date": "(910-659)",
			"provenience": "Kuyunjik (Nineveh)",
			"rework": "no",
			"ruler": "uncertain",
			"saa_attribution": "Adapted from Alan Millard (with a contribution by Robert Whiting), The Eponyms of the Assyrian Empire 910-612 BC (State Archives of Assyria Studies 2), 1994. Adapted and lemmatised by Nathan Morello, 2019, as part of the research programme of the Alexander von Humboldt Chair in the Ancient History of the Near and Middle East at LMU Munich (Karen Radner, Humboldt Professorship 2015). The annotated edition is released under the Creative Commons Attribution Share-Alike license 3.0.",
			"saa_cdli_accession": "yes",
			"saa_cdli_id": "yes",
			"saa_cdli_museum": "yes",
			"saao_lists": "saao/saas2:P395483",
			"script": "Neo-Assyrian",
			"script_remarks": "inscribed",
			"script_type": "Cuneiform",
			"secondary_record": "no",
			"short_title": "Eponyms",
			"title": "Source A01",
			"vol_title": "Eponyms of the Assyrian Empire, 910-612 BC",
			"volume": "SAAS 2"
		},
		"geometry": {
			"type": "Point",
			"coordinates": [43.151937,36.358684]
		}
	}, {
		"type": "Feature",
		"properties": {
			"designation": "SAAS 2 A02",
			"atae_lists": "atae/saao:P395522",
			"date": "910-670",
			"accession_no": "K 04388",
			"archive": "099 - Miscellaneous",
			"cdli_accession_no": "K 04388",
			"cdli_id": "P395522",
			"cdli_museum_no": "BM —",
			"ch_name": "Assyrian Eponym List",
			"ch_no": "1",
			"ch_num_name": "1 (Assyrian Eponym List)",
			"collection": "British Museum, London, UK",
			"comp_wit": "witness",
			"credits": "Adapted from Alan Millard (with a contribution by Robert Whiting), The Eponyms of the Assyrian Empire 910-612 BC (State Archives of Assyria Studies 2), 1994. Adapted and lemmatised by Nathan Morello, 2019, as part of the research programme of the Alexander von Humboldt Chair in the Ancient History of the Near and Middle East at LMU Munich (Karen Radner, Humboldt Professorship 2015). The annotated edition is released under the Creative Commons Attribution Share-Alike license 3.0. Please cite this page as http://oracc.org/saao/P395522/.",
			"date_of_origin": "00.000.00.00",
			"display_name": "SAAS 2 A02",
			"edited_twice": "no",
			"genre": "Eponym List",
			"id_text": "P395522",
			"language": "Akkadian",
			"material": "clay",
			"museum_no": "BM —",
			"object_type": "tablet",
			"oracc_header": "&amp;P395522 = SAAS 2 A02#project: saao/saa22#atf: lang nb#key: file=SAA22/SAA22.saa#key: musno=K 04388#key: cdli=K 04388#key: date=uncertain#key: writer=#key: preservation=",
			"other_pub": "2 R 68 no. 2",
			"period": "Neo-Assyrian",
			"please_cite": "Please cite this page as http://oracc.org/saao/P395522/.",
			"pleiades_id": "874621",
			"primary_publication": "2 R 68 no. 2",
			"project": "saas2",
			"proposed_date": "(910-670)",
			"provenience": "Kuyunjik (Nineveh)",
			"rework": "no",
			"ruler": "uncertain",
			"saa_attribution": "Adapted from Alan Millard (with a contribution by Robert Whiting), The Eponyms of the Assyrian Empire 910-612 BC (State Archives of Assyria Studies 2), 1994. Adapted and lemmatised by Nathan Morello, 2019, as part of the research programme of the Alexander von Humboldt Chair in the Ancient History of the Near and Middle East at LMU Munich (Karen Radner, Humboldt Professorship 2015). The annotated edition is released under the Creative Commons Attribution Share-Alike license 3.0.",
			"saa_cdli_accession": "yes",
			"saa_cdli_id": "yes",
			"saa_cdli_museum": "yes",
			"saao_lists": "saao/saas2:P395522",
			"script": "Neo-Assyrian",
			"script_remarks": "inscribed",
			"script_type": "Cuneiform",
			"secondary_record": "no",
			"short_title": "Eponyms",
			"title": "Source A02",
			"vol_title": "Eponyms of the Assyrian Empire, 910-612 BC",
			"volume": "SAAS 2"
		},
		"geometry": {
			"type": "Point",
			"coordinates": [43.151937,36.358684]
		}
	}, {
		"type": "Feature",
		"properties": {
			"designation": "SAAS 2 A03",
			"atae_lists": "atae/saao:P395523",
			"date": "ca. 810-649",
			"accession_no": "K 04389",
			"archive": "099 - Miscellaneous",
			"cdli_accession_no": "K 04389",
			"cdli_id": "P395523",
			"cdli_museum_no": "BM —",
			"ch_name": "Assyrian Eponym List",
			"ch_no": "1",
			"ch_num_name": "1 (Assyrian Eponym List)",
			"collection": "British Museum, London, UK",
			"comp_wit": "witness",
			"credits": "Adapted from Alan Millard (with a contribution by Robert Whiting), The Eponyms of the Assyrian Empire 910-612 BC (State Archives of Assyria Studies 2), 1994. Adapted and lemmatised by Nathan Morello, 2019, as part of the research programme of the Alexander von Humboldt Chair in the Ancient History of the Near and Middle East at LMU Munich (Karen Radner, Humboldt Professorship 2015). The annotated edition is released under the Creative Commons Attribution Share-Alike license 3.0. Please cite this page as http://oracc.org/saao/P395523/.",
			"date_of_origin": "00.000.00.00",
			"display_name": "SAAS 2 A03",
			"edited_twice": "no",
			"genre": "Eponym List",
			"id_text": "P395523",
			"language": "Akkadian",
			"material": "clay",
			"museum_no": "BM —",
			"object_type": "tablet",
			"oracc_header": "&amp;P395523 = SAAS 2 A03#project: saao/saa22#atf: lang nb#key: file=SAA22/SAA22.saa#key: musno=K 04389#key: cdli=K 04389#key: date=uncertain#key: writer=#key: preservation=",
			"other_pub": "2 R 68 nos. 3, 5",
			"period": "Neo-Assyrian",
			"please_cite": "Please cite this page as http://oracc.org/saao/P395523/.",
			"pleiades_id": "874621",
			"primary_publication": "2 R 68 nos. 3, 5",
			"project": "saas2",
			"proposed_date": "(ca. 810-649)",
			"provenience": "Kuyunjik (Nineveh)",
			"rework": "no",
			"ruler": "uncertain",
			"saa_attribution": "Adapted from Alan Millard (with a contribution by Robert Whiting), The Eponyms of the Assyrian Empire 910-612 BC (State Archives of Assyria Studies 2), 1994. Adapted and lemmatised by Nathan Morello, 2019, as part of the research programme of the Alexander von Humboldt Chair in the Ancient History of the Near and Middle East at LMU Munich (Karen Radner, Humboldt Professorship 2015). The annotated edition is released under the Creative Commons Attribution Share-Alike license 3.0.",
			"saa_cdli_accession": "yes",
			"saa_cdli_id": "yes",
			"saa_cdli_museum": "yes",
			"saao_lists": "saao/saas2:P395523",
			"script": "Neo-Assyrian",
			"script_remarks": "inscribed",
			"script_type": "Cuneiform",
			"secondary_record": "no",
			"short_title": "Eponyms",
			"title": "Source A03",
			"vol_title": "Eponyms of the Assyrian Empire, 910-612 BC",
			"volume": "SAAS 2"
		},
		"geometry": {
			"type": "Point",
			"coordinates": [43.151937,36.358684]
		}
	}, {
		"type": "Feature",
		"properties": {
			"designation": "SAAS 2 A04",
			"atae_lists": "atae/saao:P395524",
			"date": "753-702",
			"accession_no": "K 04390",
			"archive": "099 - Miscellaneous",
			"cdli_accession_no": "K 04390",
			"cdli_id": "P395524",
			"cdli_museum_no": "BM —",
			"ch_name": "Assyrian Eponym List",
			"ch_no": "1",
			"ch_num_name": "1 (Assyrian Eponym List)",
			"collection": "British Museum, London, UK",
			"comp_wit": "witness",
			"credits": "Adapted from Alan Millard (with a contribution by Robert Whiting), The Eponyms of the Assyrian Empire 910-612 BC (State Archives of Assyria Studies 2), 1994. Adapted and lemmatised by Nathan Morello, 2019, as part of the research programme of the Alexander von Humboldt Chair in the Ancient History of the Near and Middle East at LMU Munich (Karen Radner, Humboldt Professorship 2015). The annotated edition is released under the Creative Commons Attribution Share-Alike license 3.0. Please cite this page as http://oracc.org/saao/P395524/.",
			"date_of_origin": "00.000.00.00",
			"display_name": "SAAS 2 A04",
			"edited_twice": "no",
			"genre": "Eponym List",
			"id_text": "P395524",
			"language": "Akkadian",
			"material": "clay",
			"museum_no": "BM —",
			"object_type": "tablet",
			"oracc_header": "&amp;P395524 = SAAS 2 A04#project: saao/saa22#atf: lang nb#key: file=SAA22/SAA22.saa#key: musno=K 04390#key: cdli=K 04390#key: date=uncertain#key: writer=#key: preservation=",
			"other_pub": "2 R 68 no. 4",
			"period": "Neo-Assyrian",
			"please_cite": "Please cite this page as http://oracc.org/saao/P395524/.",
			"pleiades_id": "874621",
			"primary_publication": "2 R 68 no. 4",
			"project": "saas2",
			"proposed_date": "(753-702)",
			"provenience": "Kuyunjik (Nineveh)",
			"rework": "no",
			"ruler": "uncertain",
			"saa_attribution": "Adapted from Alan Millard (with a contribution by Robert Whiting), The Eponyms of the Assyrian Empire 910-612 BC (State Archives of Assyria Studies 2), 1994. Adapted and lemmatised by Nathan Morello, 2019, as part of the research programme of the Alexander von Humboldt Chair in the Ancient History of the Near and Middle East at LMU Munich (Karen Radner, Humboldt Professorship 2015). The annotated edition is released under the Creative Commons Attribution Share-Alike license 3.0.",
			"saa_cdli_accession": "yes",
			"saa_cdli_id": "yes",
			"saa_cdli_museum": "yes",
			"saao_lists": "saao/saas2:P395524",
			"script": "Neo-Assyrian",
			"script_remarks": "inscribed",
			"script_type": "Cuneiform",
			"secondary_record": "no",
			"short_title": "Eponyms",
			"title": "Source A04",
			"vol_title": "Eponyms of the Assyrian Empire, 910-612 BC",
			"volume": "SAAS 2"
		},
		"geometry": {
			"type": "Point",
			"coordinates": [43.151937,36.358684]
		}
	}, {
		"type": "Feature",
		"properties": {
			"designation": "SAAS 2 A05",
			"atae_lists": "atae/saao:X000005",
			"date": "743-682",
			"accession_no": "1885-05-22, 0121",
			"add_no": "ADD 1098",
			"archive": "099 - Miscellaneous",
			"ch_name": "Assyrian Eponym List",
			"ch_no": "1",
			"ch_num_name": "1 (Assyrian Eponym List)",
			"collection": "British Museum, London, UK",
			"comp_wit": "witness",
			"credits": "Adapted from Alan Millard (with a contribution by Robert Whiting), The Eponyms of the Assyrian Empire 910-612 BC (State Archives of Assyria Studies 2), 1994. Adapted and lemmatised by Nathan Morello, 2019, as part of the research programme of the Alexander von Humboldt Chair in the Ancient History of the Near and Middle East at LMU Munich (Karen Radner, Humboldt Professorship 2015). The annotated edition is released under the Creative Commons Attribution Share-Alike license 3.0. Please cite this page as http://oracc.org/saao/X000005/.",
			"date_of_origin": "00.000.00.00",
			"display_name": "SAAS 2 A05",
			"edited_twice": "no",
			"editorial_comments": "[JN] Request CDLI ID.",
			"genre": "Eponym List",
			"id_text": "X000005",
			"language": "Akkadian",
			"material": "clay",
			"museum_no": "BM —",
			"object_type": "tablet",
			"oracc_header": "&amp;X000005 = SAAS 2 A05#project: saao/saa22#atf: lang nb#key: file=SAA22/SAA22.saa#key: musno=1885-05-22, 0121#key: cdli=1885-05-22, 0121#key: date=uncertain#key: writer=#key: preservation=",
			"period": "Neo-Assyrian",
			"please_cite": "Please cite this page as http://oracc.org/saao/X000005/.",
			"pleiades_id": "874621",
			"primary_publication": "ADD 1098",
			"project": "saas2",
			"provenience": "Kuyunjik (Nineveh)",
			"rework": "yes",
			"ruler": "uncertain",
			"saa_attribution": "Adapted from Alan Millard (with a contribution by Robert Whiting), The Eponyms of the Assyrian Empire 910-612 BC (State Archives of Assyria Studies 2), 1994. Adapted and lemmatised by Nathan Morello, 2019, as part of the research programme of the Alexander von Humboldt Chair in the Ancient History of the Near and Middle East at LMU Munich (Karen Radner, Humboldt Professorship 2015). The annotated edition is released under the Creative Commons Attribution Share-Alike license 3.0.",
			"saa_cdli_accession": "no",
			"saa_cdli_id": "no",
			"saa_cdli_museum": "no",
			"saao_lists": "saao/saas2:X000005",
			"script": "Neo-Assyrian",
			"script_remarks": "inscribed",
			"script_type": "Cuneiform",
			"secondary_record": "no",
			"short_title": "Eponyms",
			"title": "Source A05",
			"vol_title": "Eponyms of the Assyrian Empire, 910-612 BC",
			"volume": "SAAS 2"
		},
		"geometry": {
			"type": "Point",
			"coordinates": [43.151937,36.358684]
		}
	}, {
		"type": "Feature",
		"properties": {
			"designation": "SAAS 2 A06",
			"atae_lists": "atae/saao:P424845",
			"date": "955-697",
			"accession_no": "Rm 0580",
			"archive": "099 - Miscellaneous",
			"cdli_accession_no": "Rm 0580",
			"cdli_id": "P424845",
			"cdli_museum_no": "BM —",
			"ch_name": "Assyrian Eponym List",
			"ch_no": "1",
			"ch_num_name": "1 (Assyrian Eponym List)",
			"collection": "British Museum, London, UK",
			"comp_wit": "witness",
			"credits": "Adapted from Alan Millard (with a contribution by Robert Whiting), The Eponyms of the Assyrian Empire 910-612 BC (State Archives of Assyria Studies 2), 1994. Adapted and lemmatised by Nathan Morello, 2019, as part of the research programme of the Alexander von Humboldt Chair in the Ancient History of the Near and Middle East at LMU Munich (Karen Radner, Humboldt Professorship 2015). The annotated edition is released under the Creative Commons Attribution Share-Alike license 3.0. Please cite this page as http://oracc.org/saao/P424845/.",
			"date_of_origin": "00.000.00.00",
			"display_name": "SAAS 2 A06",
			"edited_twice": "no",
			"genre": "Eponym List",
			"id_text": "P424845",
			"language": "Akkadian",
			"material": "clay",
			"museum_no": "BM —",
			"object_type": "tablet",
			"oracc_header": "&amp;P424845 = SAAS 2 A06#project: saao/saa22#atf: lang nb#key: file=SAA22/SAA22.saa#key: musno=Rm 0580#key: cdli=Rm 0580#key: date=uncertain#key: writer=#key: preservation=",
			"other_pub": "Brinkman, NABU 1989 no. 3, 51",
			"period": "Neo-Assyrian",
			"please_cite": "Please cite this page as http://oracc.org/saao/P424845/.",
			"pleiades_id": "874621",
			"primary_publication": "Brinkman, NABU 1989 no. 3, 51",
			"project": "saas2",
			"proposed_date": "(955-697)",
			"provenience": "Kuyunjik (Nineveh)",
			"rework": "no",
			"ruler": "uncertain",
			"saa_attribution": "Adapted from Alan Millard (with a contribution by Robert Whiting), The Eponyms of the Assyrian Empire 910-612 BC (State Archives of Assyria Studies 2), 1994. Adapted and lemmatised by Nathan Morello, 2019, as part of the research programme of the Alexander von Humboldt Chair in the Ancient History of the Near and Middle East at LMU Munich (Karen Radner, Humboldt Professorship 2015). The annotated edition is released under the Creative Commons Attribution Share-Alike license 3.0.",
			"saa_cdli_accession": "yes",
			"saa_cdli_id": "yes",
			"saa_cdli_museum": "yes",
			"saao_lists": "saao/saas2:P424845",
			"script": "Neo-Assyrian",
			"script_remarks": "inscribed",
			"script_type": "Cuneiform",
			"secondary_record": "no",
			"short_title": "Eponyms",
			"title": "Source A06",
			"vol_title": "Eponyms of the Assyrian Empire, 910-612 BC",
			"volume": "SAAS 2"
		},
		"geometry": {
			"type": "Point",
			"coordinates": [43.151937,36.358684]
		}
	}, {
		"type": "Feature",
		"properties": {
			"designation": "SAAS 2 A07",
			"atae_lists": "atae/saao:P285503",
			"date": "872-659",
			"archive": "099 - Miscellaneous",
			"cdli_id": "P285503",
			"cdli_museum_no": "VAT 11254 + VAT 11257+ VAT 11259a + VAT 11276",
			"ch_name": "Assyrian Eponym List",
			"ch_no": "1",
			"ch_num_name": "1 (Assyrian Eponym List)",
			"collection": "Vorderasiatisches Museum, Berlin, Germany",
			"comp_wit": "witness",
			"credits": "Adapted from Alan Millard (with a contribution by Robert Whiting), The Eponyms of the Assyrian Empire 910-612 BC (State Archives of Assyria Studies 2), 1994. Adapted and lemmatised by Nathan Morello, 2019, as part of the research programme of the Alexander von Humboldt Chair in the Ancient History of the Near and Middle East at LMU Munich (Karen Radner, Humboldt Professorship 2015). The annotated edition is released under the Creative Commons Attribution Share-Alike license 3.0. Please cite this page as http://oracc.org/saao/P285503/.",
			"date_of_origin": "00.000.00.00",
			"display_name": "SAAS 2 A07",
			"edited_twice": "no",
			"genre": "Eponym List",
			"id_text": "P285503",
			"kav_no": "KAV 021",
			"language": "Akkadian",
			"material": "clay",
			"museum_no": "VAT 11254 + VAT 11257+ VAT 11259a + VAT 11276",
			"object_type": "tablet",
			"oracc_header": "&amp;P285503 = SAAS 2 A07#project: saao/saa22#atf: lang nb#key: file=SAA22/SAA22.saa#key: musno=#key: cdli=#key: date=uncertain#key: writer=#key: preservation=",
			"period": "Neo-Assyrian",
			"please_cite": "Please cite this page as http://oracc.org/saao/P285503/.",
			"pleiades_id": "893945",
			"primary_publication": "KAV 021",
			"project": "saas2",
			"proposed_date": "(872-659)",
			"provenience": "Qalat Sherqat (Assur)",
			"rework": "no",
			"ruler": "uncertain",
			"saa_attribution": "Adapted from Alan Millard (with a contribution by Robert Whiting), The Eponyms of the Assyrian Empire 910-612 BC (State Archives of Assyria Studies 2), 1994. Adapted and lemmatised by Nathan Morello, 2019, as part of the research programme of the Alexander von Humboldt Chair in the Ancient History of the Near and Middle East at LMU Munich (Karen Radner, Humboldt Professorship 2015). The annotated edition is released under the Creative Commons Attribution Share-Alike license 3.0.",
			"saa_cdli_id": "yes",
			"saa_cdli_museum": "yes",
			"saao_lists": "saao/saas2:P285503",
			"script": "Neo-Assyrian",
			"script_remarks": "inscribed",
			"script_type": "Cuneiform",
			"secondary_record": "no",
			"short_title": "Eponyms",
			"title": "Source A07",
			"vol_title": "Eponyms of the Assyrian Empire, 910-612 BC",
			"volume": "SAAS 2"
		},
		"geometry": {
			"type": "Point",
			"coordinates": [43.262037,35.458121]
		}
	}, {
		"type": "Feature",
		"properties": {
			"designation": "SAAS 2 A08",
			"atae_lists": "atae/saao:P338365",
			"date": "910-750",
			"archive": "001 - Qurdi-Nergal Archive",
			"cdli_excavation_no": "SU 1952, 150",
			"cdli_id": "P338365",
			"cdli_museum_no": "AMM —",
			"ch_name": "Assyrian Eponym List",
			"ch_no": "1",
			"ch_num_name": "1 (Assyrian Eponym List)",
			"collection": "Anadolu Medeniyetleri Müzesi, Ankara, Turkey",
			"comp_wit": "witness",
			"credits": "Adapted from Alan Millard (with a contribution by Robert Whiting), The Eponyms of the Assyrian Empire 910-612 BC (State Archives of Assyria Studies 2), 1994. Adapted and lemmatised by Nathan Morello, 2019, as part of the research programme of the Alexander von Humboldt Chair in the Ancient History of the Near and Middle East at LMU Munich (Karen Radner, Humboldt Professorship 2015). The annotated edition is released under the Creative Commons Attribution Share-Alike license 3.0. Please cite this page as http://oracc.org/saao/P338365/.",
			"date_of_origin": "00.000.00.00",
			"display_name": "SAAS 2 A08",
			"edited_twice": "no",
			"excavation_no": "SU 1952, 150",
			"genre": "Eponym List",
			"id_text": "P338365",
			"language": "Akkadian",
			"material": "clay",
			"museum_no": "AMM —",
			"object_type": "tablet",
			"oracc_header": "&amp;P338365 = SAAS 2 A08#project: saao/saa22#atf: lang nb#key: file=SAA22/SAA22.saa#key: musno=#key: cdli=#key: date=uncertain#key: writer=#key: preservation=",
			"period": "Neo-Assyrian",
			"please_cite": "Please cite this page as http://oracc.org/saao/P338365/.",
			"pleiades_id": "9249509021",
			"primary_publication": "STT 047",
			"project": "saas2",
			"proposed_date": "(910-750)",
			"provenience": "Sultantepe (Huzirina)",
			"rework": "no",
			"ruler": "uncertain",
			"saa_attribution": "Adapted from Alan Millard (with a contribution by Robert Whiting), The Eponyms of the Assyrian Empire 910-612 BC (State Archives of Assyria Studies 2), 1994. Adapted and lemmatised by Nathan Morello, 2019, as part of the research programme of the Alexander von Humboldt Chair in the Ancient History of the Near and Middle East at LMU Munich (Karen Radner, Humboldt Professorship 2015). The annotated edition is released under the Creative Commons Attribution Share-Alike license 3.0.",
			"saa_cdli_excavation": "yes",
			"saa_cdli_id": "yes",
			"saa_cdli_museum": "yes",
			"saao_lists": "saao/saas2:P338365",
			"script": "Neo-Assyrian",
			"script_remarks": "inscribed",
			"script_type": "Cuneiform",
			"secondary_record": "no",
			"short_title": "Eponyms",
			"stt_no": "STT 047",
			"title": "Source A08",
			"vol_title": "Eponyms of the Assyrian Empire, 910-612 BC",
			"volume": "SAAS 2"
		},
		"geometry": {
			"type": "Point",
			"coordinates": [38.9061,37.05]
		}
	}, {
		"type": "Feature",
		"properties": {
			"designation": "SAAS 2 A09",
			"atae_lists": "atae/saao:P285502",
			"date": "719-662",
			"archive": "016 - N 05 Archive",
			"cdli_id": "P285502",
			"cdli_museum_no": "VA 08249",
			"ch_name": "Assyrian Eponym List",
			"ch_no": "1",
			"ch_num_name": "1 (Assyrian Eponym List)",
			"collection": "Vorderasiatisches Museum, Berlin, Germany",
			"comp_wit": "witness",
			"credits": "Adapted from Alan Millard (with a contribution by Robert Whiting), The Eponyms of the Assyrian Empire 910-612 BC (State Archives of Assyria Studies 2), 1994. Adapted and lemmatised by Nathan Morello, 2019, as part of the research programme of the Alexander von Humboldt Chair in the Ancient History of the Near and Middle East at LMU Munich (Karen Radner, Humboldt Professorship 2015). The annotated edition is released under the Creative Commons Attribution Share-Alike license 3.0. Please cite this page as http://oracc.org/saao/P285502/.",
			"date_of_origin": "00.000.00.00",
			"display_name": "SAAS 2 A09",
			"edited_twice": "no",
			"genre": "Eponym List",
			"id_text": "P285502",
			"kav_no": "KAV 020",
			"language": "Akkadian",
			"material": "clay",
			"museum_no": "VA 08249",
			"object_type": "tablet",
			"oracc_header": "&amp;P285502 = SAAS 2 A09#project: saao/saa22#atf: lang nb#key: file=SAA22/SAA22.saa#key: musno=#key: cdli=#key: date=uncertain#key: writer=#key: preservation=",
			"period": "Neo-Assyrian",
			"please_cite": "Please cite this page as http://oracc.org/saao/P285502/.",
			"pleiades_id": "893945",
			"primary_publication": "KAV 020",
			"project": "saas2",
			"proposed_date": "(719-662)",
			"provenience": "Qalat Sherqat (Assur)",
			"rework": "no",
			"ruler": "uncertain",
			"saa_attribution": "Adapted from Alan Millard (with a contribution by Robert Whiting), The Eponyms of the Assyrian Empire 910-612 BC (State Archives of Assyria Studies 2), 1994. Adapted and lemmatised by Nathan Morello, 2019, as part of the research programme of the Alexander von Humboldt Chair in the Ancient History of the Near and Middle East at LMU Munich (Karen Radner, Humboldt Professorship 2015). The annotated edition is released under the Creative Commons Attribution Share-Alike license 3.0.",
			"saa_cdli_id": "yes",
			"saa_cdli_museum": "yes",
			"saao_lists": "saao/saas2:P285502",
			"script": "Neo-Assyrian",
			"script_remarks": "inscribed",
			"script_type": "Cuneiform",
			"secondary_record": "no",
			"short_title": "Eponyms",
			"title": "Source A09",
			"vol_title": "Eponyms of the Assyrian Empire, 910-612 BC",
			"volume": "SAAS 2"
		},
		"geometry": {
			"type": "Point",
			"coordinates": [43.262037,35.458121]
		}
	}, {
		"type": "Feature",
		"properties": {
			"designation": "SAAS 2 B01",
			"atae_lists": "atae/saao:P393730",
			"date": "817-727",
			"accession_no": "K 00051",
			"archive": "099 - Miscellaneous",
			"cdli_accession_no": "K 00051",
			"cdli_id": "P393730",
			"cdli_museum_no": "BM —",
			"ch_name": "Assyrian Eponym Chronicle",
			"ch_no": "2",
			"ch_num_name": "2 (Assyrian Eponym Chronicle)",
			"collection": "British Museum, London, UK",
			"comp_wit": "witness",
			"credits": "Adapted from Alan Millard (with a contribution by Robert Whiting), The Eponyms of the Assyrian Empire 910-612 BC (State Archives of Assyria Studies 2), 1994. Adapted and lemmatised by Nathan Morello, 2019, as part of the research programme of the Alexander von Humboldt Chair in the Ancient History of the Near and Middle East at LMU Munich (Karen Radner, Humboldt Professorship 2015). The annotated edition is released under the Creative Commons Attribution Share-Alike license 3.0. Please cite this page as http://oracc.org/saao/P393730/.",
			"date_of_origin": "00.000.00.00",
			"display_name": "SAAS 2 B01",
			"edited_twice": "no",
			"genre": "Eponym Chronicle",
			"id_text": "P393730",
			"language": "Akkadian",
			"material": "clay",
			"museum_no": "BM —",
			"object_type": "tablet",
			"oracc_header": "&amp;P393730 = SAAS 2 B01#project: saao/saa22#atf: lang nb#key: file=SAA22/SAA22.saa#key: musno=K 00051#key: cdli=K 00051#key: date=uncertain#key: writer=#key: preservation=",
			"other_pub": "2 R 52 no. 1",
			"period": "Neo-Assyrian",
			"please_cite": "Please cite this page as http://oracc.org/saao/P393730/.",
			"pleiades_id": "874621",
			"primary_publication": "2 R 52 no. 1",
			"project": "saas2",
			"proposed_date": "(817-727)",
			"provenience": "Kuyunjik (Nineveh)",
			"rework": "no",
			"ruler": "uncertain",
			"saa_attribution": "Adapted from Alan Millard (with a contribution by Robert Whiting), The Eponyms of the Assyrian Empire 910-612 BC (State Archives of Assyria Studies 2), 1994. Adapted and lemmatised by Nathan Morello, 2019, as part of the research programme of the Alexander von Humboldt Chair in the Ancient History of the Near and Middle East at LMU Munich (Karen Radner, Humboldt Professorship 2015). The annotated edition is released under the Creative Commons Attribution Share-Alike license 3.0.",
			"saa_cdli_accession": "yes",
			"saa_cdli_id": "yes",
			"saa_cdli_museum": "yes",
			"saao_lists": "saao/saas2:P393730",
			"script": "Neo-Assyrian",
			"script_remarks": "inscribed",
			"script_type": "Cuneiform",
			"secondary_record": "no",
			"short_title": "Eponyms",
			"title": "Source B01",
			"vol_title": "Eponyms of the Assyrian Empire, 910-612 BC",
			"volume": "SAAS 2"
		},
		"geometry": {
			"type": "Point",
			"coordinates": [43.151937,36.358684]
		}
	}, {
		"type": "Feature",
		"properties": {
			"designation": "SAAS 2 B10",
			"atae_lists": "atae/saao:P338364",
			"date": "840-765",
			"archive": "001 - Qurdi-Nergal Archive",
			"cdli_excavation_no": "SU 1952, 021",
			"cdli_id": "P338364",
			"cdli_museum_no": "AMM —",
			"ch_name": "Assyrian Eponym Chronicle",
			"ch_no": "2",
			"ch_num_name": "2 (Assyrian Eponym Chronicle)",
			"collection": "Anadolu Medeniyetleri Müzesi, Ankara, Turkey",
			"comp_wit": "witness",
			"credits": "Adapted from Alan Millard (with a contribution by Robert Whiting), The Eponyms of the Assyrian Empire 910-612 BC (State Archives of Assyria Studies 2), 1994. Adapted and lemmatised by Nathan Morello, 2019, as part of the research programme of the Alexander von Humboldt Chair in the Ancient History of the Near and Middle East at LMU Munich (Karen Radner, Humboldt Professorship 2015). The annotated edition is released under the Creative Commons Attribution Share-Alike license 3.0. Please cite this page as http://oracc.org/saao/P338364/.",
			"date_of_origin": "00.000.00.00",
			"display_name": "SAAS 2 B02",
			"edited_twice": "no",
			"excavation_no": "SU 1952, 018 + SU 1952, 018A + SU 1952, 021 + SU 1952, 333 + SU 1952, 227",
			"genre": "Eponym Chronicle",
			"id_text": "P338364",
			"language": "Akkadian",
			"material": "clay",
			"museum_no": "AMM —",
			"object_type": "tablet",
			"oracc_header": "&amp;P338364 = SAAS 2 B10#project: saao/saa22#atf: lang nb#key: file=SAA22/SAA22.saa#key: musno=#key: cdli=#key: date=uncertain#key: writer=#key: preservation=",
			"period": "Neo-Assyrian",
			"please_cite": "Please cite this page as http://oracc.org/saao/P338364/.",
			"pleiades_id": "9249509021",
			"primary_publication": "STT 046 + STT 348",
			"project": "saas2",
			"proposed_date": "(840-765)",
			"provenience": "Sultantepe (Huzirina)",
			"rework": "no",
			"ruler": "uncertain",
			"saa_attribution": "Adapted from Alan Millard (with a contribution by Robert Whiting), The Eponyms of the Assyrian Empire 910-612 BC (State Archives of Assyria Studies 2), 1994. Adapted and lemmatised by Nathan Morello, 2019, as part of the research programme of the Alexander von Humboldt Chair in the Ancient History of the Near and Middle East at LMU Munich (Karen Radner, Humboldt Professorship 2015). The annotated edition is released under the Creative Commons Attribution Share-Alike license 3.0.",
			"saa_cdli_excavation": "no",
			"saa_cdli_id": "yes",
			"saa_cdli_museum": "yes",
			"saao_lists": "saao/saas2:P338364",
			"script": "Neo-Assyrian",
			"script_remarks": "inscribed",
			"script_type": "Cuneiform",
			"secondary_record": "no",
			"short_title": "Eponyms",
			"stt_no": "STT 046 + STT 348",
			"title": "Source B10",
			"vol_title": "Eponyms of the Assyrian Empire, 910-612 BC",
			"volume": "SAAS 2"
		},
		"geometry": {
			"type": "Point",
			"coordinates": [38.9061,37.05]
		}
	}, {
		"type": "Feature",
		"properties": {
			"designation": "SAAS 2 B02",
			"atae_lists": "atae/saao:P394989",
			"date": "810-746",
			"accession_no": "K 03403 + 1881-02-04, 0187 + 1895-04-06, 0004",
			"archive": "099 - Miscellaneous",
			"cdli_accession_no": "K 03403 + 1881-02-04, 0187 + 1895-04-06, 0004",
			"cdli_id": "P394989",
			"cdli_museum_no": "BM —",
			"ch_name": "Assyrian Eponym Chronicle",
			"ch_no": "2",
			"ch_num_name": "2 (Assyrian Eponym Chronicle)",
			"collection": "British Museum, London, UK",
			"comp_wit": "witness",
			"credits": "Adapted from Alan Millard (with a contribution by Robert Whiting), The Eponyms of the Assyrian Empire 910-612 BC (State Archives of Assyria Studies 2), 1994. Adapted and lemmatised by Nathan Morello, 2019, as part of the research programme of the Alexander von Humboldt Chair in the Ancient History of the Near and Middle East at LMU Munich (Karen Radner, Humboldt Professorship 2015). The annotated edition is released under the Creative Commons Attribution Share-Alike license 3.0. Please cite this page as http://oracc.org/saao/P394989/.",
			"date_of_origin": "00.000.00.00",
			"display_name": "SAAS 2 B03",
			"edited_twice": "no",
			"genre": "Eponym Chronicle",
			"id_text": "P394989",
			"language": "Akkadian",
			"material": "clay",
			"museum_no": "BM —",
			"object_type": "tablet",
			"oracc_header": "&amp;P394989 = SAAS 2 B02#project: saao/saa22#atf: lang nb#key: file=SAA22/SAA22.saa#key: musno=K 03403 + 1881-02-04, 0187 + 1895-04-06, 0004#key: cdli=K 03403 + 1881-02-04, 0187 + 1895-04-06, 0004#key: date=uncertain#key: writer=#key: preservation=",
			"other_pub": "BSBA 11, 286",
			"period": "Neo-Assyrian",
			"please_cite": "Please cite this page as http://oracc.org/saao/P394989/.",
			"pleiades_id": "874621",
			"primary_publication": "BSBA 11, 286",
			"project": "saas2",
			"proposed_date": "(810-746)",
			"provenience": "Kuyunjik (Nineveh)",
			"rework": "no",
			"ruler": "uncertain",
			"saa_attribution": "Adapted from Alan Millard (with a contribution by Robert Whiting), The Eponyms of the Assyrian Empire 910-612 BC (State Archives of Assyria Studies 2), 1994. Adapted and lemmatised by Nathan Morello, 2019, as part of the research programme of the Alexander von Humboldt Chair in the Ancient History of the Near and Middle East at LMU Munich (Karen Radner, Humboldt Professorship 2015). The annotated edition is released under the Creative Commons Attribution Share-Alike license 3.0.",
			"saa_cdli_accession": "yes",
			"saa_cdli_id": "yes",
			"saa_cdli_museum": "yes",
			"saao_lists": "saao/saas2:P394989",
			"script": "Neo-Assyrian",
			"script_remarks": "inscribed",
			"script_type": "Cuneiform",
			"secondary_record": "no",
			"short_title": "Eponyms",
			"title": "Source B02",
			"vol_title": "Eponyms of the Assyrian Empire, 910-612 BC",
			"volume": "SAAS 2"
		},
		"geometry": {
			"type": "Point",
			"coordinates": [43.151937,36.358684]
		}
	}, {
		"type": "Feature",
		"properties": {
			"designation": "SAAS 2 B03",
			"atae_lists": "atae/saao:P394868",
			"date": "732-722",
			"accession_no": "K 03202",
			"archive": "099 - Miscellaneous",
			"cdli_accession_no": "K 03202",
			"cdli_id": "P394868",
			"cdli_museum_no": "BM —",
			"ch_name": "Assyrian Eponym Chronicle",
			"ch_no": "2",
			"ch_num_name": "2 (Assyrian Eponym Chronicle)",
			"collection": "British Museum, London, UK",
			"comp_wit": "witness",
			"credits": "Adapted from Alan Millard (with a contribution by Robert Whiting), The Eponyms of the Assyrian Empire 910-612 BC (State Archives of Assyria Studies 2), 1994. Adapted and lemmatised by Nathan Morello, 2019, as part of the research programme of the Alexander von Humboldt Chair in the Ancient History of the Near and Middle East at LMU Munich (Karen Radner, Humboldt Professorship 2015). The annotated edition is released under the Creative Commons Attribution Share-Alike license 3.0. Please cite this page as http://oracc.org/saao/P394868/.",
			"date_of_origin": "00.000.00.00",
			"display_name": "SAAS 2 B04",
			"edited_twice": "no",
			"genre": "Eponym Chronicle",
			"id_text": "P394868",
			"language": "Akkadian",
			"material": "clay",
			"museum_no": "BM —",
			"object_type": "tablet",
			"oracc_header": "&amp;P394868 = SAAS 2 B03#project: saao/saa22#atf: lang nb#key: file=SAA22/SAA22.saa#key: musno=K 03202#key: cdli=K 03202#key: date=uncertain#key: writer=#key: preservation=",
			"other_pub": "Brinkman, NABU 1989 no. 3, 51",
			"period": "Neo-Assyrian",
			"please_cite": "Please cite this page as http://oracc.org/saao/P394868/.",
			"pleiades_id": "874621",
			"primary_publication": "Brinkman, NABU 1989 no. 3, 51",
			"project": "saas2",
			"proposed_date": "(732-722)",
			"provenience": "Kuyunjik (Nineveh)",
			"rework": "no",
			"ruler": "uncertain",
			"saa_attribution": "Adapted from Alan Millard (with a contribution by Robert Whiting), The Eponyms of the Assyrian Empire 910-612 BC (State Archives of Assyria Studies 2), 1994. Adapted and lemmatised by Nathan Morello, 2019, as part of the research programme of the Alexander von Humboldt Chair in the Ancient History of the Near and Middle East at LMU Munich (Karen Radner, Humboldt Professorship 2015). The annotated edition is released under the Creative Commons Attribution Share-Alike license 3.0.",
			"saa_cdli_accession": "yes",
			"saa_cdli_id": "yes",
			"saa_cdli_museum": "yes",
			"saao_lists": "saao/saas2:P394868",
			"script": "Neo-Assyrian",
			"script_remarks": "inscribed",
			"script_type": "Cuneiform",
			"secondary_record": "no",
			"short_title": "Eponyms",
			"title": "Source B03",
			"vol_title": "Eponyms of the Assyrian Empire, 910-612 BC",
			"volume": "SAAS 2"
		},
		"geometry": {
			"type": "Point",
			"coordinates": [43.151937,36.358684]
		}
	}, {
		"type": "Feature",
		"properties": {
			"designation": "SAAS 2 B04",
			"atae_lists": "atae/saao:P424937",
			"date": "841-706",
			"accession_no": "Rm 2, 097",
			"archive": "099 - Miscellaneous",
			"cdli_accession_no": "Rm 2, 097",
			"cdli_id": "P424937",
			"cdli_museum_no": "BM —",
			"ch_name": "Assyrian Eponym Chronicle",
			"ch_no": "2",
			"ch_num_name": "2 (Assyrian Eponym Chronicle)",
			"collection": "British Museum, London, UK",
			"comp_wit": "witness",
			"credits": "Adapted from Alan Millard (with a contribution by Robert Whiting), The Eponyms of the Assyrian Empire 910-612 BC (State Archives of Assyria Studies 2), 1994. Adapted and lemmatised by Nathan Morello, 2019, as part of the research programme of the Alexander von Humboldt Chair in the Ancient History of the Near and Middle East at LMU Munich (Karen Radner, Humboldt Professorship 2015). The annotated edition is released under the Creative Commons Attribution Share-Alike license 3.0. Please cite this page as http://oracc.org/saao/P424937/.",
			"date_of_origin": "00.000.00.00",
			"display_name": "SAAS 2 B05",
			"edited_twice": "no",
			"genre": "Eponym Chronicle",
			"id_text": "P424937",
			"language": "Akkadian",
			"material": "clay",
			"museum_no": "BM —",
			"object_type": "tablet",
			"oracc_header": "&amp;P424937 = SAAS 2 B04#project: saao/saa22#atf: lang nb#key: file=SAA22/SAA22.saa#key: musno=Rm 2, 097#key: cdli=Rm 2, 097#key: date=uncertain#key: writer=#key: preservation=",
			"other_pub": "PSBA 11, 298 pl. III",
			"period": "Neo-Assyrian",
			"please_cite": "Please cite this page as http://oracc.org/saao/P424937/.",
			"pleiades_id": "874621",
			"primary_publication": "PSBA 11, 298 pl. III",
			"project": "saas2",
			"proposed_date": "(841-706)",
			"provenience": "Kuyunjik (Nineveh)",
			"rework": "no",
			"ruler": "uncertain",
			"saa_attribution": "Adapted from Alan Millard (with a contribution by Robert Whiting), The Eponyms of the Assyrian Empire 910-612 BC (State Archives of Assyria Studies 2), 1994. Adapted and lemmatised by Nathan Morello, 2019, as part of the research programme of the Alexander von Humboldt Chair in the Ancient History of the Near and Middle East at LMU Munich (Karen Radner, Humboldt Professorship 2015). The annotated edition is released under the Creative Commons Attribution Share-Alike license 3.0.",
			"saa_cdli_accession": "yes",
			"saa_cdli_id": "yes",
			"saa_cdli_museum": "yes",
			"saao_lists": "saao/saas2:P424937",
			"script": "Neo-Assyrian",
			"script_remarks": "inscribed",
			"script_type": "Cuneiform",
			"secondary_record": "no",
			"short_title": "Eponyms",
			"title": "Source B04",
			"vol_title": "Eponyms of the Assyrian Empire, 910-612 BC",
			"volume": "SAAS 2"
		},
		"geometry": {
			"type": "Point",
			"coordinates": [43.151937,36.358684]
		}
	}, {
		"type": "Feature",
		"properties": {
			"designation": "SAAS 2 B05",
			"atae_lists": "atae/saao:X000015",
			"date": "858-847",
			"accession_no": "1885-05-22, 0526",
			"archive": "099 - Miscellaneous",
			"ch_name": "Assyrian Eponym Chronicle",
			"ch_no": "2",
			"ch_num_name": "2 (Assyrian Eponym Chronicle)",
			"collection": "British Museum, London, UK",
			"comp_wit": "witness",
			"credits": "Adapted from Alan Millard (with a contribution by Robert Whiting), The Eponyms of the Assyrian Empire 910-612 BC (State Archives of Assyria Studies 2), 1994. Adapted and lemmatised by Nathan Morello, 2019, as part of the research programme of the Alexander von Humboldt Chair in the Ancient History of the Near and Middle East at LMU Munich (Karen Radner, Humboldt Professorship 2015). The annotated edition is released under the Creative Commons Attribution Share-Alike license 3.0. Please cite this page as http://oracc.org/saao/X000015/.",
			"date_of_origin": "00.000.00.00",
			"display_name": "SAAS 2 B06",
			"edited_twice": "no",
			"editorial_comments": "[JN] Request CDLI ID.",
			"genre": "Eponym Chronicle",
			"id_text": "X000015",
			"language": "Akkadian",
			"material": "clay",
			"museum_no": "BM —",
			"object_type": "tablet",
			"oracc_header": "&amp;X000015 = SAAS 2 B05#project: saao/saa22#atf: lang nb#key: file=SAA22/SAA22.saa#key: musno=1885-05-22, 0526#key: cdli=1885-05-22, 0526#key: date=uncertain#key: writer=#key: preservation=",
			"other_pub": "PSBA 11, 297 pl. III",
			"period": "Neo-Assyrian",
			"please_cite": "Please cite this page as http://oracc.org/saao/X000015/.",
			"pleiades_id": "874621",
			"primary_publication": "PSBA 11, 297 pl. III",
			"project": "saas2",
			"provenience": "Kuyunjik (Nineveh)",
			"rework": "yes",
			"ruler": "uncertain",
			"saa_attribution": "Adapted from Alan Millard (with a contribution by Robert Whiting), The Eponyms of the Assyrian Empire 910-612 BC (State Archives of Assyria Studies 2), 1994. Adapted and lemmatised by Nathan Morello, 2019, as part of the research programme of the Alexander von Humboldt Chair in the Ancient History of the Near and Middle East at LMU Munich (Karen Radner, Humboldt Professorship 2015). The annotated edition is released under the Creative Commons Attribution Share-Alike license 3.0.",
			"saa_cdli_accession": "no",
			"saa_cdli_id": "no",
			"saa_cdli_museum": "no",
			"saao_lists": "saao/saas2:X000015",
			"script": "Neo-Assyrian",
			"script_remarks": "inscribed",
			"script_type": "Cuneiform",
			"secondary_record": "no",
			"short_title": "Eponyms",
			"title": "Source B05",
			"vol_title": "Eponyms of the Assyrian Empire, 910-612 BC",
			"volume": "SAAS 2"
		},
		"geometry": {
			"type": "Point",
			"coordinates": [43.151937,36.358684]
		}
	}, {
		"type": "Feature",
		"properties": {
			"designation": "SAAS 2 B06",
			"atae_lists": "atae/saao:P395555",
			"date": "818-703",
			"accession_no": "K 04446",
			"archive": "099 - Miscellaneous",
			"cdli_accession_no": "K 04446",
			"cdli_id": "P395555",
			"cdli_museum_no": "BM —",
			"ch_name": "Assyrian Eponym Chronicle",
			"ch_no": "2",
			"ch_num_name": "2 (Assyrian Eponym Chronicle)",
			"collection": "British Museum, London, UK",
			"comp_wit": "witness",
			"credits": "Adapted from Alan Millard (with a contribution by Robert Whiting), The Eponyms of the Assyrian Empire 910-612 BC (State Archives of Assyria Studies 2), 1994. Adapted and lemmatised by Nathan Morello, 2019, as part of the research programme of the Alexander von Humboldt Chair in the Ancient History of the Near and Middle East at LMU Munich (Karen Radner, Humboldt Professorship 2015). The annotated edition is released under the Creative Commons Attribution Share-Alike license 3.0. Please cite this page as http://oracc.org/saao/P395555/.",
			"date_of_origin": "00.000.00.00",
			"display_name": "SAAS 2 B07",
			"edited_twice": "no",
			"genre": "Eponym Chronicle",
			"id_text": "P395555",
			"language": "Akkadian",
			"material": "clay",
			"museum_no": "BM —",
			"object_type": "tablet",
			"oracc_header": "&amp;P395555 = SAAS 2 B06#project: saao/saa22#atf: lang nb#key: file=SAA22/SAA22.saa#key: musno=K 04446#key: cdli=K 04446#key: date=uncertain#key: writer=#key: preservation=",
			"other_pub": "2 R 69, no. 6",
			"period": "Neo-Assyrian",
			"please_cite": "Please cite this page as http://oracc.org/saao/P395555/.",
			"pleiades_id": "874621",
			"primary_publication": "2 R 69, no. 6",
			"project": "saas2",
			"proposed_date": "(818-703)",
			"provenience": "Kuyunjik (Nineveh)",
			"rework": "no",
			"ruler": "uncertain",
			"saa_attribution": "Adapted from Alan Millard (with a contribution by Robert Whiting), The Eponyms of the Assyrian Empire 910-612 BC (State Archives of Assyria Studies 2), 1994. Adapted and lemmatised by Nathan Morello, 2019, as part of the research programme of the Alexander von Humboldt Chair in the Ancient History of the Near and Middle East at LMU Munich (Karen Radner, Humboldt Professorship 2015). The annotated edition is released under the Creative Commons Attribution Share-Alike license 3.0.",
			"saa_cdli_accession": "yes",
			"saa_cdli_id": "yes",
			"saa_cdli_museum": "yes",
			"saao_lists": "saao/saas2:P395555",
			"script": "Neo-Assyrian",
			"script_remarks": "inscribed",
			"script_type": "Cuneiform",
			"secondary_record": "no",
			"short_title": "Eponyms",
			"title": "Source B06",
			"vol_title": "Eponyms of the Assyrian Empire, 910-612 BC",
			"volume": "SAAS 2"
		},
		"geometry": {
			"type": "Point",
			"coordinates": [43.151937,36.358684]
		}
	}, {
		"type": "Feature",
		"properties": {
			"designation": "SAAS 2 B07",
			"atae_lists": "atae/saao:P398446",
			"date": "701-699",
			"accession_no": "K 10017",
			"archive": "099 - Miscellaneous",
			"cdli_accession_no": "K 10017",
			"cdli_id": "P398446",
			"cdli_museum_no": "BM —",
			"ch_name": "Assyrian Eponym Chronicle",
			"ch_no": "2",
			"ch_num_name": "2 (Assyrian Eponym Chronicle)",
			"collection": "British Museum, London, UK",
			"comp_wit": "witness",
			"credits": "Adapted from Alan Millard (with a contribution by Robert Whiting), The Eponyms of the Assyrian Empire 910-612 BC (State Archives of Assyria Studies 2), 1994. Adapted and lemmatised by Nathan Morello, 2019, as part of the research programme of the Alexander von Humboldt Chair in the Ancient History of the Near and Middle East at LMU Munich (Karen Radner, Humboldt Professorship 2015). The annotated edition is released under the Creative Commons Attribution Share-Alike license 3.0. Please cite this page as http://oracc.org/saao/P398446/.",
			"date_of_origin": "00.000.00.00",
			"display_name": "SAAS 2 B08",
			"edited_twice": "no",
			"genre": "Eponym Chronicle",
			"id_text": "P398446",
			"language": "Akkadian",
			"material": "clay",
			"museum_no": "BM —",
			"object_type": "tablet",
			"oracc_header": "&amp;P398446 = SAAS 2 B07#project: saao/saa22#atf: lang nb#key: file=SAA22/SAA22.saa#key: musno=K 10017#key: cdli=K 10017#key: date=uncertain#key: writer=#key: preservation=",
			"other_pub": "SAAS 02 pl. 18",
			"period": "Neo-Assyrian",
			"please_cite": "Please cite this page as http://oracc.org/saao/P398446/.",
			"pleiades_id": "874621",
			"primary_publication": "SAAS 02 pl. 18",
			"project": "saas2",
			"proposed_date": "(701-699)",
			"provenience": "Kuyunjik (Nineveh)",
			"rework": "no",
			"ruler": "uncertain",
			"saa_attribution": "Adapted from Alan Millard (with a contribution by Robert Whiting), The Eponyms of the Assyrian Empire 910-612 BC (State Archives of Assyria Studies 2), 1994. Adapted and lemmatised by Nathan Morello, 2019, as part of the research programme of the Alexander von Humboldt Chair in the Ancient History of the Near and Middle East at LMU Munich (Karen Radner, Humboldt Professorship 2015). The annotated edition is released under the Creative Commons Attribution Share-Alike license 3.0.",
			"saa_cdli_accession": "yes",
			"saa_cdli_id": "yes",
			"saa_cdli_museum": "yes",
			"saao_lists": "saao/saas2:P398446",
			"script": "Neo-Assyrian",
			"script_remarks": "inscribed",
			"script_type": "Cuneiform",
			"secondary_record": "no",
			"short_title": "Eponyms",
			"title": "Source B07",
			"vol_title": "Eponyms of the Assyrian Empire, 910-612 BC",
			"volume": "SAAS 2"
		},
		"geometry": {
			"type": "Point",
			"coordinates": [43.151937,36.358684]
		}
	}, {
		"type": "Feature",
		"properties": {
			"designation": "SAAS 2 B08",
			"atae_lists": "atae/saao:P400671",
			"date": "828-821",
			"accession_no": "K 14183",
			"archive": "099 - Miscellaneous",
			"cdli_accession_no": "K 14183",
			"cdli_id": "P400671",
			"cdli_museum_no": "BM —",
			"ch_name": "Assyrian Eponym Chronicle",
			"ch_no": "2",
			"ch_num_name": "2 (Assyrian Eponym Chronicle)",
			"collection": "British Museum, London, UK",
			"comp_wit": "witness",
			"credits": "Adapted from Alan Millard (with a contribution by Robert Whiting), The Eponyms of the Assyrian Empire 910-612 BC (State Archives of Assyria Studies 2), 1994. Adapted and lemmatised by Nathan Morello, 2019, as part of the research programme of the Alexander von Humboldt Chair in the Ancient History of the Near and Middle East at LMU Munich (Karen Radner, Humboldt Professorship 2015). The annotated edition is released under the Creative Commons Attribution Share-Alike license 3.0. Please cite this page as http://oracc.org/saao/P400671/.",
			"date_of_origin": "00.000.00.00",
			"display_name": "SAAS 2 B09",
			"edited_twice": "no",
			"genre": "Eponym Chronicle",
			"id_text": "P400671",
			"language": "Akkadian",
			"material": "clay",
			"museum_no": "BM —",
			"object_type": "tablet",
			"oracc_header": "&amp;P400671 = SAAS 2 B08#project: saao/saa22#atf: lang nb#key: file=SAA22/SAA22.saa#key: musno=K 14183#key: cdli=K 14183#key: date=uncertain#key: writer=#key: preservation=",
			"other_pub": "Brinkman, NABU 1989 no. 3, 51",
			"period": "Neo-Assyrian",
			"please_cite": "Please cite this page as http://oracc.org/saao/P400671/.",
			"pleiades_id": "874621",
			"primary_publication": "Brinkman, NABU 1989 no. 3, 51",
			"project": "saas2",
			"proposed_date": "(828-821)",
			"provenience": "Kuyunjik (Nineveh)",
			"rework": "no",
			"ruler": "uncertain",
			"saa_attribution": "Adapted from Alan Millard (with a contribution by Robert Whiting), The Eponyms of the Assyrian Empire 910-612 BC (State Archives of Assyria Studies 2), 1994. Adapted and lemmatised by Nathan Morello, 2019, as part of the research programme of the Alexander von Humboldt Chair in the Ancient History of the Near and Middle East at LMU Munich (Karen Radner, Humboldt Professorship 2015). The annotated edition is released under the Creative Commons Attribution Share-Alike license 3.0.",
			"saa_cdli_accession": "yes",
			"saa_cdli_id": "yes",
			"saa_cdli_museum": "yes",
			"saao_lists": "saao/saas2:P400671",
			"script": "Neo-Assyrian",
			"script_remarks": "inscribed",
			"script_type": "Cuneiform",
			"secondary_record": "no",
			"short_title": "Eponyms",
			"title": "Source B08",
			"vol_title": "Eponyms of the Assyrian Empire, 910-612 BC",
			"volume": "SAAS 2"
		},
		"geometry": {
			"type": "Point",
			"coordinates": [43.151937,36.358684]
		}
	}, {
		"type": "Feature",
		"properties": {
			"designation": "SAAS 2 B09",
			"atae_lists": "atae/saao:P400732",
			"date": "786-776",
			"accession_no": "K 14304",
			"archive": "099 - Miscellaneous",
			"cdli_accession_no": "K 14304",
			"cdli_id": "P400732",
			"cdli_museum_no": "BM —",
			"ch_name": "Assyrian Eponym Chronicle",
			"ch_no": "2",
			"ch_num_name": "2 (Assyrian Eponym Chronicle)",
			"collection": "British Museum, London, UK",
			"comp_wit": "witness",
			"credits": "Adapted from Alan Millard (with a contribution by Robert Whiting), The Eponyms of the Assyrian Empire 910-612 BC (State Archives of Assyria Studies 2), 1994. Adapted and lemmatised by Nathan Morello, 2019, as part of the research programme of the Alexander von Humboldt Chair in the Ancient History of the Near and Middle East at LMU Munich (Karen Radner, Humboldt Professorship 2015). The annotated edition is released under the Creative Commons Attribution Share-Alike license 3.0. Please cite this page as http://oracc.org/saao/P400732/.",
			"date_of_origin": "00.000.00.00",
			"display_name": "SAAS 2 B10",
			"edited_twice": "no",
			"genre": "Eponym Chronicle",
			"id_text": "P400732",
			"language": "Akkadian",
			"material": "clay",
			"museum_no": "BM —",
			"object_type": "tablet",
			"oracc_header": "&amp;P400732 = SAAS 2 B09#project: saao/saa22#atf: lang nb#key: file=SAA22/SAA22.saa#key: musno=K 14304#key: cdli=K 14304#key: date=uncertain#key: writer=#key: preservation=",
			"other_pub": "SAAS 02  p. 21",
			"period": "Neo-Assyrian",
			"please_cite": "Please cite this page as http://oracc.org/saao/P400732/.",
			"pleiades_id": "874621",
			"primary_publication": "SAAS 02 p. 21",
			"project": "saas2",
			"proposed_date": "(786-776)",
			"provenience": "Kuyunjik (Nineveh)",
			"rework": "no",
			"ruler": "uncertain",
			"saa_attribution": "Adapted from Alan Millard (with a contribution by Robert Whiting), The Eponyms of the Assyrian Empire 910-612 BC (State Archives of Assyria Studies 2), 1994. Adapted and lemmatised by Nathan Morello, 2019, as part of the research programme of the Alexander von Humboldt Chair in the Ancient History of the Near and Middle East at LMU Munich (Karen Radner, Humboldt Professorship 2015). The annotated edition is released under the Creative Commons Attribution Share-Alike license 3.0.",
			"saa_cdli_accession": "yes",
			"saa_cdli_id": "yes",
			"saa_cdli_museum": "yes",
			"saao_lists": "saao/saas2:P400732",
			"script": "Neo-Assyrian",
			"script_remarks": "inscribed",
			"script_type": "Cuneiform",
			"secondary_record": "no",
			"short_title": "Eponyms",
			"title": "Source B09",
			"vol_title": "Eponyms of the Assyrian Empire, 910-612 BC",
			"volume": "SAAS 2"
		},
		"geometry": {
			"type": "Point",
			"coordinates": [43.151937,36.358684]
		}
	}, {
		"type": "Feature",
		"properties": {
			"designation": "SAAS 2 B11",
			"atae_lists": "atae/saao:P424508",
			"date": "7th century",
			"accession_no": "DT 142",
			"archive": "099 - Miscellaneous",
			"cdli_accession_no": "DT 142",
			"cdli_id": "P424508",
			"cdli_museum_no": "BM —",
			"ch_name": "Assyrian Eponym Chronicle",
			"ch_no": "2",
			"ch_num_name": "2 (Assyrian Eponym Chronicle)",
			"collection": "British Museum, London, UK",
			"comp_wit": "witness",
			"credits": "Adapted from Alan Millard (with a contribution by Robert Whiting), The Eponyms of the Assyrian Empire 910-612 BC (State Archives of Assyria Studies 2), 1994. Adapted and lemmatised by Nathan Morello, 2019, as part of the research programme of the Alexander von Humboldt Chair in the Ancient History of the Near and Middle East at LMU Munich (Karen Radner, Humboldt Professorship 2015). The annotated edition is released under the Creative Commons Attribution Share-Alike license 3.0. Please cite this page as http://oracc.org/saao/P424508/.",
			"date_of_origin": "00.000.00.00",
			"display_name": "SAAS 2 B11",
			"edited_twice": "no",
			"genre": "Eponym Chronicle",
			"id_text": "P424508",
			"language": "Akkadian",
			"material": "clay",
			"museum_no": "BM —",
			"object_type": "tablet",
			"oracc_header": "&amp;P424508 = SAAS 2 B11#project: saao/saa22#atf: lang nb#key: file=SAA22/SAA22.saa#key: musno=DT 142#key: cdli=DT 142#key: date=uncertain#key: writer=#key: preservation=",
			"period": "Neo-Assyrian",
			"please_cite": "Please cite this page as http://oracc.org/saao/P424508/.",
			"pleiades_id": "874621",
			"project": "saas2",
			"proposed_date": "(7th century)",
			"provenience": "Kuyunjik (Nineveh)",
			"rework": "no",
			"ruler": "uncertain",
			"saa_attribution": "Adapted from Alan Millard (with a contribution by Robert Whiting), The Eponyms of the Assyrian Empire 910-612 BC (State Archives of Assyria Studies 2), 1994. Adapted and lemmatised by Nathan Morello, 2019, as part of the research programme of the Alexander von Humboldt Chair in the Ancient History of the Near and Middle East at LMU Munich (Karen Radner, Humboldt Professorship 2015). The annotated edition is released under the Creative Commons Attribution Share-Alike license 3.0.",
			"saa_cdli_accession": "yes",
			"saa_cdli_id": "yes",
			"saa_cdli_museum": "yes",
			"saao_lists": "saao/saas2:P424508",
			"script": "Neo-Assyrian",
			"script_remarks": "inscribed",
			"script_type": "Cuneiform",
			"secondary_record": "no",
			"short_title": "Eponyms",
			"title": "Source B11",
			"vol_title": "Eponyms of the Assyrian Empire, 910-612 BC",
			"volume": "SAAS 2"
		},
		"geometry": {
			"type": "Point",
			"coordinates": [43.151937,36.358684]
		}
	}, {
		"type": "Feature",
		"properties": {
			"designation": "SAAS 2 B12",
			"atae_lists": "atae/saao:X000012",
			"date": "828-816",
			"archive": "099 - Miscellaneous",
			"ch_name": "Assyrian Eponym Chronicle",
			"ch_no": "2",
			"ch_num_name": "2 (Assyrian Eponym Chronicle)",
			"comp_wit": "witness",
			"credits": "Adapted from Alan Millard (with a contribution by Robert Whiting), The Eponyms of the Assyrian Empire 910-612 BC (State Archives of Assyria Studies 2), 1994. Adapted and lemmatised by Nathan Morello, 2019, as part of the research programme of the Alexander von Humboldt Chair in the Ancient History of the Near and Middle East at LMU Munich (Karen Radner, Humboldt Professorship 2015). The annotated edition is released under the Creative Commons Attribution Share-Alike license 3.0. Please cite this page as http://oracc.org/saao/X000012/.",
			"date_of_origin": "00.000.00.00",
			"display_name": "SAAS 2 B12",
			"edited_twice": "no",
			"editorial_comments": "[JN] Request CDLI ID.",
			"genre": "Eponym Chronicle",
			"id_text": "X000012",
			"language": "Akkadian",
			"material": "clay",
			"museum_no": "private collection",
			"object_type": "tablet",
			"oracc_header": "&amp;X000012 = SAAS 2 B12#project: saao/saa22#atf: lang nb#key: file=SAA22/SAA22.saa#key: musno=#key: cdli=#key: date=uncertain#key: writer=#key: preservation=",
			"other_pub": "Finkel and Reade, Or. 67 (1998) 254.",
			"period": "Neo-Assyrian",
			"please_cite": "Please cite this page as http://oracc.org/saao/X000012/.",
			"pleiades_id": "874621",
			"primary_publication": "Finkel and Reade, Or. 67 (1998) 254.",
			"project": "saas2",
			"provenience": "Kuyunjik (Nineveh)",
			"rework": "yes",
			"ruler": "uncertain",
			"saa_attribution": "Adapted from Alan Millard (with a contribution by Robert Whiting), The Eponyms of the Assyrian Empire 910-612 BC (State Archives of Assyria Studies 2), 1994. Adapted and lemmatised by Nathan Morello, 2019, as part of the research programme of the Alexander von Humboldt Chair in the Ancient History of the Near and Middle East at LMU Munich (Karen Radner, Humboldt Professorship 2015). The annotated edition is released under the Creative Commons Attribution Share-Alike license 3.0.",
			"saa_cdli_id": "no",
			"saa_cdli_museum": "no",
			"saao_lists": "saao/saas2:X000012",
			"script": "Neo-Assyrian",
			"script_remarks": "inscribed",
			"script_type": "Cuneiform",
			"secondary_record": "no",
			"short_title": "Eponyms",
			"title": "Source B12",
			"vol_title": "Eponyms of the Assyrian Empire, 910-612 BC",
			"volume": "SAAS 2"
		},
		"geometry": {
			"type": "Point",
			"coordinates": [43.151937,36.358684]
		}
	}, {
		"type": "Feature",
		"properties": {
			"designation": "SAAS 2 Assyrian Eponym List",
			"atae_lists": "atae/saao:Q004243",
			"date": "7th century",
			"archive": "099 - Miscellaneous",
			"cdli_id": "Q004243",
			"ch_name": "Assyrian Eponym List",
			"ch_no": "1",
			"ch_num_name": "1 (Assyrian Eponym List)",
			"comp_wit": "composite",
			"credits": "Adapted from Alan Millard (with a contribution by Robert Whiting), The Eponyms of the Assyrian Empire 910-612 BC (State Archives of Assyria Studies 2), 1994. Adapted and lemmatised by Nathan Morello, 2019, as part of the research programme of the Alexander von Humboldt Chair in the Ancient History of the Near and Middle East at LMU Munich (Karen Radner, Humboldt Professorship 2015). The annotated edition is released under the Creative Commons Attribution Share-Alike license 3.0. Please cite this page as http://oracc.org/saao/Q004243/.",
			"date_of_origin": "00.000.00.00",
			"display_name": "SAAS 2 Eponym List",
			"edited_twice": "no",
			"genre": "Eponym List",
			"id_text": "Q004243",
			"language": "Akkadian",
			"material": "clay",
			"object_type": "tablet",
			"oracc_header": "&amp;Q004243 = SAAS 2 Assyrian Eponym List#project: saao/saa22#atf: lang nb#key: file=SAA22/SAA22.saa#key: musno=#key: cdli=#key: date=uncertain#key: writer=#key: preservation=",
			"period": "Neo-Assyrian",
			"please_cite": "Please cite this page as http://oracc.org/saao/Q004243/.",
			"pleiades_id": "874621",
			"project": "saas2",
			"proposed_date": "(7th century)",
			"provenience": "Kuyunjik (Nineveh)",
			"rework": "no",
			"ruler": "uncertain",
			"saa_attribution": "Adapted from Alan Millard (with a contribution by Robert Whiting), The Eponyms of the Assyrian Empire 910-612 BC (State Archives of Assyria Studies 2), 1994. Adapted and lemmatised by Nathan Morello, 2019, as part of the research programme of the Alexander von Humboldt Chair in the Ancient History of the Near and Middle East at LMU Munich (Karen Radner, Humboldt Professorship 2015). The annotated edition is released under the Creative Commons Attribution Share-Alike license 3.0.",
			"saa_cdli_id": "yes",
			"saao_lists": "saao/saas2:Q004243",
			"script": "Neo-Assyrian",
			"script_remarks": "inscribed",
			"script_type": "Cuneiform",
			"secondary_record": "no",
			"short_title": "Eponyms",
			"title": "Composite text",
			"vol_title": "Eponyms of the Assyrian Empire, 910-612 BC",
			"volume": "SAAS 2"
		},
		"geometry": {
			"type": "Point",
			"coordinates": [43.151937,36.358684]
		}
	}, {
		"type": "Feature",
		"properties": {
			"designation": "SAAS 2 Assyrian Eponym Chronicle",
			"atae_lists": "atae/saao:Q007771",
			"date": "7th century",
			"archive": "099 - Miscellaneous",
			"cdli_id": "Q007771",
			"ch_name": "Assyrian Eponym Chronicle",
			"ch_no": "2",
			"ch_num_name": "2 (Assyrian Eponym Chronicle)",
			"comp_wit": "composite",
			"credits": "Adapted from Alan Millard (with a contribution by Robert Whiting), The Eponyms of the Assyrian Empire 910-612 BC (State Archives of Assyria Studies 2), 1994. Adapted and lemmatised by Nathan Morello, 2019, as part of the research programme of the Alexander von Humboldt Chair in the Ancient History of the Near and Middle East at LMU Munich (Karen Radner, Humboldt Professorship 2015). The annotated edition is released under the Creative Commons Attribution Share-Alike license 3.0. Please cite this page as http://oracc.org/saao/Q007771/.",
			"date_of_origin": "00.000.00.00",
			"display_name": "SAAS 2 Eponym List",
			"edited_twice": "no",
			"genre": "Eponym List",
			"id_text": "Q007771",
			"language": "Akkadian",
			"material": "clay",
			"object_type": "tablet",
			"oracc_header": "&amp;Q007771 = SAAS 2 Assyrian Eponym Chronicle#project: saao/saa22#atf: lang nb#key: file=SAA22/SAA22.saa#key: musno=#key: cdli=#key: date=uncertain#key: writer=#key: preservation=",
			"period": "Neo-Assyrian",
			"please_cite": "Please cite this page as http://oracc.org/saao/Q007771/.",
			"pleiades_id": "874621",
			"project": "saas2",
			"proposed_date": "(7th century)",
			"provenience": "Kuyunjik (Nineveh)",
			"rework": "no",
			"ruler": "uncertain",
			"saa_attribution": "Adapted from Alan Millard (with a contribution by Robert Whiting), The Eponyms of the Assyrian Empire 910-612 BC (State Archives of Assyria Studies 2), 1994. Adapted and lemmatised by Nathan Morello, 2019, as part of the research programme of the Alexander von Humboldt Chair in the Ancient History of the Near and Middle East at LMU Munich (Karen Radner, Humboldt Professorship 2015). The annotated edition is released under the Creative Commons Attribution Share-Alike license 3.0.",
			"saa_cdli_id": "yes",
			"saao_lists": "saao/saas2:Q007771",
			"script": "Neo-Assyrian",
			"script_remarks": "inscribed",
			"script_type": "Cuneiform",
			"secondary_record": "no",
			"short_title": "Eponyms",
			"title": "Composite text",
			"vol_title": "Eponyms of the Assyrian Empire, 910-612 BC",
			"volume": "SAAS 2"
		},
		"geometry": {
			"type": "Point",
			"coordinates": [43.151937,36.358684]
		}
	}]
}
