{
	"type": "FeatureCollection",
	"features": [{
		"type": "Feature",
		"properties": {
			"cdli_id": "P469149",
			"collection": "Arkeoloji Müzerleri, Istanbul, Turkey; Vorderasiatisches Museum, Berlin, Germany",
			"credits": "Based on Grant Frame, Rulers of Babylonia: From the Second Dynasty of Isin to the End of Assyrian Domination (1157-612 BC) (RIMB 2; Toronto, 1995). Digitized, lemmatized, and updated by Alexa Bartelmus, 2015-16, for the Munich Open-access Cuneiform Corpus Initiative (MOCCI), a corpus-building initiative funded by LMU Munich and the Alexander von Humboldt Foundation (through the establishment of the Alexander von Humboldt Chair for Ancient History of the Near and Middle East) and based at the Historisches Seminar - Abteilung Alte Geschichte of Ludwig-Maximilians-Universität München. The annotated edition is released under the Creative Commons Attribution Share-Alike license 3.0.  Please cite this page as http://oracc.org/suhu/Q006206/.",
			"date_of_origin": "early 8th century",
			"designation": "Šamaš-reša-uṣur 1",
			"display_name": "Suhu Šamaš-reša-uṣur 1",
			"dynastic_seat": "Suhu",
			"excavation_no": "BE 03381",
			"genre": "Royal Inscription",
			"id_composite": "Q006206",
			"language": "Akkadian",
			"material": "stone",
			"museum_no": "Ist EŞEM 07815; VAG 1013",
			"object_type": "stele",
			"period": "Neo-Babylonian",
			"pleiades_id": "893951",
			"popular_name": "RIMB 2 S.0.1001.1",
			"primary_publication": "Šamaš-reša-uṣur 1",
			"provenience": "Babylon",
			"ruler": "Šamaš-reša-uṣur",
			"script": "Neo-Babylonian",
			"script_remarks": "inscribed",
			"script_type": "Cuneiform",
			"subgenre": "Shamash-resha-uṣur",
			"supergenre": "LIT"
		},
		"geometry": {
			"type": "Point",
			"coordinates": [44.422236,32.543395]
		}
	}, {
		"type": "Feature",
		"properties": {
			"cdli_id": "P469150",
			"collection": "Iraq Museum, Baghdad, Iraq",
			"credits": "Based on Grant Frame, Rulers of Babylonia: From the Second Dynasty of Isin to the End of Assyrian Domination (1157-612 BC) (RIMB 2; Toronto, 1995). Digitized, lemmatized, and updated by Alexa Bartelmus, 2015-16, for the Munich Open-access Cuneiform Corpus Initiative (MOCCI), a corpus-building initiative funded by LMU Munich and the Alexander von Humboldt Foundation (through the establishment of the Alexander von Humboldt Chair for Ancient History of the Near and Middle East) and based at the Historisches Seminar - Abteilung Alte Geschichte of Ludwig-Maximilians-Universität München. The annotated edition is released under the Creative Commons Attribution Share-Alike license 3.0.  Please cite this page as http://oracc.org/suhu/Q006207/.",
			"date_of_origin": "early 8th century",
			"designation": "Šamaš-reša-uṣur 2",
			"display_name": "Suhu Šamaš-reša-uṣur 2",
			"dynastic_seat": "Suhu",
			"genre": "Royal Inscription",
			"id_composite": "Q006207",
			"language": "Akkadian",
			"material": "clay",
			"museum_no": "IM 124199",
			"object_type": "tablet",
			"period": "Neo-Babylonian",
			"pleiades_id": "413309738",
			"popular_name": "RIMB 2 S.0.1001.2",
			"primary_publication": "Šamaš-reša-uṣur 2",
			"provenience": "Sur Jureh",
			"ruler": "Šamaš-reša-uṣur",
			"script": "Neo-Babylonian",
			"script_remarks": "inscribed",
			"script_type": "Cuneiform",
			"subgenre": "Shamash-resha-uṣur",
			"supergenre": "LIT"
		},
		"geometry": {
			"type": "Point",
			"coordinates": [42.205610,34.311256]
		}
	}, {
		"type": "Feature",
		"properties": {
			"cdli_id": "P469151",
			"collection": "Iraq Museum, Baghdad, Iraq",
			"credits": "Based on Grant Frame, Rulers of Babylonia: From the Second Dynasty of Isin to the End of Assyrian Domination (1157-612 BC) (RIMB 2; Toronto, 1995). Digitized, lemmatized, and updated by Alexa Bartelmus, 2015-16, for the Munich Open-access Cuneiform Corpus Initiative (MOCCI), a corpus-building initiative funded by LMU Munich and the Alexander von Humboldt Foundation (through the establishment of the Alexander von Humboldt Chair for Ancient History of the Near and Middle East) and based at the Historisches Seminar - Abteilung Alte Geschichte of Ludwig-Maximilians-Universität München. The annotated edition is released under the Creative Commons Attribution Share-Alike license 3.0.  Please cite this page as http://oracc.org/suhu/Q006208/.",
			"date_of_origin": "early 8th century",
			"designation": "Šamaš-reša-uṣur 3",
			"display_name": "Suhu Šamaš-reša-uṣur 3",
			"dynastic_seat": "Suhu",
			"genre": "Royal Inscription",
			"id_composite": "Q006208",
			"language": "Akkadian",
			"material": "clay",
			"museum_no": "IM 124193",
			"object_type": "tablet",
			"period": "Neo-Babylonian",
			"pleiades_id": "413309738",
			"popular_name": "RIMB 2 S.0.1001.3",
			"primary_publication": "Šamaš-reša-uṣur 3",
			"provenience": "Sur Jureh",
			"ruler": "Šamaš-reša-uṣur",
			"script": "Neo-Babylonian",
			"script_remarks": "inscribed",
			"script_type": "Cuneiform",
			"subgenre": "Shamash-resha-uṣur",
			"supergenre": "LIT"
		},
		"geometry": {
			"type": "Point",
			"coordinates": [42.205610,34.311256]
		}
	}, {
		"type": "Feature",
		"properties": {
			"cdli_id": "P469152",
			"credits": "Based on Grant Frame, Rulers of Babylonia: From the Second Dynasty of Isin to the End of Assyrian Domination (1157-612 BC) (RIMB 2; Toronto, 1995). Digitized, lemmatized, and updated by Alexa Bartelmus, 2015-16, for the Munich Open-access Cuneiform Corpus Initiative (MOCCI), a corpus-building initiative funded by LMU Munich and the Alexander von Humboldt Foundation (through the establishment of the Alexander von Humboldt Chair for Ancient History of the Near and Middle East) and based at the Historisches Seminar - Abteilung Alte Geschichte of Ludwig-Maximilians-Universität München. The annotated edition is released under the Creative Commons Attribution Share-Alike license 3.0.  Please cite this page as http://oracc.org/suhu/Q006209/.",
			"date_of_origin": "early 8th century",
			"designation": "Šamaš-reša-uṣur 4",
			"display_name": "Suhu Šamaš-reša-uṣur 4",
			"dynastic_seat": "Suhu",
			"genre": "Royal Inscription",
			"id_composite": "Q006209",
			"language": "Akkadian",
			"material": "stone",
			"object_type": "uncertain",
			"period": "Neo-Babylonian",
			"pleiades_id": "893936",
			"popular_name": "RIMB 2 S.0.1001.4",
			"primary_publication": "Šamaš-reša-uṣur 4",
			"provenience": "Ana",
			"ruler": "Šamaš-reša-uṣur",
			"script": "Neo-Babylonian",
			"script_remarks": "inscribed",
			"script_type": "Cuneiform",
			"subgenre": "Shamash-resha-uṣur",
			"supergenre": "LIT"
		},
		"geometry": {
			"type": "Point",
			"coordinates": [41.978974,34.469451]
		}
	}, {
		"type": "Feature",
		"properties": {
			"cdli_id": "P469153",
			"collection": "Iraq Museum, Baghdad, Iraq",
			"credits": "Based on Grant Frame, Rulers of Babylonia: From the Second Dynasty of Isin to the End of Assyrian Domination (1157-612 BC) (RIMB 2; Toronto, 1995). Digitized, lemmatized, and updated by Alexa Bartelmus, 2015-16, for the Munich Open-access Cuneiform Corpus Initiative (MOCCI), a corpus-building initiative funded by LMU Munich and the Alexander von Humboldt Foundation (through the establishment of the Alexander von Humboldt Chair for Ancient History of the Near and Middle East) and based at the Historisches Seminar - Abteilung Alte Geschichte of Ludwig-Maximilians-Universität München. The annotated edition is released under the Creative Commons Attribution Share-Alike license 3.0.  Please cite this page as http://oracc.org/suhu/Q006210/.",
			"date_of_origin": "early 8th century",
			"designation": "Šamaš-reša-uṣur 1001",
			"display_name": "Suhu Šamaš-reša-uṣur 1001",
			"dynastic_seat": "Suhu",
			"genre": "Royal Inscription",
			"id_composite": "Q006210",
			"language": "Akkadian",
			"material": "clay",
			"museum_no": "IM 124885",
			"object_type": "tablet",
			"period": "Neo-Babylonian",
			"pleiades_id": "413309738",
			"popular_name": "RIMB 2 S.0.1001.1001",
			"primary_publication": "Šamaš-reša-uṣur 1001",
			"provenience": "Sur Jureh",
			"ruler": "Šamaš-reša-uṣur",
			"script": "Neo-Babylonian",
			"script_remarks": "inscribed",
			"script_type": "Cuneiform",
			"subgenre": "Shamash-resha-uṣur",
			"supergenre": "LIT"
		},
		"geometry": {
			"type": "Point",
			"coordinates": [42.205610,34.311256]
		}
	}, {
		"type": "Feature",
		"properties": {
			"cdli_id": "P469154",
			"collection": "Iraq Museum, Baghdad, Iraq",
			"credits": "Based on Grant Frame, Rulers of Babylonia: From the Second Dynasty of Isin to the End of Assyrian Domination (1157-612 BC) (RIMB 2; Toronto, 1995). Digitized, lemmatized, and updated by Alexa Bartelmus, 2015-16, for the Munich Open-access Cuneiform Corpus Initiative (MOCCI), a corpus-building initiative funded by LMU Munich and the Alexander von Humboldt Foundation (through the establishment of the Alexander von Humboldt Chair for Ancient History of the Near and Middle East) and based at the Historisches Seminar - Abteilung Alte Geschichte of Ludwig-Maximilians-Universität München. The annotated edition is released under the Creative Commons Attribution Share-Alike license 3.0.  Please cite this page as http://oracc.org/suhu/Q006211/.",
			"date_of_origin": "early 8th century",
			"designation": "Ninurta-kudurri-uṣur 01",
			"display_name": "Suhu Ninurta-kudurri-uṣur 01",
			"dynastic_seat": "Suhu",
			"genre": "Royal Inscription",
			"id_composite": "Q006211",
			"language": "Akkadian",
			"material": "clay",
			"museum_no": "IM 095915; IM 124196",
			"object_type": "tablet",
			"period": "Neo-Babylonian",
			"pleiades_id": "413309738",
			"popular_name": "RIMB 2 S.0.1002.1",
			"primary_publication": "Ninurta-kudurri-uṣur 01",
			"provenience": "Sur Jureh",
			"ruler": "Ninurta-kudurri-uṣur",
			"script": "Neo-Babylonian",
			"script_remarks": "inscribed",
			"script_type": "Cuneiform",
			"subgenre": "Ninurta-kudurri-uṣur",
			"supergenre": "LIT"
		},
		"geometry": {
			"type": "Point",
			"coordinates": [42.205610,34.311256]
		}
	}, {
		"type": "Feature",
		"properties": {
			"cdli_id": "P469155",
			"collection": "Iraq Museum, Baghdad, Iraq",
			"credits": "Based on Grant Frame, Rulers of Babylonia: From the Second Dynasty of Isin to the End of Assyrian Domination (1157-612 BC) (RIMB 2; Toronto, 1995). Digitized, lemmatized, and updated by Alexa Bartelmus, 2015-16, for the Munich Open-access Cuneiform Corpus Initiative (MOCCI), a corpus-building initiative funded by LMU Munich and the Alexander von Humboldt Foundation (through the establishment of the Alexander von Humboldt Chair for Ancient History of the Near and Middle East) and based at the Historisches Seminar - Abteilung Alte Geschichte of Ludwig-Maximilians-Universität München. The annotated edition is released under the Creative Commons Attribution Share-Alike license 3.0.  Please cite this page as http://oracc.org/suhu/Q006212/.",
			"date_of_origin": "early 8th century",
			"designation": "Ninurta-kudurri-uṣur 02",
			"display_name": "Suhu Ninurta-kudurri-uṣur 02",
			"dynastic_seat": "Suhu",
			"genre": "Royal Inscription",
			"id_composite": "Q006212",
			"language": "Akkadian",
			"material": "clay",
			"museum_no": "IM 095917",
			"object_type": "tablet",
			"period": "Neo-Babylonian",
			"pleiades_id": "413309738",
			"popular_name": "RIMB 2 S.0.1002.2",
			"primary_publication": "Ninurta-kudurri-uṣur 02",
			"provenience": "Sur Jureh",
			"ruler": "Ninurta-kudurri-uṣur",
			"script": "Neo-Babylonian",
			"script_remarks": "inscribed",
			"script_type": "Cuneiform",
			"subgenre": "Ninurta-kudurri-uṣur",
			"supergenre": "LIT"
		},
		"geometry": {
			"type": "Point",
			"coordinates": [42.205610,34.311256]
		}
	}, {
		"type": "Feature",
		"properties": {
			"cdli_id": "P469156",
			"collection": "Iraq Museum, Baghdad, Iraq",
			"credits": "Based on Grant Frame, Rulers of Babylonia: From the Second Dynasty of Isin to the End of Assyrian Domination (1157-612 BC) (RIMB 2; Toronto, 1995). Digitized, lemmatized, and updated by Alexa Bartelmus, 2015-16, for the Munich Open-access Cuneiform Corpus Initiative (MOCCI), a corpus-building initiative funded by LMU Munich and the Alexander von Humboldt Foundation (through the establishment of the Alexander von Humboldt Chair for Ancient History of the Near and Middle East) and based at the Historisches Seminar - Abteilung Alte Geschichte of Ludwig-Maximilians-Universität München. The annotated edition is released under the Creative Commons Attribution Share-Alike license 3.0.  Please cite this page as http://oracc.org/suhu/Q006213/.",
			"date_of_origin": "early 8th century",
			"designation": "Ninurta-kudurri-uṣur 03",
			"display_name": "Suhu Ninurta-kudurri-uṣur 03",
			"dynastic_seat": "Suhu",
			"genre": "Royal Inscription",
			"id_composite": "Q006213",
			"language": "Akkadian",
			"material": "clay",
			"museum_no": "IM 124202",
			"object_type": "tablet",
			"period": "Neo-Babylonian",
			"pleiades_id": "893936",
			"popular_name": "RIMB 2 S.0.1002.3",
			"primary_publication": "Ninurta-kudurri-uṣur 03",
			"provenience": "Ana",
			"ruler": "Ninurta-kudurri-uṣur",
			"script": "Neo-Babylonian",
			"script_remarks": "inscribed",
			"script_type": "Cuneiform",
			"subgenre": "Ninurta-kudurri-uṣur",
			"supergenre": "LIT"
		},
		"geometry": {
			"type": "Point",
			"coordinates": [41.978974,34.469451]
		}
	}, {
		"type": "Feature",
		"properties": {
			"cdli_id": "P469157",
			"collection": "Iraq Museum, Baghdad, Iraq",
			"credits": "Based on Grant Frame, Rulers of Babylonia: From the Second Dynasty of Isin to the End of Assyrian Domination (1157-612 BC) (RIMB 2; Toronto, 1995). Digitized, lemmatized, and updated by Alexa Bartelmus, 2015-16, for the Munich Open-access Cuneiform Corpus Initiative (MOCCI), a corpus-building initiative funded by LMU Munich and the Alexander von Humboldt Foundation (through the establishment of the Alexander von Humboldt Chair for Ancient History of the Near and Middle East) and based at the Historisches Seminar - Abteilung Alte Geschichte of Ludwig-Maximilians-Universität München. The annotated edition is released under the Creative Commons Attribution Share-Alike license 3.0.  Please cite this page as http://oracc.org/suhu/Q006214/.",
			"date_of_origin": "early 8th century",
			"designation": "Ninurta-kudurri-uṣur 04",
			"display_name": "Suhu Ninurta-kudurri-uṣur 04",
			"dynastic_seat": "Suhu",
			"genre": "Royal Inscription",
			"id_composite": "Q006214",
			"language": "Akkadian",
			"material": "clay",
			"museum_no": "IM 124201",
			"object_type": "tablet",
			"period": "Neo-Babylonian",
			"pleiades_id": "413309738",
			"popular_name": "RIMB 2 S.0.1002.4",
			"primary_publication": "Ninurta-kudurri-uṣur 04",
			"provenience": "Sur Jureh",
			"ruler": "Ninurta-kudurri-uṣur",
			"script": "Neo-Babylonian",
			"script_remarks": "inscribed",
			"script_type": "Cuneiform",
			"subgenre": "Ninurta-kudurri-uṣur",
			"supergenre": "LIT"
		},
		"geometry": {
			"type": "Point",
			"coordinates": [42.205610,34.311256]
		}
	}, {
		"type": "Feature",
		"properties": {
			"cdli_id": "P469158",
			"collection": "Iraq Museum, Baghdad, Iraq",
			"credits": "Based on Grant Frame, Rulers of Babylonia: From the Second Dynasty of Isin to the End of Assyrian Domination (1157-612 BC) (RIMB 2; Toronto, 1995). Digitized, lemmatized, and updated by Alexa Bartelmus, 2015-16, for the Munich Open-access Cuneiform Corpus Initiative (MOCCI), a corpus-building initiative funded by LMU Munich and the Alexander von Humboldt Foundation (through the establishment of the Alexander von Humboldt Chair for Ancient History of the Near and Middle East) and based at the Historisches Seminar - Abteilung Alte Geschichte of Ludwig-Maximilians-Universität München. The annotated edition is released under the Creative Commons Attribution Share-Alike license 3.0.  Please cite this page as http://oracc.org/suhu/Q006215/.",
			"date_of_origin": "early 8th century",
			"designation": "Ninurta-kudurri-uṣur 05",
			"display_name": "Suhu Ninurta-kudurri-uṣur 05",
			"dynastic_seat": "Suhu",
			"genre": "Royal Inscription",
			"id_composite": "Q006215",
			"language": "Akkadian",
			"material": "clay",
			"museum_no": "IM 124200",
			"object_type": "tablet",
			"period": "Neo-Babylonian",
			"pleiades_id": "413309738",
			"popular_name": "RIMB 2 S.0.1002.5",
			"primary_publication": "Ninurta-kudurri-uṣur 05",
			"provenience": "Sur Jureh",
			"ruler": "Ninurta-kudurri-uṣur",
			"script": "Neo-Babylonian",
			"script_remarks": "inscribed",
			"script_type": "Cuneiform",
			"subgenre": "Ninurta-kudurri-uṣur",
			"supergenre": "LIT"
		},
		"geometry": {
			"type": "Point",
			"coordinates": [42.205610,34.311256]
		}
	}, {
		"type": "Feature",
		"properties": {
			"cdli_id": "P469159",
			"collection": "Iraq Museum, Baghdad, Iraq",
			"credits": "Based on Grant Frame, Rulers of Babylonia: From the Second Dynasty of Isin to the End of Assyrian Domination (1157-612 BC) (RIMB 2; Toronto, 1995). Digitized, lemmatized, and updated by Alexa Bartelmus, 2015-16, for the Munich Open-access Cuneiform Corpus Initiative (MOCCI), a corpus-building initiative funded by LMU Munich and the Alexander von Humboldt Foundation (through the establishment of the Alexander von Humboldt Chair for Ancient History of the Near and Middle East) and based at the Historisches Seminar - Abteilung Alte Geschichte of Ludwig-Maximilians-Universität München. The annotated edition is released under the Creative Commons Attribution Share-Alike license 3.0.  Please cite this page as http://oracc.org/suhu/Q006216/.",
			"date_of_origin": "early 8th century",
			"designation": "Ninurta-kudurri-uṣur 06",
			"display_name": "Suhu Ninurta-kudurri-uṣur 06",
			"dynastic_seat": "Suhu",
			"genre": "Royal Inscription",
			"id_composite": "Q006216",
			"language": "Akkadian",
			"material": "clay",
			"museum_no": "IM 124195",
			"object_type": "tablet",
			"period": "Neo-Babylonian",
			"pleiades_id": "945906723",
			"popular_name": "RIMB 2 S.0.1002.6",
			"primary_publication": "Ninurta-kudurri-uṣur 06",
			"provenience": "Dawali",
			"ruler": "Ninurta-kudurri-uṣur",
			"script": "Neo-Babylonian",
			"script_remarks": "inscribed",
			"script_type": "Cuneiform",
			"subgenre": "Ninurta-kudurri-uṣur",
			"supergenre": "LIT"
		},
		"geometry": {
			"type": "Point",
			"coordinates": [41.992053,34.453904]
		}
	}, {
		"type": "Feature",
		"properties": {
			"cdli_id": "P469160",
			"collection": "Iraq Museum, Baghdad, Iraq",
			"credits": "Based on Grant Frame, Rulers of Babylonia: From the Second Dynasty of Isin to the End of Assyrian Domination (1157-612 BC) (RIMB 2; Toronto, 1995). Digitized, lemmatized, and updated by Alexa Bartelmus, 2015-16, for the Munich Open-access Cuneiform Corpus Initiative (MOCCI), a corpus-building initiative funded by LMU Munich and the Alexander von Humboldt Foundation (through the establishment of the Alexander von Humboldt Chair for Ancient History of the Near and Middle East) and based at the Historisches Seminar - Abteilung Alte Geschichte of Ludwig-Maximilians-Universität München. The annotated edition is released under the Creative Commons Attribution Share-Alike license 3.0.  Please cite this page as http://oracc.org/suhu/Q006217/.",
			"date_of_origin": "early 8th century",
			"designation": "Ninurta-kudurri-uṣur 07",
			"display_name": "Suhu Ninurta-kudurri-uṣur 07",
			"dynastic_seat": "Suhu",
			"genre": "Royal Inscription",
			"id_composite": "Q006217",
			"language": "Akkadian",
			"material": "clay",
			"museum_no": "IM 124880",
			"object_type": "tablet",
			"period": "Neo-Babylonian",
			"pleiades_id": "413309738",
			"popular_name": "RIMB 2 S.0.1002.7",
			"primary_publication": "Ninurta-kudurri-uṣur 07",
			"provenience": "Sur Jureh",
			"ruler": "Ninurta-kudurri-uṣur",
			"script": "Neo-Babylonian",
			"script_remarks": "inscribed",
			"script_type": "Cuneiform",
			"subgenre": "Ninurta-kudurri-uṣur",
			"supergenre": "LIT"
		},
		"geometry": {
			"type": "Point",
			"coordinates": [42.205610,34.311256]
		}
	}, {
		"type": "Feature",
		"properties": {
			"cdli_id": "P469161",
			"collection": "Iraq Museum, Baghdad, Iraq",
			"credits": "Based on Grant Frame, Rulers of Babylonia: From the Second Dynasty of Isin to the End of Assyrian Domination (1157-612 BC) (RIMB 2; Toronto, 1995). Digitized, lemmatized, and updated by Alexa Bartelmus, 2015-16, for the Munich Open-access Cuneiform Corpus Initiative (MOCCI), a corpus-building initiative funded by LMU Munich and the Alexander von Humboldt Foundation (through the establishment of the Alexander von Humboldt Chair for Ancient History of the Near and Middle East) and based at the Historisches Seminar - Abteilung Alte Geschichte of Ludwig-Maximilians-Universität München. The annotated edition is released under the Creative Commons Attribution Share-Alike license 3.0.  Please cite this page as http://oracc.org/suhu/Q006218/.",
			"date_of_origin": "early 8th century",
			"designation": "Ninurta-kudurri-uṣur 08",
			"display_name": "Suhu Ninurta-kudurri-uṣur 08",
			"dynastic_seat": "Suhu",
			"genre": "Royal Inscription",
			"id_composite": "Q006218",
			"language": "Akkadian",
			"material": "clay",
			"museum_no": "possibly IM 124881 or IM 124194",
			"object_type": "tablet",
			"period": "Neo-Babylonian",
			"pleiades_id": "413309738",
			"popular_name": "RIMB 2 S.0.1002.8",
			"primary_publication": "Ninurta-kudurri-uṣur 08",
			"provenience": "Sur Jureh",
			"ruler": "Ninurta-kudurri-uṣur",
			"script": "Neo-Babylonian",
			"script_remarks": "inscribed",
			"script_type": "Cuneiform",
			"subgenre": "Ninurta-kudurri-uṣur",
			"supergenre": "LIT"
		},
		"geometry": {
			"type": "Point",
			"coordinates": [42.205610,34.311256]
		}
	}, {
		"type": "Feature",
		"properties": {
			"cdli_id": "P469162",
			"collection": "Iraq Museum, Baghdad, Iraq",
			"credits": "Based on Grant Frame, Rulers of Babylonia: From the Second Dynasty of Isin to the End of Assyrian Domination (1157-612 BC) (RIMB 2; Toronto, 1995). Digitized, lemmatized, and updated by Alexa Bartelmus, 2015-16, for the Munich Open-access Cuneiform Corpus Initiative (MOCCI), a corpus-building initiative funded by LMU Munich and the Alexander von Humboldt Foundation (through the establishment of the Alexander von Humboldt Chair for Ancient History of the Near and Middle East) and based at the Historisches Seminar - Abteilung Alte Geschichte of Ludwig-Maximilians-Universität München. The annotated edition is released under the Creative Commons Attribution Share-Alike license 3.0.  Please cite this page as http://oracc.org/suhu/Q006219/.",
			"date_of_origin": "early 8th century",
			"designation": "Ninurta-kudurri-uṣur 09",
			"display_name": "Suhu Ninurta-kudurri-uṣur 09",
			"dynastic_seat": "Suhu",
			"genre": "Royal Inscription",
			"id_composite": "Q006219",
			"language": "Akkadian",
			"material": "stone",
			"museum_no": "IM 132897",
			"object_type": "stele",
			"period": "Neo-Babylonian",
			"pleiades_id": "893936",
			"popular_name": "RIMB 2 S.0.1002.9",
			"primary_publication": "Ninurta-kudurri-uṣur 09",
			"provenience": "Ana",
			"ruler": "Ninurta-kudurri-uṣur",
			"script": "Neo-Babylonian",
			"script_remarks": "inscribed",
			"script_type": "Cuneiform",
			"subgenre": "Ninurta-kudurri-uṣur",
			"supergenre": "LIT"
		},
		"geometry": {
			"type": "Point",
			"coordinates": [41.978974,34.469451]
		}
	}, {
		"type": "Feature",
		"properties": {
			"cdli_id": "P469163",
			"collection": "Iraq Museum, Baghdad, Iraq",
			"credits": "Based on Grant Frame, Rulers of Babylonia: From the Second Dynasty of Isin to the End of Assyrian Domination (1157-612 BC) (RIMB 2; Toronto, 1995). Digitized, lemmatized, and updated by Alexa Bartelmus, 2015-16, for the Munich Open-access Cuneiform Corpus Initiative (MOCCI), a corpus-building initiative funded by LMU Munich and the Alexander von Humboldt Foundation (through the establishment of the Alexander von Humboldt Chair for Ancient History of the Near and Middle East) and based at the Historisches Seminar - Abteilung Alte Geschichte of Ludwig-Maximilians-Universität München. The annotated edition is released under the Creative Commons Attribution Share-Alike license 3.0.  Please cite this page as http://oracc.org/suhu/Q006220/.",
			"date_of_origin": "early 8th century",
			"designation": "Ninurta-kudurri-uṣur 10",
			"display_name": "Suhu Ninurta-kudurri-uṣur 10",
			"dynastic_seat": "Suhu",
			"genre": "Royal Inscription",
			"id_composite": "Q006220",
			"language": "Akkadian",
			"material": "stone",
			"museum_no": "IM 132899",
			"object_type": "stele",
			"period": "Neo-Babylonian",
			"pleiades_id": "893936",
			"popular_name": "RIMB 2 S.0.1002.10",
			"primary_publication": "Ninurta-kudurri-uṣur 10",
			"provenience": "Ana",
			"ruler": "Ninurta-kudurri-uṣur",
			"script": "Neo-Babylonian",
			"script_remarks": "inscribed",
			"script_type": "Cuneiform",
			"subgenre": "Ninurta-kudurri-uṣur",
			"supergenre": "LIT"
		},
		"geometry": {
			"type": "Point",
			"coordinates": [41.978974,34.469451]
		}
	}, {
		"type": "Feature",
		"properties": {
			"cdli_id": "P469166",
			"collection": "Iraq Museum, Baghdad, Iraq",
			"credits": "Based on Grant Frame, Rulers of Babylonia: From the Second Dynasty of Isin to the End of Assyrian Domination (1157-612 BC) (RIMB 2; Toronto, 1995). Digitized, lemmatized, and updated by Alexa Bartelmus, 2015-16, for the Munich Open-access Cuneiform Corpus Initiative (MOCCI), a corpus-building initiative funded by LMU Munich and the Alexander von Humboldt Foundation (through the establishment of the Alexander von Humboldt Chair for Ancient History of the Near and Middle East) and based at the Historisches Seminar - Abteilung Alte Geschichte of Ludwig-Maximilians-Universität München. The annotated edition is released under the Creative Commons Attribution Share-Alike license 3.0.  Please cite this page as http://oracc.org/suhu/Q006221/.",
			"date_of_origin": "early 8th century",
			"designation": "Ninurta-kudurri-uṣur 11",
			"display_name": "Suhu Ninurta-kudurri-uṣur 11",
			"dynastic_seat": "Suhu",
			"genre": "Royal Inscription",
			"id_composite": "Q006221",
			"language": "Akkadian",
			"material": "clay",
			"museum_no": "IM 095916",
			"object_type": "tablet",
			"period": "Neo-Babylonian",
			"pleiades_id": "413309738",
			"popular_name": "RIMB 2 S.0.1002.11",
			"primary_publication": "Ninurta-kudurri-uṣur 11",
			"provenience": "Sur Jureh",
			"ruler": "Ninurta-kudurri-uṣur",
			"script": "Neo-Babylonian",
			"script_remarks": "inscribed",
			"script_type": "Cuneiform",
			"subgenre": "Ninurta-kudurri-uṣur",
			"supergenre": "LIT"
		},
		"geometry": {
			"type": "Point",
			"coordinates": [42.205610,34.311256]
		}
	}, {
		"type": "Feature",
		"properties": {
			"cdli_id": "P469167",
			"collection": "Iraq Museum, Baghdad, Iraq",
			"credits": "Based on Grant Frame, Rulers of Babylonia: From the Second Dynasty of Isin to the End of Assyrian Domination (1157-612 BC) (RIMB 2; Toronto, 1995). Digitized, lemmatized, and updated by Alexa Bartelmus, 2015-16, for the Munich Open-access Cuneiform Corpus Initiative (MOCCI), a corpus-building initiative funded by LMU Munich and the Alexander von Humboldt Foundation (through the establishment of the Alexander von Humboldt Chair for Ancient History of the Near and Middle East) and based at the Historisches Seminar - Abteilung Alte Geschichte of Ludwig-Maximilians-Universität München. The annotated edition is released under the Creative Commons Attribution Share-Alike license 3.0.  Please cite this page as http://oracc.org/suhu/Q006222/.",
			"date_of_origin": "early 8th century",
			"designation": "Ninurta-kudurri-uṣur 12",
			"display_name": "Suhu Ninurta-kudurri-uṣur 12",
			"dynastic_seat": "Suhu",
			"genre": "Royal Inscription",
			"id_composite": "Q006222",
			"language": "Akkadian",
			"material": "clay",
			"museum_no": "IM 124883",
			"object_type": "tablet",
			"period": "Neo-Babylonian",
			"pleiades_id": "413309738",
			"popular_name": "RIMB 2 S.0.1002.12",
			"primary_publication": "Ninurta-kudurri-uṣur 12",
			"provenience": "Sur Jureh",
			"ruler": "Ninurta-kudurri-uṣur",
			"script": "Neo-Babylonian",
			"script_remarks": "inscribed",
			"script_type": "Cuneiform",
			"subgenre": "Ninurta-kudurri-uṣur",
			"supergenre": "LIT"
		},
		"geometry": {
			"type": "Point",
			"coordinates": [42.205610,34.311256]
		}
	}, {
		"type": "Feature",
		"properties": {
			"cdli_id": "P469168",
			"collection": "Iraq Museum, Baghdad, Iraq",
			"credits": "Based on Grant Frame, Rulers of Babylonia: From the Second Dynasty of Isin to the End of Assyrian Domination (1157-612 BC) (RIMB 2; Toronto, 1995). Digitized, lemmatized, and updated by Alexa Bartelmus, 2015-16, for the Munich Open-access Cuneiform Corpus Initiative (MOCCI), a corpus-building initiative funded by LMU Munich and the Alexander von Humboldt Foundation (through the establishment of the Alexander von Humboldt Chair for Ancient History of the Near and Middle East) and based at the Historisches Seminar - Abteilung Alte Geschichte of Ludwig-Maximilians-Universität München. The annotated edition is released under the Creative Commons Attribution Share-Alike license 3.0.  Please cite this page as http://oracc.org/suhu/Q006223/.",
			"date_of_origin": "early 8th century",
			"designation": "Ninurta-kudurri-uṣur 13",
			"display_name": "Suhu Ninurta-kudurri-uṣur 13",
			"dynastic_seat": "Suhu",
			"genre": "Royal Inscription",
			"id_composite": "Q006223",
			"language": "Akkadian",
			"material": "clay",
			"museum_no": "IM 124882",
			"object_type": "tablet",
			"period": "Neo-Babylonian",
			"pleiades_id": "413309738",
			"popular_name": "RIMB 2 S.0.1002.13",
			"primary_publication": "Ninurta-kudurri-uṣur 13",
			"provenience": "Sur Jureh",
			"ruler": "Ninurta-kudurri-uṣur",
			"script": "Neo-Babylonian",
			"script_remarks": "inscribed",
			"script_type": "Cuneiform",
			"subgenre": "Ninurta-kudurri-uṣur",
			"supergenre": "LIT"
		},
		"geometry": {
			"type": "Point",
			"coordinates": [42.205610,34.311256]
		}
	}, {
		"type": "Feature",
		"properties": {
			"cdli_id": "P469169",
			"collection": "Iraq Museum, Baghdad, Iraq",
			"credits": "Based on Grant Frame, Rulers of Babylonia: From the Second Dynasty of Isin to the End of Assyrian Domination (1157-612 BC) (RIMB 2; Toronto, 1995). Digitized, lemmatized, and updated by Alexa Bartelmus, 2015-16, for the Munich Open-access Cuneiform Corpus Initiative (MOCCI), a corpus-building initiative funded by LMU Munich and the Alexander von Humboldt Foundation (through the establishment of the Alexander von Humboldt Chair for Ancient History of the Near and Middle East) and based at the Historisches Seminar - Abteilung Alte Geschichte of Ludwig-Maximilians-Universität München. The annotated edition is released under the Creative Commons Attribution Share-Alike license 3.0.  Please cite this page as http://oracc.org/suhu/Q006224/.",
			"date_of_origin": "early 8th century",
			"designation": "Ninurta-kudurri-uṣur 14",
			"display_name": "Suhu Ninurta-kudurri-uṣur 14",
			"dynastic_seat": "Suhu",
			"genre": "Royal Inscription",
			"id_composite": "Q006224",
			"language": "Akkadian",
			"material": "clay",
			"museum_no": "IM 097871",
			"object_type": "tablet",
			"period": "Neo-Babylonian",
			"pleiades_id": "945906724",
			"popular_name": "RIMB 2 S.0.1002.14",
			"primary_publication": "Ninurta-kudurri-uṣur 14",
			"provenience": "Judeideh",
			"ruler": "Ninurta-kudurri-uṣur",
			"script": "Neo-Babylonian",
			"script_remarks": "inscribed",
			"script_type": "Cuneiform",
			"subgenre": "Ninurta-kudurri-uṣur",
			"supergenre": "LIT"
		},
		"geometry": {
			"type": "Point",
			"coordinates": [42.028552,34.3887]
		}
	}, {
		"type": "Feature",
		"properties": {
			"cdli_id": "P469164",
			"collection": "Iraq Museum, Baghdad, Iraq",
			"credits": "Based on Grant Frame, Rulers of Babylonia: From the Second Dynasty of Isin to the End of Assyrian Domination (1157-612 BC) (RIMB 2; Toronto, 1995). Digitized, lemmatized, and updated by Alexa Bartelmus, 2015-16, for the Munich Open-access Cuneiform Corpus Initiative (MOCCI), a corpus-building initiative funded by LMU Munich and the Alexander von Humboldt Foundation (through the establishment of the Alexander von Humboldt Chair for Ancient History of the Near and Middle East) and based at the Historisches Seminar - Abteilung Alte Geschichte of Ludwig-Maximilians-Universität München. The annotated edition is released under the Creative Commons Attribution Share-Alike license 3.0.  Please cite this page as http://oracc.org/suhu/Q006225/.",
			"date_of_origin": "early 8th century",
			"designation": "Ninurta-kudurri-uṣur 1001",
			"display_name": "Suhu Ninurta-kudurri-uṣur 1001",
			"dynastic_seat": "Suhu",
			"genre": "Royal Inscription",
			"id_composite": "Q006225",
			"language": "Akkadian",
			"material": "stone",
			"museum_no": "IM 096748A",
			"object_type": "stele",
			"period": "Neo-Babylonian",
			"pleiades_id": "413309738",
			"popular_name": "RIMB 2 S.0.1002.1001",
			"primary_publication": "Ninurta-kudurri-uṣur 1001",
			"provenience": "Sur Jureh",
			"ruler": "Ninurta-kudurri-uṣur",
			"script": "Neo-Babylonian",
			"script_remarks": "inscribed",
			"script_type": "Cuneiform",
			"subgenre": "Ninurta-kudurri-uṣur",
			"supergenre": "LIT"
		},
		"geometry": {
			"type": "Point",
			"coordinates": [42.205610,34.311256]
		}
	}, {
		"type": "Feature",
		"properties": {
			"cdli_id": "P469165",
			"credits": "Based on Grant Frame, Rulers of Babylonia: From the Second Dynasty of Isin to the End of Assyrian Domination (1157-612 BC) (RIMB 2; Toronto, 1995). Digitized, lemmatized, and updated by Alexa Bartelmus, 2015-16, for the Munich Open-access Cuneiform Corpus Initiative (MOCCI), a corpus-building initiative funded by LMU Munich and the Alexander von Humboldt Foundation (through the establishment of the Alexander von Humboldt Chair for Ancient History of the Near and Middle East) and based at the Historisches Seminar - Abteilung Alte Geschichte of Ludwig-Maximilians-Universität München. The annotated edition is released under the Creative Commons Attribution Share-Alike license 3.0.  Please cite this page as http://oracc.org/suhu/Q006226/.",
			"date_of_origin": "early 8th century",
			"designation": "Ninurta-kudurri-uṣur 1002",
			"display_name": "Suhu Ninurta-kudurri-uṣur 1002",
			"dynastic_seat": "Suhu",
			"genre": "Royal Inscription",
			"id_composite": "Q006226",
			"language": "Akkadian",
			"material": "clay",
			"object_type": "brick",
			"period": "Neo-Babylonian",
			"pleiades_id": "767486703",
			"popular_name": "RIMB 2 S.0.1002.1002",
			"primary_publication": "Ninurta-kudurri-uṣur 1002",
			"provenience": "Zawiyeh",
			"ruler": "Ninurta-kudurri-uṣur",
			"script": "Neo-Babylonian",
			"script_remarks": "inscribed",
			"script_type": "Cuneiform",
			"subgenre": "Ninurta-kudurri-uṣur",
			"supergenre": "LIT"
		},
		"geometry": {
			"type": "Point",
			"coordinates": [42.175323,34.292103]
		}
	}, {
		"type": "Feature",
		"properties": {
			"cdli_id": "P469170",
			"collection": "Iraq Museum, Baghdad, Iraq",
			"credits": "Based on Grant Frame, Rulers of Babylonia: From the Second Dynasty of Isin to the End of Assyrian Domination (1157-612 BC) (RIMB 2; Toronto, 1995). Digitized, lemmatized, and updated by Alexa Bartelmus, 2015-16, for the Munich Open-access Cuneiform Corpus Initiative (MOCCI), a corpus-building initiative funded by LMU Munich and the Alexander von Humboldt Foundation (through the establishment of the Alexander von Humboldt Chair for Ancient History of the Near and Middle East) and based at the Historisches Seminar - Abteilung Alte Geschichte of Ludwig-Maximilians-Universität München. The annotated edition is released under the Creative Commons Attribution Share-Alike license 3.0.  Please cite this page as http://oracc.org/suhu/Q006227/.",
			"date_of_origin": "early 8th century",
			"designation": "Unidentified Suhu 1001",
			"display_name": "Suhu Unidentified Suhu 1001",
			"dynastic_seat": "Suhu",
			"genre": "Royal Inscription",
			"id_composite": "Q006227",
			"language": "Akkadian",
			"material": "clay",
			"museum_no": "IM 124198",
			"object_type": "tablet",
			"period": "Neo-Babylonian",
			"pleiades_id": "413309738",
			"popular_name": "RIMB 2 S.0.0.1001",
			"primary_publication": "Unidentified Suhu 1001",
			"provenience": "Sur Jureh",
			"ruler": "uncertain",
			"script": "Neo-Babylonian",
			"script_remarks": "inscribed",
			"script_type": "Cuneiform",
			"subgenre": "Unidentified Suhu",
			"supergenre": "LIT"
		},
		"geometry": {
			"type": "Point",
			"coordinates": [42.205610,34.311256]
		}
	}, {
		"type": "Feature",
		"properties": {
			"cdli_id": "P469171",
			"collection": "Iraq Museum, Baghdad, Iraq",
			"credits": "Based on Grant Frame, Rulers of Babylonia: From the Second Dynasty of Isin to the End of Assyrian Domination (1157-612 BC) (RIMB 2; Toronto, 1995). Digitized, lemmatized, and updated by Alexa Bartelmus, 2015-16, for the Munich Open-access Cuneiform Corpus Initiative (MOCCI), a corpus-building initiative funded by LMU Munich and the Alexander von Humboldt Foundation (through the establishment of the Alexander von Humboldt Chair for Ancient History of the Near and Middle East) and based at the Historisches Seminar - Abteilung Alte Geschichte of Ludwig-Maximilians-Universität München. The annotated edition is released under the Creative Commons Attribution Share-Alike license 3.0.  Please cite this page as http://oracc.org/suhu/Q006228/.",
			"date_of_origin": "early 8th century",
			"designation": "Unidentified Suhu 1002",
			"display_name": "Suhu Unidentified Suhu 1002",
			"dynastic_seat": "Suhu",
			"genre": "Royal Inscription",
			"id_composite": "Q006228",
			"language": "Akkadian",
			"material": "clay",
			"museum_no": "possibly IM 124881",
			"object_type": "tablet",
			"period": "Neo-Babylonian",
			"pleiades_id": "413309738",
			"popular_name": "RIMB 2 S.0.0.1002",
			"primary_publication": "Unidentified Suhu 1002",
			"provenience": "Sur Jureh",
			"ruler": "uncertain",
			"script": "Neo-Babylonian",
			"script_remarks": "inscribed",
			"script_type": "Cuneiform",
			"subgenre": "Unidentified Suhu",
			"supergenre": "LIT"
		},
		"geometry": {
			"type": "Point",
			"coordinates": [42.205610,34.311256]
		}
	}, {
		"type": "Feature",
		"properties": {
			"cdli_id": "P469172",
			"collection": "Iraq Museum, Baghdad, Iraq",
			"credits": "Based on Grant Frame, Rulers of Babylonia: From the Second Dynasty of Isin to the End of Assyrian Domination (1157-612 BC) (RIMB 2; Toronto, 1995). Digitized, lemmatized, and updated by Alexa Bartelmus, 2015-16, for the Munich Open-access Cuneiform Corpus Initiative (MOCCI), a corpus-building initiative funded by LMU Munich and the Alexander von Humboldt Foundation (through the establishment of the Alexander von Humboldt Chair for Ancient History of the Near and Middle East) and based at the Historisches Seminar - Abteilung Alte Geschichte of Ludwig-Maximilians-Universität München. The annotated edition is released under the Creative Commons Attribution Share-Alike license 3.0.  Please cite this page as http://oracc.org/suhu/Q006229/.",
			"date_of_origin": "early 8th century",
			"designation": "Unidentified Suhu 1003",
			"display_name": "Suhu Unidentified Suhu 1003",
			"dynastic_seat": "Suhu",
			"genre": "Royal Inscription",
			"id_composite": "Q006229",
			"language": "Akkadian",
			"material": "clay",
			"museum_no": "IM 124884",
			"object_type": "tablet",
			"period": "Neo-Babylonian",
			"pleiades_id": "413309738",
			"popular_name": "RIMB 2 S.0.0.1003",
			"primary_publication": "Unidentified Suhu 1003",
			"provenience": "Sur Jureh",
			"ruler": "uncertain",
			"script": "Neo-Babylonian",
			"script_remarks": "inscribed",
			"script_type": "Cuneiform",
			"subgenre": "Unidentified Suhu",
			"supergenre": "LIT"
		},
		"geometry": {
			"type": "Point",
			"coordinates": [42.205610,34.311256]
		}
	}, {
		"type": "Feature",
		"properties": {
			"cdli_id": "P469173",
			"collection": "Iraq Museum, Baghdad, Iraq",
			"credits": "Based on Grant Frame, Rulers of Babylonia: From the Second Dynasty of Isin to the End of Assyrian Domination (1157-612 BC) (RIMB 2; Toronto, 1995). Digitized, lemmatized, and updated by Alexa Bartelmus, 2015-16, for the Munich Open-access Cuneiform Corpus Initiative (MOCCI), a corpus-building initiative funded by LMU Munich and the Alexander von Humboldt Foundation (through the establishment of the Alexander von Humboldt Chair for Ancient History of the Near and Middle East) and based at the Historisches Seminar - Abteilung Alte Geschichte of Ludwig-Maximilians-Universität München. The annotated edition is released under the Creative Commons Attribution Share-Alike license 3.0.  Please cite this page as http://oracc.org/suhu/Q006230/.",
			"date_of_origin": "early 8th century",
			"designation": "Unidentified Suhu 1004",
			"display_name": "Suhu Unidentified Suhu 1004",
			"dynastic_seat": "Suhu",
			"genre": "Royal Inscription",
			"id_composite": "Q006230",
			"language": "Akkadian",
			"material": "stone",
			"museum_no": "IM 096749",
			"object_type": "stele",
			"period": "Neo-Babylonian",
			"pleiades_id": "413309738",
			"popular_name": "RIMB 2 S.0.0.1004",
			"primary_publication": "Unidentified Suhu 1004",
			"provenience": "Sur Jureh",
			"ruler": "uncertain",
			"script": "Neo-Babylonian",
			"script_remarks": "inscribed",
			"script_type": "Cuneiform",
			"subgenre": "Unidentified Suhu",
			"supergenre": "LIT"
		},
		"geometry": {
			"type": "Point",
			"coordinates": [42.205610,34.311256]
		}
	}, {
		"type": "Feature",
		"properties": {
			"cdli_id": "P469174",
			"collection": "Iraq Museum, Baghdad, Iraq",
			"credits": "Based on Grant Frame, Rulers of Babylonia: From the Second Dynasty of Isin to the End of Assyrian Domination (1157-612 BC) (RIMB 2; Toronto, 1995). Digitized, lemmatized, and updated by Alexa Bartelmus, 2015-16, for the Munich Open-access Cuneiform Corpus Initiative (MOCCI), a corpus-building initiative funded by LMU Munich and the Alexander von Humboldt Foundation (through the establishment of the Alexander von Humboldt Chair for Ancient History of the Near and Middle East) and based at the Historisches Seminar - Abteilung Alte Geschichte of Ludwig-Maximilians-Universität München. The annotated edition is released under the Creative Commons Attribution Share-Alike license 3.0.  Please cite this page as http://oracc.org/suhu/Q006231/.",
			"date_of_origin": "early 8th century",
			"designation": "Unidentified Suhu 1005",
			"display_name": "Suhu Unidentified Suhu 1005",
			"dynastic_seat": "Suhu",
			"genre": "Royal Inscription",
			"id_composite": "Q006231",
			"language": "Akkadian",
			"material": "stone",
			"museum_no": "IM 096748B",
			"object_type": "stele",
			"period": "Neo-Babylonian",
			"pleiades_id": "413309738",
			"popular_name": "RIMB 2 S.0.0.1005",
			"primary_publication": "Unidentified Suhu 1005",
			"provenience": "Sur Jureh",
			"ruler": "uncertain",
			"script": "Neo-Babylonian",
			"script_remarks": "inscribed",
			"script_type": "Cuneiform",
			"subgenre": "Unidentified Suhu",
			"supergenre": "LIT"
		},
		"geometry": {
			"type": "Point",
			"coordinates": [42.205610,34.311256]
		}
	}, {
		"type": "Feature",
		"properties": {
			"cdli_id": "P469175",
			"collection": "Iraq Museum, Baghdad, Iraq",
			"credits": "Based on Grant Frame, Rulers of Babylonia: From the Second Dynasty of Isin to the End of Assyrian Domination (1157-612 BC) (RIMB 2; Toronto, 1995). Digitized, lemmatized, and updated by Alexa Bartelmus, 2015-16, for the Munich Open-access Cuneiform Corpus Initiative (MOCCI), a corpus-building initiative funded by LMU Munich and the Alexander von Humboldt Foundation (through the establishment of the Alexander von Humboldt Chair for Ancient History of the Near and Middle East) and based at the Historisches Seminar - Abteilung Alte Geschichte of Ludwig-Maximilians-Universität München. The annotated edition is released under the Creative Commons Attribution Share-Alike license 3.0.  Please cite this page as http://oracc.org/suhu/Q006232/.",
			"date_of_origin": "early 8th century",
			"designation": "Unidentified Suhu 1006",
			"display_name": "Suhu Unidentified Suhu 1006",
			"dynastic_seat": "Suhu",
			"genre": "Royal Inscription",
			"id_composite": "Q006232",
			"language": "Akkadian",
			"material": "stone",
			"museum_no": "IM 096751",
			"object_type": "stele",
			"period": "Neo-Babylonian",
			"pleiades_id": "223856812",
			"popular_name": "RIMB 2 S.0.0.1006",
			"primary_publication": "Unidentified Suhu 1006",
			"provenience": "Gleieh",
			"ruler": "uncertain",
			"script": "Neo-Babylonian",
			"script_remarks": "inscribed",
			"script_type": "Cuneiform",
			"subgenre": "Unidentified Suhu",
			"supergenre": "LIT"
		},
		"geometry": {
			"type": "Point",
			"coordinates": [42.211404,34.302925]
		}
	}, {
		"type": "Feature",
		"properties": {
			"cdli_id": "P469176",
			"collection": "Iraq Museum, Baghdad, Iraq",
			"credits": "Based on Grant Frame, Rulers of Babylonia: From the Second Dynasty of Isin to the End of Assyrian Domination (1157-612 BC) (RIMB 2; Toronto, 1995). Digitized, lemmatized, and updated by Alexa Bartelmus, 2015-16, for the Munich Open-access Cuneiform Corpus Initiative (MOCCI), a corpus-building initiative funded by LMU Munich and the Alexander von Humboldt Foundation (through the establishment of the Alexander von Humboldt Chair for Ancient History of the Near and Middle East) and based at the Historisches Seminar - Abteilung Alte Geschichte of Ludwig-Maximilians-Universität München. The annotated edition is released under the Creative Commons Attribution Share-Alike license 3.0.  Please cite this page as http://oracc.org/suhu/Q006233/.",
			"date_of_origin": "early 8th century",
			"designation": "Unidentified Suhu 1007",
			"display_name": "Suhu Unidentified Suhu 1007",
			"dynastic_seat": "Suhu",
			"genre": "Royal Inscription",
			"id_composite": "Q006233",
			"language": "Akkadian",
			"material": "stone",
			"museum_no": "IM 132177",
			"object_type": "stele",
			"period": "Neo-Babylonian",
			"pleiades_id": "893936",
			"popular_name": "RIMB 2 S.0.0.1007",
			"primary_publication": "Unidentified Suhu 1007",
			"provenience": "Ana",
			"ruler": "uncertain",
			"script": "Neo-Babylonian",
			"script_remarks": "inscribed",
			"script_type": "Cuneiform",
			"subgenre": "Unidentified Suhu",
			"supergenre": "LIT"
		},
		"geometry": {
			"type": "Point",
			"coordinates": [41.978974,34.469451]
		}
	}, {
		"type": "Feature",
		"properties": {
			"cdli_id": "P469178",
			"credits": "Based on Grant Frame, Rulers of Babylonia: From the Second Dynasty of Isin to the End of Assyrian Domination (1157-612 BC) (RIMB 2; Toronto, 1995). Digitized, lemmatized, and updated by Alexa Bartelmus, 2015-16, for the Munich Open-access Cuneiform Corpus Initiative (MOCCI), a corpus-building initiative funded by LMU Munich and the Alexander von Humboldt Foundation (through the establishment of the Alexander von Humboldt Chair for Ancient History of the Near and Middle East) and based at the Historisches Seminar - Abteilung Alte Geschichte of Ludwig-Maximilians-Universität München. The annotated edition is released under the Creative Commons Attribution Share-Alike license 3.0.  Please cite this page as http://oracc.org/suhu/Q006235/.",
			"date_of_origin": "early 8th century",
			"designation": "Unidentified Suhu 1009",
			"display_name": "Suhu Unidentified Suhu 1009",
			"dynastic_seat": "Suhu",
			"genre": "Royal Inscription",
			"id_composite": "Q006235",
			"language": "Akkadian",
			"object_type": "jar",
			"period": "Neo-Babylonian",
			"pleiades_id": "223856812",
			"popular_name": "RIMB 2 S.0.0.1009",
			"primary_publication": "Unidentified Suhu 1009",
			"provenience": "Gleieh",
			"ruler": "uncertain",
			"script": "Neo-Babylonian",
			"script_remarks": "inscribed",
			"script_type": "Cuneiform",
			"subgenre": "Unidentified Suhu",
			"supergenre": "LIT"
		},
		"geometry": {
			"type": "Point",
			"coordinates": [42.211404,34.302925]
		}
	}, {
		"type": "Feature",
		"properties": {
			"cdli_id": "P469179",
			"credits": "Based on Grant Frame, Rulers of Babylonia: From the Second Dynasty of Isin to the End of Assyrian Domination (1157-612 BC) (RIMB 2; Toronto, 1995). Digitized, lemmatized, and updated by Alexa Bartelmus, 2015-16, for the Munich Open-access Cuneiform Corpus Initiative (MOCCI), a corpus-building initiative funded by LMU Munich and the Alexander von Humboldt Foundation (through the establishment of the Alexander von Humboldt Chair for Ancient History of the Near and Middle East) and based at the Historisches Seminar - Abteilung Alte Geschichte of Ludwig-Maximilians-Universität München. The annotated edition is released under the Creative Commons Attribution Share-Alike license 3.0.  Please cite this page as http://oracc.org/suhu/Q006236/.",
			"date_of_origin": "early 8th century",
			"designation": "Unidentified Suhu 1010",
			"display_name": "Suhu Unidentified Suhu 1010",
			"dynastic_seat": "Suhu",
			"genre": "Royal Inscription",
			"id_composite": "Q006236",
			"language": "Akkadian",
			"material": "stone",
			"object_type": "slab",
			"period": "Neo-Babylonian",
			"pleiades_id": "893936",
			"popular_name": "RIMB 2 S.0.0.1010",
			"primary_publication": "Unidentified Suhu 1010",
			"provenience": "Ana",
			"ruler": "uncertain",
			"script": "Neo-Babylonian",
			"script_remarks": "inscribed",
			"script_type": "Cuneiform",
			"subgenre": "Unidentified Suhu",
			"supergenre": "LIT"
		},
		"geometry": {
			"type": "Point",
			"coordinates": [41.978974,34.469451]
		}
	}, {
		"type": "Feature",
		"properties": {
			"cdli_id": "P469180",
			"credits": "Based on Grant Frame, Rulers of Babylonia: From the Second Dynasty of Isin to the End of Assyrian Domination (1157-612 BC) (RIMB 2; Toronto, 1995). Digitized, lemmatized, and updated by Alexa Bartelmus, 2015-16, for the Munich Open-access Cuneiform Corpus Initiative (MOCCI), a corpus-building initiative funded by LMU Munich and the Alexander von Humboldt Foundation (through the establishment of the Alexander von Humboldt Chair for Ancient History of the Near and Middle East) and based at the Historisches Seminar - Abteilung Alte Geschichte of Ludwig-Maximilians-Universität München. The annotated edition is released under the Creative Commons Attribution Share-Alike license 3.0.  Please cite this page as http://oracc.org/suhu/Q006237/.",
			"date_of_origin": "early 8th century",
			"designation": "Unidentified Suhu 1011",
			"display_name": "Suhu Unidentified Suhu 1011",
			"dynastic_seat": "Suhu",
			"genre": "Royal Inscription",
			"id_composite": "Q006237",
			"language": "Akkadian",
			"material": "stone",
			"object_type": "slab",
			"period": "Neo-Babylonian",
			"pleiades_id": "893936",
			"popular_name": "RIMB 2 S.0.0.1011",
			"primary_publication": "Unidentified Suhu 1011",
			"provenience": "Ana",
			"ruler": "uncertain",
			"script": "Neo-Babylonian",
			"script_remarks": "inscribed",
			"script_type": "Cuneiform",
			"subgenre": "Unidentified Suhu",
			"supergenre": "LIT"
		},
		"geometry": {
			"type": "Point",
			"coordinates": [41.978974,34.469451]
		}
	}, {
		"type": "Feature",
		"properties": {
			"cdli_id": "P469181",
			"collection": "Oriental Institute, University of Chicago, Chicago, Illinois, USA",
			"credits": "Based on Grant Frame, Rulers of Babylonia: From the Second Dynasty of Isin to the End of Assyrian Domination (1157-612 BC) (RIMB 2; Toronto, 1995). Digitized, lemmatized, and updated by Alexa Bartelmus, 2015-16, for the Munich Open-access Cuneiform Corpus Initiative (MOCCI), a corpus-building initiative funded by LMU Munich and the Alexander von Humboldt Foundation (through the establishment of the Alexander von Humboldt Chair for Ancient History of the Near and Middle East) and based at the Historisches Seminar - Abteilung Alte Geschichte of Ludwig-Maximilians-Universität München. The annotated edition is released under the Creative Commons Attribution Share-Alike license 3.0.  Please cite this page as http://oracc.org/suhu/Q006238/.",
			"date_of_origin": "early 8th century",
			"designation": "Unidentified Suhu 1012",
			"display_name": "Suhu Unidentified Suhu 1012",
			"dynastic_seat": "Suhu",
			"excavation_no": "PT4 942",
			"genre": "Royal Inscription",
			"id_composite": "Q006238",
			"language": "Akkadian",
			"material": "stone",
			"museum_no": "A 23364",
			"object_type": "cylinder",
			"period": "Neo-Babylonian",
			"pleiades_id": "922695",
			"popular_name": "RIMB 2 S.0.0.1012",
			"primary_publication": "Unidentified Suhu 1012",
			"provenience": "Persepolis",
			"ruler": "uncertain",
			"script": "Neo-Babylonian",
			"script_remarks": "inscribed",
			"script_type": "Cuneiform",
			"subgenre": "Unidentified Suhu",
			"supergenre": "LIT"
		},
		"geometry": {
			"type": "Point",
			"coordinates": [52.889437,29.9353403333]
		}
	}]
}
