{
	"type": "FeatureCollection",
	"features": [{
		"type": "Feature",
		"properties": {
			"id_text": "P238202",
			"museum_no": "BM —",
			"accession_no": "K 02892 + K 08397",
			"composition_designation": "BTT 145ff., pl. 34 018c",
			"collection": "British Museum, London, UK",
			"designation": "BM — (K 02892 + K 08397)",
			"genre": "Lexical",
			"material": "clay",
			"object_ref": "BM — (K 02892 + K 08397)",
			"object_type": "tablet",
			"period": "First Millennium",
			"primary_publication": "[1992] George, BTT",
			"project": "btto",
			"provenience": "Nineveh",
			"related_compositions": "Q004806",
			"subgenre": "Miscellaneous Lists",
			"supergenre": "LEX",
			"xproject": "CDLI"
		},
		"geometry": {
			"type": "Point",
			"coordinates": [43.151937,36.358684]
		}
	}, {
		"type": "Feature",
		"properties": {
			"id_text": "P239213",
			"museum_no": "BM —",
			"accession_no": "K 13644",
			"composition_designation": "Tintir I, V",
			"collection": "British Museum, London, UK",
			"designation": "BM — (K 13644)",
			"genre": "Lexical",
			"material": "clay",
			"object_ref": "BM — (K 13644)",
			"object_type": "tablet",
			"period": "First Millennium",
			"primary_publication": "[1992] George, BTT",
			"project": "btto",
			"provenience": "Nineveh",
			"related_compositions": "Q004798; Q004801",
			"subgenre": "Miscellaneous Lists",
			"supergenre": "LEX",
			"xproject": "CDLI"
		},
		"geometry": {
			"type": "Point",
			"coordinates": [43.151937,36.358684]
		}
	}, {
		"type": "Feature",
		"properties": {
			"id_text": "P247828",
			"museum_no": "BM —",
			"accession_no": "K 08382",
			"composition_designation": "BTT pl. 50, 39",
			"collection": "British Museum, London, UK",
			"designation": "BM — (K 08382)",
			"genre": "Lexical",
			"material": "clay",
			"object_ref": "BM — (K 08382)",
			"object_type": "tablet",
			"period": "First Millennium",
			"primary_publication": "[1992] George, BTT",
			"project": "btto",
			"provenience": "Nineveh",
			"related_compositions": "Q007949",
			"subgenre": "Miscellaneous Lists",
			"supergenre": "LEX",
			"xproject": "CDLI"
		},
		"geometry": {
			"type": "Point",
			"coordinates": [43.151937,36.358684]
		}
	}, {
		"type": "Feature",
		"properties": {
			"id_text": "P247829",
			"museum_no": "Ashm 1924-1365",
			"composition_designation": "Tintir IV",
			"collection": "Ashmolean Museum, Oxford, UK",
			"designation": "Ashm 1924-1365",
			"genre": "Lexical",
			"material": "clay",
			"object_ref": "Ashm 1924-1365",
			"object_type": "tablet",
			"period": "First Millennium",
			"primary_publication": "[1992] George, BTT",
			"project": "btto",
			"provenience": "Kish",
			"related_compositions": "Q000305",
			"subgenre": "Miscellaneous Lists",
			"supergenre": "LEX",
			"xproject": "CDLI"
		},
		"geometry": {
			"type": "Point",
			"coordinates": [44.585271,32.551977]
		}
	}, {
		"type": "Feature",
		"properties": {
			"id_text": "P368195",
			"museum_no": "BM 040813",
			"accession_no": "1881-04-28, 0359",
			"composition_designation": "BTT pl. 13, BM 040813",
			"collection": "British Museum, London, UK",
			"designation": "BM 040813 (1881-04-28, 0359)",
			"genre": "Metrological",
			"material": "clay",
			"object_ref": "BM 040813 (1881-04-28, 0359)",
			"object_type": "tablet",
			"period": "First Millennium",
			"primary_publication": "[1992] George, BTT",
			"project": "btto",
			"provenience": "Babylon",
			"related_compositions": "Q007970",
			"subgenre": "Temple Measurements",
			"supergenre": "unknown",
			"xproject": "CDLI"
		},
		"geometry": {
			"type": "Point",
			"coordinates": [44.422236,32.543395]
		}
	}, {
		"type": "Feature",
		"properties": {
			"id_text": "P394800",
			"museum_no": "BM —",
			"accession_no": "K 03089 + K 10924",
			"composition_designation": "Tintir IV-V",
			"collection": "British Museum, London, UK",
			"designation": "BM — (K 03089 + K 10924)",
			"genre": "Lexical",
			"material": "clay",
			"object_ref": "BM — (K 03089 + K 10924)",
			"object_type": "tablet",
			"period": "First Millennium",
			"primary_publication": "[1992] George, BTT",
			"project": "btto",
			"provenience": "Nineveh",
			"related_compositions": "Q000305; Q004801",
			"subgenre": "Miscellaneous Lists",
			"supergenre": "LEX",
			"xproject": "CDLI"
		},
		"geometry": {
			"type": "Point",
			"coordinates": [43.151937,36.358684]
		}
	}, {
		"type": "Feature",
		"properties": {
			"id_text": "P395424",
			"museum_no": "BM —",
			"accession_no": "K 04153 + K 06410",
			"composition_designation": "Tintir II",
			"collection": "British Museum, London, UK",
			"designation": "BM — (K 04153 + K 06410)",
			"genre": "Lexical",
			"material": "clay",
			"object_ref": "BM — (K 04153 + K 06410)",
			"object_type": "tablet",
			"period": "First Millennium",
			"primary_publication": "[1992] George, BTT",
			"project": "btto",
			"provenience": "Nineveh",
			"related_compositions": "Q004799",
			"subgenre": "Miscellaneous Lists",
			"supergenre": "LEX",
			"xproject": "CDLI"
		},
		"geometry": {
			"type": "Point",
			"coordinates": [43.151937,36.358684]
		}
	}, {
		"type": "Feature",
		"properties": {
			"id_text": "P396206",
			"museum_no": "BM —",
			"accession_no": "K 05848",
			"composition_designation": "Tintir II",
			"collection": "British Museum, London, UK",
			"designation": "BM — (K 05848)",
			"genre": "Lexical",
			"material": "clay",
			"object_ref": "BM — (K 05848)",
			"object_type": "tablet",
			"period": "First Millennium",
			"primary_publication": "[1992] George, BTT",
			"project": "btto",
			"provenience": "Nineveh",
			"related_compositions": "Q004799",
			"subgenre": "Miscellaneous Lists",
			"supergenre": "LEX",
			"xproject": "CDLI"
		},
		"geometry": {
			"type": "Point",
			"coordinates": [43.151937,36.358684]
		}
	}, {
		"type": "Feature",
		"properties": {
			"id_text": "P397665",
			"museum_no": "BM —",
			"accession_no": "K 08515",
			"composition_designation": "Tintir V",
			"collection": "British Museum, London, UK",
			"designation": "BM — (K 08515)",
			"genre": "Lexical",
			"material": "clay",
			"object_ref": "BM — (K 08515)",
			"object_type": "tablet",
			"period": "First Millennium",
			"primary_publication": "[1992] George, BTT",
			"project": "btto",
			"provenience": "Nineveh",
			"related_compositions": "Q004801",
			"subgenre": "Miscellaneous Lists",
			"supergenre": "LEX",
			"xproject": "CDLI"
		},
		"geometry": {
			"type": "Point",
			"coordinates": [43.151937,36.358684]
		}
	}, {
		"type": "Feature",
		"properties": {
			"id_text": "P401179",
			"museum_no": "BM —",
			"accession_no": "K 15122",
			"composition_designation": "Tintir V",
			"collection": "British Museum, London, UK",
			"designation": "BM — (K 15122)",
			"genre": "Lexical",
			"material": "clay",
			"object_ref": "BM — (K 15122)",
			"object_type": "tablet",
			"period": "First Millennium",
			"primary_publication": "[1992] George, BTT",
			"project": "btto",
			"provenience": "Nineveh",
			"related_compositions": "Q004801",
			"subgenre": "Miscellaneous Lists",
			"supergenre": "LEX",
			"xproject": "CDLI"
		},
		"geometry": {
			"type": "Point",
			"coordinates": [43.151937,36.358684]
		}
	}, {
		"type": "Feature",
		"properties": {
			"id_text": "P404540",
			"museum_no": "BM —",
			"accession_no": "K 19758",
			"composition_designation": "BTT pl. 11, K 19758",
			"collection": "British Museum, London, UK",
			"designation": "BM — (K 19758)",
			"material": "clay",
			"object_ref": "BM — (K 19758)",
			"object_type": "tablet",
			"primary_publication": "[1992] George, BTT",
			"project": "btto",
			"provenience": "Nineveh",
			"xproject": "CDLI"
		},
		"geometry": {
			"type": "Point",
			"coordinates": [43.151937,36.358684]
		}
	}, {
		"type": "Feature",
		"properties": {
			"id_text": "P423559",
			"museum_no": "Ashm 1924-0807 + Ashm 1924-1415 + Ashm 1924-1501 + Ashm 1924-1830 + Ashm 1924-2044 + Ashm 1924-2057",
			"composition_designation": "Tintir V",
			"collection": "Ashmolean Museum, Oxford, UK",
			"designation": "Ashm 1924-0807 + Ashm 1924-1415 + Ashm 1924-1501 + Ashm 1924-1830 + Ashm 1924-2044 + Ashm 1924-2057",
			"genre": "Lexical",
			"material": "clay",
			"object_ref": "Ashm 1924-0807 + Ashm 1924-1415 + Ashm 1924-1501 + Ashm 1924-1830 + Ashm 1924-2044 + Ashm 1924-2057",
			"object_type": "tablet",
			"period": "First Millennium",
			"primary_publication": "[1992] George, BTT",
			"project": "btto",
			"provenience": "Kish",
			"related_compositions": "Q004801",
			"subgenre": "Miscellaneous Lists",
			"supergenre": "LEX",
			"xproject": "CDLI"
		},
		"geometry": {
			"type": "Point",
			"coordinates": [44.585271,32.551977]
		}
	}, {
		"type": "Feature",
		"properties": {
			"id_text": "P423560",
			"museum_no": "BM 046070",
			"composition_designation": "Tintir V",
			"collection": "British Museum, London, UK",
			"designation": "BM 046070",
			"genre": "Lexical",
			"material": "clay",
			"object_ref": "BM 046070",
			"object_type": "tablet",
			"period": "First Millennium",
			"primary_publication": "[1992] George, BTT",
			"project": "btto",
			"provenience": "Babylon",
			"related_compositions": "Q004801",
			"subgenre": "Miscellaneous Lists",
			"supergenre": "LEX",
			"xproject": "CDLI"
		},
		"geometry": {
			"type": "Point",
			"coordinates": [44.422236,32.543395]
		}
	}, {
		"type": "Feature",
		"properties": {
			"id_text": "P423637",
			"museum_no": "BM —",
			"accession_no": "DT 286",
			"composition_designation": "Tintir I",
			"collection": "British Museum, London, UK",
			"designation": "BM — (DT 286)",
			"genre": "Lexical",
			"material": "clay",
			"object_ref": "BM — (DT 286)",
			"object_type": "tablet",
			"period": "First Millennium",
			"primary_publication": "[1992] George, BTT",
			"project": "btto",
			"provenience": "Nineveh",
			"related_compositions": "Q004798",
			"subgenre": "Miscellaneous Lists",
			"supergenre": "LEX",
			"xproject": "CDLI"
		},
		"geometry": {
			"type": "Point",
			"coordinates": [43.151937,36.358684]
		}
	}, {
		"type": "Feature",
		"properties": {
			"id_text": "P423638",
			"museum_no": "BM —",
			"accession_no": "Sm 0863",
			"composition_designation": "Tintir II",
			"collection": "British Museum, London, UK",
			"designation": "BM — (Sm 0863)",
			"genre": "Lexical",
			"material": "clay",
			"object_ref": "BM — (Sm 0863)",
			"object_type": "tablet",
			"period": "First Millennium",
			"primary_publication": "[1992] George, BTT",
			"project": "btto",
			"provenience": "Nineveh",
			"related_compositions": "Q004799",
			"subgenre": "Miscellaneous Lists",
			"supergenre": "LEX",
			"xproject": "CDLI"
		},
		"geometry": {
			"type": "Point",
			"coordinates": [43.151937,36.358684]
		}
	}, {
		"type": "Feature",
		"properties": {
			"id_text": "P423639",
			"museum_no": "BM —",
			"accession_no": "Rm 0788",
			"composition_designation": "BTT pl. 19, Rm 0788",
			"collection": "British Museum, London, UK",
			"designation": "BM — (Rm 0788)",
			"genre": "Lexical",
			"material": "clay",
			"object_ref": "BM — (Rm 0788)",
			"object_type": "tablet",
			"period": "First Millennium",
			"primary_publication": "[1992] George, BTT",
			"project": "btto",
			"provenience": "Nineveh",
			"related_compositions": "Q007950",
			"subgenre": "Miscellaneous Lists",
			"supergenre": "LEX",
			"xproject": "CDLI"
		},
		"geometry": {
			"type": "Point",
			"coordinates": [43.151937,36.358684]
		}
	}, {
		"type": "Feature",
		"properties": {
			"id_text": "P448011",
			"museum_no": "BM —",
			"composition_designation": "BTT pl. 52, 49",
			"collection": "British Museum, London, UK",
			"designation": "BM —",
			"material": "clay",
			"object_ref": "BM —",
			"object_type": "tablet",
			"primary_publication": "[1992] George, BTT",
			"project": "btto",
			"provenience": "Nineveh",
			"xproject": "CDLI"
		},
		"geometry": {
			"type": "Point",
			"coordinates": [43.151937,36.358684]
		}
	}, {
		"type": "Feature",
		"properties": {
			"id_text": "P450761",
			"museum_no": "Ashm 1924-0810",
			"composition_designation": "Tintir II",
			"collection": "Ashmolean Museum, Oxford, UK",
			"designation": "Ashm 1924-0810",
			"genre": "Lexical",
			"material": "clay",
			"object_ref": "Ashm 1924-0810",
			"object_type": "tablet",
			"period": "First Millennium",
			"primary_publication": "[1992] George, BTT",
			"project": "btto",
			"provenience": "Kish",
			"related_compositions": "Q004799",
			"subgenre": "Miscellaneous Lists",
			"supergenre": "LEX",
			"xproject": "CDLI"
		},
		"geometry": {
			"type": "Point",
			"coordinates": [44.585271,32.551977]
		}
	}, {
		"type": "Feature",
		"properties": {
			"id_text": "P450797",
			"museum_no": "Ashm 1924-0846",
			"composition_designation": "Tintir IV",
			"collection": "Ashmolean Museum, Oxford, UK",
			"designation": "Ashm 1924-0846",
			"genre": "Lexical",
			"material": "clay",
			"object_ref": "Ashm 1924-0846",
			"object_type": "tablet",
			"period": "First Millennium",
			"primary_publication": "[1992] George, BTT",
			"project": "btto",
			"provenience": "Kish",
			"related_compositions": "Q000305",
			"subgenre": "Miscellaneous Lists",
			"supergenre": "LEX",
			"xproject": "CDLI"
		},
		"geometry": {
			"type": "Point",
			"coordinates": [44.585271,32.551977]
		}
	}, {
		"type": "Feature",
		"properties": {
			"id_text": "P450798",
			"museum_no": "Ashm 1924-0849",
			"composition_designation": "Tintir I-II",
			"collection": "Ashmolean Museum, Oxford, UK",
			"designation": "Ashm 1924-0849",
			"genre": "Lexical",
			"material": "clay",
			"object_ref": "Ashm 1924-0849",
			"object_type": "tablet",
			"period": "First Millennium",
			"primary_publication": "[1992] George, BTT",
			"project": "btto",
			"provenience": "Kish",
			"related_compositions": "Q004798; Q004799",
			"subgenre": "Miscellaneous Lists",
			"supergenre": "LEX",
			"xproject": "CDLI"
		},
		"geometry": {
			"type": "Point",
			"coordinates": [44.585271,32.551977]
		}
	}, {
		"type": "Feature",
		"properties": {
			"id_text": "P451536",
			"museum_no": "Ashm 1930-0354l",
			"composition_designation": "Tintir V",
			"collection": "Ashmolean Museum, Oxford, UK",
			"designation": "Ashm 1930-0354l",
			"genre": "Lexical",
			"material": "clay",
			"object_ref": "Ashm 1930-0354l",
			"object_type": "tablet",
			"period": "First Millennium",
			"primary_publication": "[1992] George, BTT",
			"project": "btto",
			"provenience": "Kish",
			"related_compositions": "Q004801",
			"subgenre": "Miscellaneous Lists",
			"supergenre": "LEX",
			"xproject": "CDLI"
		},
		"geometry": {
			"type": "Point",
			"coordinates": [44.585271,32.551977]
		}
	}, {
		"type": "Feature",
		"properties": {
			"id_text": "P461129",
			"museum_no": "BM 034927",
			"accession_no": "Sp 2, 0444",
			"composition_designation": "Tintir IV",
			"collection": "British Museum, London, UK",
			"designation": "BM 034927 (Sp 2, 0444)",
			"genre": "Lexical",
			"material": "clay",
			"object_ref": "BM 034927 (Sp 2, 0444)",
			"object_type": "tablet",
			"period": "First Millennium",
			"primary_publication": "[1992] George, BTT",
			"project": "btto",
			"provenience": "Babylon",
			"related_compositions": "Q000305; Q007952",
			"subgenre": "Miscellaneous Lists",
			"supergenre": "LEX",
			"xproject": "CDLI"
		},
		"geometry": {
			"type": "Point",
			"coordinates": [44.422236,32.543395]
		}
	}, {
		"type": "Feature",
		"properties": {
			"id_text": "P479203",
			"museum_no": "BM 033491 + BM 033826",
			"composition_designation": "Tintir I, V",
			"collection": "British Museum, London, UK",
			"designation": "BM 033491 + BM 033826",
			"genre": "Lexical",
			"material": "clay",
			"object_ref": "BM 033491 + BM 033826",
			"object_type": "tablet",
			"period": "First Millennium",
			"primary_publication": "[1992] George, BTT",
			"project": "btto",
			"provenience": "Babylon",
			"related_compositions": "Q004798; Q004801",
			"subgenre": "Miscellaneous Lists",
			"supergenre": "LEX",
			"xproject": "CDLI"
		},
		"geometry": {
			"type": "Point",
			"coordinates": [44.422236,32.543395]
		}
	}, {
		"type": "Feature",
		"properties": {
			"id_text": "P479204",
			"museum_no": "BM 033737 + BM 033818",
			"composition_designation": "Tintir I",
			"collection": "British Museum, London, UK",
			"designation": "BM 033737 + BM 033818",
			"genre": "Lexical",
			"material": "clay",
			"object_ref": "BM 033737 + BM 033818",
			"object_type": "tablet",
			"period": "First Millennium",
			"primary_publication": "[1992] George, BTT",
			"project": "btto",
			"provenience": "Babylon",
			"related_compositions": "Q004798",
			"subgenre": "Miscellaneous Lists",
			"supergenre": "LEX",
			"xproject": "CDLI"
		},
		"geometry": {
			"type": "Point",
			"coordinates": [44.422236,32.543395]
		}
	}, {
		"type": "Feature",
		"properties": {
			"id_text": "P479205",
			"museum_no": "BM 034798",
			"composition_designation": "Tintir I",
			"collection": "British Museum, London, UK",
			"designation": "BM 034798",
			"genre": "Lexical",
			"material": "clay",
			"object_ref": "BM 034798",
			"object_type": "tablet",
			"period": "First Millennium",
			"primary_publication": "[1992] George, BTT",
			"project": "btto",
			"provenience": "Babylon",
			"related_compositions": "Q004798",
			"subgenre": "Miscellaneous Lists",
			"supergenre": "LEX",
			"xproject": "CDLI"
		},
		"geometry": {
			"type": "Point",
			"coordinates": [44.422236,32.543395]
		}
	}, {
		"type": "Feature",
		"properties": {
			"id_text": "P479206",
			"museum_no": "BM 037592",
			"composition_designation": "Tintir I",
			"collection": "British Museum, London, UK",
			"designation": "BM 037592",
			"genre": "Lexical",
			"material": "clay",
			"object_ref": "BM 037592",
			"object_type": "tablet",
			"period": "First Millennium",
			"primary_publication": "[1992] George, BTT",
			"project": "btto",
			"provenience": "Babylon",
			"related_compositions": "Q004798",
			"subgenre": "Miscellaneous Lists",
			"supergenre": "LEX",
			"xproject": "CDLI"
		},
		"geometry": {
			"type": "Point",
			"coordinates": [44.422236,32.543395]
		}
	}, {
		"type": "Feature",
		"properties": {
			"id_text": "P479207",
			"museum_no": "BM 038442",
			"composition_designation": "Tintir I, IV",
			"collection": "British Museum, London, UK",
			"designation": "BM 038442",
			"genre": "Lexical",
			"material": "clay",
			"object_ref": "BM 038442",
			"object_type": "tablet",
			"period": "First Millennium",
			"primary_publication": "[1992] George, BTT",
			"project": "btto",
			"provenience": "Babylon",
			"related_compositions": "Q000305; Q004798",
			"subgenre": "Miscellaneous Lists",
			"supergenre": "LEX",
			"xproject": "CDLI"
		},
		"geometry": {
			"type": "Point",
			"coordinates": [44.422236,32.543395]
		}
	}, {
		"type": "Feature",
		"properties": {
			"id_text": "P479208",
			"museum_no": "VAT 13101",
			"composition_designation": "Tintir I-II, V",
			"collection": "Vorderasiatisches Museum, Berlin, Germany",
			"designation": "VAT 13101",
			"genre": "Lexical",
			"material": "clay",
			"object_ref": "VAT 13101",
			"object_type": "tablet",
			"period": "First Millennium",
			"primary_publication": "[1992] George, BTT",
			"project": "btto",
			"provenience": "Babylon",
			"related_compositions": "Q004798; Q004799; Q004801",
			"subgenre": "Miscellaneous Lists",
			"supergenre": "LEX",
			"xproject": "CDLI"
		},
		"geometry": {
			"type": "Point",
			"coordinates": [44.422236,32.543395]
		}
	}, {
		"type": "Feature",
		"properties": {
			"id_text": "P479209",
			"museum_no": "BM 053403",
			"accession_no": "1882-03-23, 4439",
			"composition_designation": "Tintir I",
			"collection": "British Museum, London, UK",
			"designation": "BM 053403 (1882-03-23, 4439)",
			"genre": "Lexical",
			"material": "clay",
			"object_ref": "BM 053403 (1882-03-23, 4439)",
			"object_type": "tablet",
			"period": "First Millennium",
			"primary_publication": "[1992] George, BTT",
			"project": "btto",
			"provenience": "Sippar",
			"related_compositions": "Q004798",
			"subgenre": "Miscellaneous Lists",
			"supergenre": "LEX",
			"xproject": "CDLI"
		},
		"geometry": {
			"type": "Point",
			"coordinates": [44.253809,33.059195]
		}
	}, {
		"type": "Feature",
		"properties": {
			"id_text": "P479210",
			"museum_no": "BM 077086",
			"accession_no": "1883-01-18 AH, 2464",
			"composition_designation": "Tintir I",
			"collection": "British Museum, London, UK",
			"designation": "BM 077086 (1883-01-18 AH, 2464)",
			"genre": "Lexical",
			"material": "clay",
			"object_ref": "BM 077086 (1883-01-18 AH, 2464)",
			"object_type": "tablet",
			"period": "First Millennium",
			"primary_publication": "[1992] George, BTT",
			"project": "btto",
			"provenience": "Sippar",
			"related_compositions": "Q004798",
			"subgenre": "Miscellaneous Lists",
			"supergenre": "LEX",
			"xproject": "CDLI"
		},
		"geometry": {
			"type": "Point",
			"coordinates": [44.253809,33.059195]
		}
	}, {
		"type": "Feature",
		"properties": {
			"id_text": "P479211",
			"museum_no": "BM 033402 + BM 033425",
			"composition_designation": "Tintir II",
			"collection": "British Museum, London, UK",
			"designation": "BM 033402 + BM 033425",
			"genre": "Lexical",
			"material": "clay",
			"object_ref": "BM 033402 + BM 033425",
			"object_type": "tablet",
			"period": "First Millennium",
			"primary_publication": "[1992] George, BTT",
			"project": "btto",
			"provenience": "Babylon",
			"related_compositions": "Q004799",
			"subgenre": "Miscellaneous Lists",
			"supergenre": "LEX",
			"xproject": "CDLI"
		},
		"geometry": {
			"type": "Point",
			"coordinates": [44.422236,32.543395]
		}
	}, {
		"type": "Feature",
		"properties": {
			"id_text": "P479212",
			"museum_no": "BM 033783",
			"composition_designation": "Tintir II",
			"collection": "British Museum, London, UK",
			"designation": "BM 033783",
			"genre": "Lexical",
			"material": "clay",
			"object_ref": "BM 033783",
			"object_type": "tablet",
			"period": "First Millennium",
			"primary_publication": "[1992] George, BTT",
			"project": "btto",
			"provenience": "Babylon",
			"related_compositions": "Q004799",
			"subgenre": "Miscellaneous Lists",
			"supergenre": "LEX",
			"xproject": "CDLI"
		},
		"geometry": {
			"type": "Point",
			"coordinates": [44.422236,32.543395]
		}
	}, {
		"type": "Feature",
		"properties": {
			"id_text": "P479213",
			"museum_no": "BM 035838 (+) BM 036017",
			"composition_designation": "Tintir II",
			"collection": "British Museum, London, UK",
			"designation": "BM 035838 (+) BM 036017",
			"genre": "Lexical",
			"material": "clay",
			"object_ref": "BM 035838 (+) BM 036017",
			"object_type": "tablet",
			"period": "First Millennium",
			"primary_publication": "[1992] George, BTT",
			"project": "btto",
			"provenience": "Babylon",
			"related_compositions": "Q004799",
			"subgenre": "Miscellaneous Lists",
			"supergenre": "LEX",
			"xproject": "CDLI"
		},
		"geometry": {
			"type": "Point",
			"coordinates": [44.422236,32.543395]
		}
	}, {
		"type": "Feature",
		"properties": {
			"id_text": "P479214",
			"museum_no": "BM 036843",
			"composition_designation": "Tintir II",
			"collection": "British Museum, London, UK",
			"designation": "BM 036843",
			"genre": "Lexical",
			"material": "clay",
			"object_ref": "BM 036843",
			"object_type": "tablet",
			"period": "First Millennium",
			"primary_publication": "[1992] George, BTT",
			"project": "btto",
			"provenience": "Babylon",
			"related_compositions": "Q004799",
			"subgenre": "Miscellaneous Lists",
			"supergenre": "LEX",
			"xproject": "CDLI"
		},
		"geometry": {
			"type": "Point",
			"coordinates": [44.422236,32.543395]
		}
	}, {
		"type": "Feature",
		"properties": {
			"id_text": "P479215",
			"museum_no": "BM 040151",
			"composition_designation": "Tintir II",
			"collection": "British Museum, London, UK",
			"designation": "BM 040151",
			"genre": "Lexical",
			"material": "clay",
			"object_ref": "BM 040151",
			"object_type": "tablet",
			"period": "First Millennium",
			"primary_publication": "[1992] George, BTT",
			"project": "btto",
			"provenience": "Babylon",
			"related_compositions": "Q004799",
			"subgenre": "Miscellaneous Lists",
			"supergenre": "LEX",
			"xproject": "CDLI"
		},
		"geometry": {
			"type": "Point",
			"coordinates": [44.422236,32.543395]
		}
	}, {
		"type": "Feature",
		"properties": {
			"id_text": "P479218",
			"museum_no": "BM 053824",
			"accession_no": "1882-03-23, 4865",
			"composition_designation": "Tintir II",
			"collection": "British Museum, London, UK",
			"designation": "BM 053824 (1882-03-23, 4865)",
			"genre": "Lexical",
			"material": "clay",
			"object_ref": "BM 053824 (1882-03-23, 4865)",
			"object_type": "tablet",
			"period": "First Millennium",
			"primary_publication": "[1992] George, BTT",
			"project": "btto",
			"provenience": "Dilbat",
			"related_compositions": "Q004799",
			"subgenre": "Miscellaneous Lists",
			"supergenre": "LEX",
			"xproject": "CDLI"
		},
		"geometry": {
			"type": "Point",
			"coordinates": [44.466967,32.295211]
		}
	}, {
		"type": "Feature",
		"properties": {
			"id_text": "P479219",
			"museum_no": "BM 075144",
			"accession_no": "1883-01-18 AH, 0470",
			"composition_designation": "Tintir II",
			"collection": "British Museum, London, UK",
			"designation": "BM 075144 (1883-01-18 AH, 0470)",
			"genre": "Lexical",
			"material": "clay",
			"object_ref": "BM 075144 (1883-01-18 AH, 0470)",
			"object_type": "tablet",
			"period": "First Millennium",
			"primary_publication": "[1992] George, BTT",
			"project": "btto",
			"provenience": "Sippar",
			"related_compositions": "Q004799",
			"subgenre": "Miscellaneous Lists",
			"supergenre": "LEX",
			"xproject": "CDLI"
		},
		"geometry": {
			"type": "Point",
			"coordinates": [44.253809,33.059195]
		}
	}, {
		"type": "Feature",
		"properties": {
			"id_text": "P479220",
			"museum_no": "BM 076144",
			"accession_no": "1883-01-18 AH, 1509",
			"composition_designation": "Tintir II",
			"collection": "British Museum, London, UK",
			"designation": "BM 076144 (1883-01-18 AH, 1509)",
			"genre": "Lexical",
			"material": "clay",
			"object_ref": "BM 076144 (1883-01-18 AH, 1509)",
			"object_type": "tablet",
			"period": "First Millennium",
			"primary_publication": "[1992] George, BTT",
			"project": "btto",
			"provenience": "Sippar",
			"related_compositions": "Q004799",
			"subgenre": "Miscellaneous Lists",
			"supergenre": "LEX",
			"xproject": "CDLI"
		},
		"geometry": {
			"type": "Point",
			"coordinates": [44.253809,33.059195]
		}
	}, {
		"type": "Feature",
		"properties": {
			"id_text": "P479221",
			"museum_no": "BM 040480",
			"composition_designation": "Tintir IV",
			"collection": "British Museum, London, UK",
			"designation": "BM 040480",
			"genre": "Lexical",
			"material": "clay",
			"object_ref": "BM 040480",
			"object_type": "tablet",
			"period": "First Millennium",
			"primary_publication": "[1992] George, BTT",
			"project": "btto",
			"provenience": "Babylon",
			"related_compositions": "Q000305",
			"subgenre": "Miscellaneous Lists",
			"supergenre": "LEX",
			"xproject": "CDLI"
		},
		"geometry": {
			"type": "Point",
			"coordinates": [44.422236,32.543395]
		}
	}, {
		"type": "Feature",
		"properties": {
			"id_text": "P479222",
			"museum_no": "BM 046279",
			"composition_designation": "Tintir IV",
			"collection": "British Museum, London, UK",
			"designation": "BM 046279",
			"genre": "Lexical",
			"material": "clay",
			"object_ref": "BM 046279",
			"object_type": "tablet",
			"period": "First Millennium",
			"primary_publication": "[1992] George, BTT",
			"project": "btto",
			"provenience": "Babylon",
			"related_compositions": "Q000305",
			"subgenre": "Miscellaneous Lists",
			"supergenre": "LEX",
			"xproject": "CDLI"
		},
		"geometry": {
			"type": "Point",
			"coordinates": [44.422236,32.543395]
		}
	}, {
		"type": "Feature",
		"properties": {
			"id_text": "P479223",
			"museum_no": "VAT 00441",
			"composition_designation": "Tintir IV",
			"collection": "Vorderasiatisches Museum, Berlin, Germany",
			"designation": "VAT 00441",
			"genre": "Lexical",
			"material": "clay",
			"object_ref": "VAT 00441",
			"object_type": "tablet",
			"period": "First Millennium",
			"primary_publication": "[1992] George, BTT",
			"project": "btto",
			"provenience": "Babylon",
			"related_compositions": "Q000305",
			"subgenre": "Miscellaneous Lists",
			"supergenre": "LEX",
			"xproject": "CDLI"
		},
		"geometry": {
			"type": "Point",
			"coordinates": [44.422236,32.543395]
		}
	}, {
		"type": "Feature",
		"properties": {
			"id_text": "P479227",
			"museum_no": "BM 065151",
			"accession_no": "1882-09-18, 05132",
			"composition_designation": "Tintir IV-V",
			"collection": "British Museum, London, UK",
			"designation": "BM 065151 (1882-09-18, 05132)",
			"genre": "Lexical",
			"material": "clay",
			"object_ref": "BM 065151 (1882-09-18, 05132)",
			"object_type": "tablet",
			"period": "First Millennium",
			"primary_publication": "[1992] George, BTT",
			"project": "btto",
			"provenience": "Sippar",
			"related_compositions": "Q000305; Q004801",
			"subgenre": "Miscellaneous Lists",
			"supergenre": "LEX",
			"xproject": "CDLI"
		},
		"geometry": {
			"type": "Point",
			"coordinates": [44.253809,33.059195]
		}
	}, {
		"type": "Feature",
		"properties": {
			"id_text": "P479228",
			"museum_no": "BM 076494",
			"accession_no": "1883-01-18 AH, 1864",
			"composition_designation": "Tintir IV",
			"collection": "British Museum, London, UK",
			"designation": "BM 076494 (1883-01-18 AH, 1864)",
			"genre": "Lexical",
			"material": "clay",
			"object_ref": "BM 076494 (1883-01-18 AH, 1864)",
			"object_type": "tablet",
			"period": "First Millennium",
			"primary_publication": "[1992] George, BTT",
			"project": "btto",
			"provenience": "Sippar",
			"related_compositions": "Q000305",
			"subgenre": "Miscellaneous Lists",
			"supergenre": "LEX",
			"xproject": "CDLI"
		},
		"geometry": {
			"type": "Point",
			"coordinates": [44.253809,33.059195]
		}
	}, {
		"type": "Feature",
		"properties": {
			"id_text": "P479229",
			"museum_no": "BM 076884",
			"accession_no": "1883-01-18 AH, 2256",
			"composition_designation": "Tintir IV",
			"collection": "British Museum, London, UK",
			"designation": "BM 076884 (1883-01-18 AH, 2256)",
			"genre": "Lexical",
			"material": "clay",
			"object_ref": "BM 076884 (1883-01-18 AH, 2256)",
			"object_type": "tablet",
			"period": "First Millennium",
			"primary_publication": "[1992] George, BTT",
			"project": "btto",
			"provenience": "Sippar",
			"related_compositions": "Q000305",
			"subgenre": "Miscellaneous Lists",
			"supergenre": "LEX",
			"xproject": "CDLI"
		},
		"geometry": {
			"type": "Point",
			"coordinates": [44.253809,33.059195]
		}
	}, {
		"type": "Feature",
		"properties": {
			"id_text": "P479230",
			"museum_no": "BM 038003",
			"composition_designation": "Tintir V",
			"collection": "British Museum, London, UK",
			"designation": "BM 038003",
			"genre": "Lexical",
			"material": "clay",
			"object_ref": "BM 038003",
			"object_type": "tablet",
			"period": "First Millennium",
			"primary_publication": "[1992] George, BTT",
			"project": "btto",
			"provenience": "Babylon",
			"related_compositions": "Q004801",
			"subgenre": "Miscellaneous Lists",
			"supergenre": "LEX",
			"xproject": "CDLI"
		},
		"geometry": {
			"type": "Point",
			"coordinates": [44.422236,32.543395]
		}
	}, {
		"type": "Feature",
		"properties": {
			"id_text": "P479231",
			"museum_no": "BM 046207",
			"composition_designation": "Tintir V",
			"collection": "British Museum, London, UK",
			"designation": "BM 046207",
			"genre": "Lexical",
			"material": "clay",
			"object_ref": "BM 046207",
			"object_type": "tablet",
			"period": "First Millennium",
			"primary_publication": "[1992] George, BTT",
			"project": "btto",
			"provenience": "Babylon",
			"related_compositions": "Q004801",
			"subgenre": "Miscellaneous Lists",
			"supergenre": "LEX",
			"xproject": "CDLI"
		},
		"geometry": {
			"type": "Point",
			"coordinates": [44.422236,32.543395]
		}
	}, {
		"type": "Feature",
		"properties": {
			"id_text": "P479232",
			"museum_no": "BM 046438",
			"composition_designation": "Tintir V",
			"collection": "British Museum, London, UK",
			"designation": "BM 046438",
			"genre": "Lexical",
			"material": "clay",
			"object_ref": "BM 046438",
			"object_type": "tablet",
			"period": "First Millennium",
			"primary_publication": "[1992] George, BTT",
			"project": "btto",
			"provenience": "Babylon",
			"related_compositions": "Q004801",
			"subgenre": "Miscellaneous Lists",
			"supergenre": "LEX",
			"xproject": "CDLI"
		},
		"geometry": {
			"type": "Point",
			"coordinates": [44.422236,32.543395]
		}
	}, {
		"type": "Feature",
		"properties": {
			"id_text": "P479233",
			"museum_no": "BM 077029",
			"accession_no": "1993-01-18 AH, 2404",
			"composition_designation": "Tintir V",
			"collection": "British Museum, London, UK",
			"designation": "BM 077029 (1993-01-18 AH, 2404)",
			"genre": "Lexical",
			"material": "clay",
			"object_ref": "BM 077029 (1993-01-18 AH, 2404)",
			"object_type": "tablet",
			"period": "First Millennium",
			"primary_publication": "[1992] George, BTT",
			"project": "btto",
			"provenience": "Sippar",
			"related_compositions": "Q004801",
			"subgenre": "Miscellaneous Lists",
			"supergenre": "LEX",
			"xproject": "CDLI"
		},
		"geometry": {
			"type": "Point",
			"coordinates": [44.253809,33.059195]
		}
	}, {
		"type": "Feature",
		"properties": {
			"id_text": "P479234",
			"museum_no": "BM 076297 + BM 076459 (+) BM 082888",
			"composition_designation": "Tintir V",
			"collection": "British Museum, London, UK",
			"designation": "BM 076297 + BM 076459 (+) BM 082888",
			"genre": "Lexical",
			"material": "clay",
			"object_ref": "BM 076297 + BM 076459 (+) BM 082888",
			"object_type": "tablet",
			"period": "First Millennium",
			"primary_publication": "[1992] George, BTT",
			"project": "btto",
			"provenience": "Sippar",
			"related_compositions": "Q004801",
			"subgenre": "Miscellaneous Lists",
			"supergenre": "LEX",
			"xproject": "CDLI"
		},
		"geometry": {
			"type": "Point",
			"coordinates": [44.253809,33.059195]
		}
	}, {
		"type": "Feature",
		"properties": {
			"id_text": "P479235",
			"museum_no": "BM 076517",
			"composition_designation": "Tintir V",
			"collection": "British Museum, London, UK",
			"designation": "BM 076517",
			"genre": "Lexical",
			"material": "clay",
			"object_ref": "BM 076517",
			"object_type": "tablet",
			"period": "First Millennium",
			"primary_publication": "[1992] George, BTT",
			"project": "btto",
			"provenience": "Sippar",
			"related_compositions": "Q004801",
			"subgenre": "Miscellaneous Lists",
			"supergenre": "LEX",
			"xproject": "CDLI"
		},
		"geometry": {
			"type": "Point",
			"coordinates": [44.253809,33.059195]
		}
	}, {
		"type": "Feature",
		"properties": {
			"id_text": "P394150",
			"museum_no": "BM —",
			"accession_no": "K 02035a + K 04337",
			"composition_designation": "House Most High no. 04",
			"collection": "British Museum, London, UK",
			"designation": "BM — (K 02035a + K 04337)",
			"genre": "Lexical",
			"material": "clay",
			"object_ref": "BM — (K 02035a + K 04337)",
			"object_type": "tablet",
			"period": "First Millennium",
			"primary_publication2": "[1993] George, HMH",
			"project": "btto",
			"provenience": "Nineveh",
			"related_compositions": "Q007944",
			"subgenre": "Miscellaneous Lists",
			"supergenre": "LEX",
			"xproject": "CDLI"
		},
		"geometry": {
			"type": "Point",
			"coordinates": [43.151937,36.358684]
		}
	}, {
		"type": "Feature",
		"properties": {
			"id_text": "P394767",
			"museum_no": "BM —",
			"accession_no": "K 03012 + K 14325",
			"composition_designation": "House Most High, pl. 02, 05 K 03012+",
			"collection": "British Museum, London, UK",
			"designation": "BM — (K 03012 + K 14325)",
			"genre": "Lexical",
			"material": "clay",
			"object_ref": "BM — (K 03012 + K 14325)",
			"object_type": "tablet",
			"period": "First Millennium",
			"primary_publication2": "[1993] George, HMH",
			"project": "btto",
			"provenience": "Nineveh",
			"related_compositions": "Q004807",
			"subgenre": "Miscellaneous Lists",
			"supergenre": "LEX",
			"xproject": "CDLI"
		},
		"geometry": {
			"type": "Point",
			"coordinates": [43.151937,36.358684]
		}
	}, {
		"type": "Feature",
		"properties": {
			"id_text": "P395452",
			"museum_no": "BM —",
			"accession_no": "K 04224 + K 10092 + K 11188",
			"composition_designation": "House Most High, pl. 04 K 04224+",
			"collection": "British Museum, London, UK",
			"designation": "BM — (K 04224 + K 10092 + K 11188)",
			"genre": "Lexical",
			"material": "clay",
			"object_ref": "BM — (K 04224 + K 10092 + K 11188)",
			"object_type": "tablet",
			"period": "First Millennium",
			"primary_publication2": "[1993] George, HMH",
			"project": "btto",
			"provenience": "Nineveh",
			"related_compositions": "Q004807",
			"subgenre": "Miscellaneous Lists",
			"supergenre": "LEX",
			"xproject": "CDLI"
		},
		"geometry": {
			"type": "Point",
			"coordinates": [43.151937,36.358684]
		}
	}, {
		"type": "Feature",
		"properties": {
			"id_text": "P395493",
			"museum_no": "BM —",
			"accession_no": "K 04374 + K 08377",
			"composition_designation": "House Most High, pl. 08 K 04374+",
			"collection": "British Museum, London, UK",
			"designation": "BM — (K 04374 + K 08377)",
			"genre": "Lexical",
			"material": "clay",
			"object_ref": "BM — (K 04374 + K 08377)",
			"object_type": "tablet",
			"period": "First Millennium",
			"primary_publication2": "[1993] George, HMH",
			"project": "btto",
			"provenience": "Nineveh",
			"related_compositions": "Q004807",
			"subgenre": "Miscellaneous Lists",
			"supergenre": "LEX",
			"xproject": "CDLI"
		},
		"geometry": {
			"type": "Point",
			"coordinates": [43.151937,36.358684]
		}
	}, {
		"type": "Feature",
		"properties": {
			"id_text": "P395533",
			"museum_no": "BM —",
			"accession_no": "K 04407 + K 21429 (+)? K 19309",
			"composition_designation": "House Most High, pl. 13 K 04407+",
			"collection": "British Museum, London, UK",
			"designation": "BM — (K 04407 + K 21429 (+)? K 19309)",
			"genre": "Lexical",
			"material": "clay",
			"object_ref": "BM — (K 04407 + K 21429 (+)? K 19309)",
			"object_type": "tablet",
			"period": "First Millennium",
			"primary_publication2": "[1993] George, HMH",
			"project": "btto",
			"provenience": "Nineveh",
			"related_compositions": "Q007942",
			"subgenre": "Miscellaneous Lists",
			"supergenre": "LEX",
			"xproject": "CDLI"
		},
		"geometry": {
			"type": "Point",
			"coordinates": [43.151937,36.358684]
		}
	}, {
		"type": "Feature",
		"properties": {
			"id_text": "P395536",
			"museum_no": "BM —",
			"accession_no": "K 04413 + K 08376",
			"composition_designation": "House Most High, pl. 01 K 04413+",
			"collection": "British Museum, London, UK",
			"designation": "BM — (K 04413 + K 08376)",
			"genre": "Lexical",
			"material": "clay",
			"object_ref": "BM — (K 04413 + K 08376)",
			"object_type": "tablet",
			"period": "First Millennium",
			"primary_publication2": "[1993] George, HMH",
			"project": "btto",
			"provenience": "Nineveh",
			"related_compositions": "Q004807",
			"subgenre": "Miscellaneous Lists",
			"supergenre": "LEX",
			"xproject": "CDLI"
		},
		"geometry": {
			"type": "Point",
			"coordinates": [43.151937,36.358684]
		}
	}, {
		"type": "Feature",
		"properties": {
			"id_text": "P399594",
			"museum_no": "BM —",
			"accession_no": "K 12024 + K 12025",
			"composition_designation": "House Most High, pl. 09 K 12024+",
			"collection": "British Museum, London, UK",
			"designation": "BM — (K 12024 + K 12025)",
			"genre": "Lexical",
			"material": "clay",
			"object_ref": "BM — (K 12024 + K 12025)",
			"object_type": "tablet",
			"period": "First Millennium",
			"primary_publication2": "[1993] George, HMH",
			"project": "btto",
			"provenience": "Nineveh",
			"related_compositions": "Q004807",
			"subgenre": "Miscellaneous Lists",
			"supergenre": "LEX",
			"xproject": "CDLI"
		},
		"geometry": {
			"type": "Point",
			"coordinates": [43.151937,36.358684]
		}
	}, {
		"type": "Feature",
		"properties": {
			"id_text": "P401087",
			"museum_no": "BM —",
			"accession_no": "K 14950",
			"composition_designation": "House Most High no. 08",
			"collection": "British Museum, London, UK",
			"designation": "BM — (K 14950)",
			"genre": "Lexical",
			"material": "clay",
			"object_ref": "BM — (K 14950)",
			"object_type": "tablet",
			"period": "First Millennium",
			"primary_publication2": "[1993] George, HMH",
			"project": "btto",
			"provenience": "Nineveh",
			"related_compositions": "Q007948",
			"subgenre": "Miscellaneous Lists",
			"supergenre": "LEX",
			"xproject": "CDLI"
		},
		"geometry": {
			"type": "Point",
			"coordinates": [43.151937,36.358684]
		}
	}, {
		"type": "Feature",
		"properties": {
			"id_text": "P401275",
			"museum_no": "BM —",
			"accession_no": "K 15262 + Sm 0289",
			"composition_designation": "House Most High, pl. 11-12 K 15262+",
			"collection": "British Museum, London, UK",
			"designation": "BM — (K 15262 + Sm 0289)",
			"genre": "Lexical",
			"material": "clay",
			"object_ref": "BM — (K 15262 + Sm 0289)",
			"object_type": "tablet",
			"period": "First Millennium",
			"primary_publication2": "[1993] George, HMH",
			"project": "btto",
			"provenience": "Nineveh",
			"related_compositions": "Q004807",
			"subgenre": "Miscellaneous Lists",
			"supergenre": "LEX",
			"xproject": "CDLI"
		},
		"geometry": {
			"type": "Point",
			"coordinates": [43.151937,36.358684]
		}
	}, {
		"type": "Feature",
		"properties": {
			"id_text": "P404184",
			"museum_no": "BM —",
			"accession_no": "K 19309",
			"composition_designation": "House Most High, pl. 13 K 19309",
			"collection": "British Museum, London, UK",
			"designation": "BM — (K 19309)",
			"material": "clay",
			"object_ref": "BM — (K 19309)",
			"object_type": "tablet",
			"primary_publication2": "[1993] George, HMH",
			"project": "btto",
			"provenience": "Nineveh",
			"xproject": "CDLI"
		},
		"geometry": {
			"type": "Point",
			"coordinates": [43.151937,36.358684]
		}
	}, {
		"type": "Feature",
		"properties": {
			"id_text": "P404315",
			"museum_no": "BM —",
			"accession_no": "K 19495",
			"composition_designation": "House Most High, pl. 10 K 19495",
			"collection": "British Museum, London, UK",
			"designation": "BM — (K 19495)",
			"genre": "Lexical",
			"material": "clay",
			"object_ref": "BM — (K 19495)",
			"object_type": "tablet",
			"period": "First Millennium",
			"primary_publication2": "[1993] George, HMH",
			"project": "btto",
			"provenience": "Nineveh",
			"related_compositions": "Q004807",
			"subgenre": "Miscellaneous Lists",
			"supergenre": "LEX",
			"xproject": "CDLI"
		},
		"geometry": {
			"type": "Point",
			"coordinates": [43.151937,36.358684]
		}
	}, {
		"type": "Feature",
		"properties": {
			"id_text": "P418949",
			"museum_no": "BM —",
			"accession_no": "K 20537",
			"composition_designation": "House Most High, pl. 09 K 20537+",
			"collection": "British Museum, London, UK",
			"designation": "BM — (K 20537)",
			"genre": "Lexical",
			"material": "clay",
			"object_ref": "BM — (K 20537)",
			"object_type": "tablet",
			"period": "First Millennium",
			"primary_publication2": "[1993] George, HMH",
			"project": "btto",
			"provenience": "Nineveh",
			"related_compositions": "Q004807",
			"subgenre": "Miscellaneous Lists",
			"supergenre": "LEX",
			"xproject": "CDLI"
		},
		"geometry": {
			"type": "Point",
			"coordinates": [43.151937,36.358684]
		}
	}, {
		"type": "Feature",
		"properties": {
			"id_text": "P425333",
			"museum_no": "BM —",
			"accession_no": "Sm 0277",
			"composition_designation": "House Most High, pl. 10 Sm 0277",
			"collection": "British Museum, London, UK",
			"designation": "BM — (Sm 0277)",
			"genre": "Lexical",
			"material": "clay",
			"object_ref": "BM — (Sm 0277)",
			"object_type": "tablet",
			"period": "First Millennium",
			"primary_publication2": "[1993] George, HMH",
			"project": "btto",
			"provenience": "Nineveh",
			"related_compositions": "Q004807",
			"subgenre": "Miscellaneous Lists",
			"supergenre": "LEX",
			"xproject": "CDLI"
		},
		"geometry": {
			"type": "Point",
			"coordinates": [43.151937,36.358684]
		}
	}, {
		"type": "Feature",
		"properties": {
			"id_text": "P425334",
			"museum_no": "BM —",
			"accession_no": "Sm 0278",
			"composition_designation": "House Most High, pl. 07 Sm 0278",
			"collection": "British Museum, London, UK",
			"designation": "BM — (Sm 0278)",
			"genre": "Lexical",
			"material": "clay",
			"object_ref": "BM — (Sm 0278)",
			"object_type": "tablet",
			"period": "First Millennium",
			"primary_publication2": "[1993] George, HMH",
			"project": "btto",
			"provenience": "Nineveh",
			"related_compositions": "Q004807",
			"subgenre": "Miscellaneous Lists",
			"supergenre": "LEX",
			"xproject": "CDLI"
		},
		"geometry": {
			"type": "Point",
			"coordinates": [43.151937,36.358684]
		}
	}, {
		"type": "Feature",
		"properties": {
			"id_text": "P425458",
			"museum_no": "BM —",
			"accession_no": "Sm 0522",
			"composition_designation": "House Most High, pl. 07 Sm 0522",
			"collection": "British Museum, London, UK",
			"designation": "BM — (Sm 0522)",
			"genre": "Lexical",
			"material": "clay",
			"object_ref": "BM — (Sm 0522)",
			"object_type": "tablet",
			"period": "First Millennium",
			"primary_publication2": "[1993] George, HMH",
			"project": "btto",
			"provenience": "Nineveh",
			"related_compositions": "Q004807",
			"subgenre": "Miscellaneous Lists",
			"supergenre": "LEX",
			"xproject": "CDLI"
		},
		"geometry": {
			"type": "Point",
			"coordinates": [43.151937,36.358684]
		}
	}, {
		"type": "Feature",
		"properties": {
			"id_text": "P480119",
			"museum_no": "DS 32-14",
			"composition_designation": "House Most High no. 03",
			"collection": "unlocated",
			"designation": "DS 32-14",
			"genre": "Lexical",
			"material": "clay",
			"object_ref": "DS 32-14",
			"object_type": "tablet",
			"period": "First Millennium",
			"primary_publication2": "[1993] George, HMH",
			"project": "btto",
			"provenience": "Dur-Sharrukin",
			"related_compositions": "Q007943",
			"subgenre": "Miscellaneous Lists",
			"supergenre": "LEX",
			"xproject": "CDLI"
		},
		"geometry": {
			"type": "Point",
			"coordinates": [43.228261,36.510016]
		}
	}, {
		"type": "Feature",
		"properties": {
			"id_text": "P480120",
			"museum_no": "IM 096881",
			"composition_designation": "House Most High, p. 004 IM 096881",
			"collection": "National Museum of Iraq, Baghdad, Iraq",
			"designation": "IM 096881 (IB 1559)",
			"excavation_no": "IB 1559",
			"material": "clay",
			"object_ref": "IM 096881 (IB 1559)",
			"object_type": "tablet",
			"primary_publication": "IB 1559",
			"primary_publication2": "[1993] George, HMH",
			"project": "btto",
			"provenience": "Isin",
			"xproject": "CDLI"
		},
		"geometry": {
			"type": "Point",
			"coordinates": [45.267191,31.920259]
		}
	}, {
		"type": "Feature",
		"properties": {
			"id_text": "P373910",
			"museum_no": "BM —",
			"accession_no": "Rm 2, 417",
			"collection": "British Museum, London, UK",
			"designation": "BM — (Rm 2, 417)",
			"genre": "Lexical",
			"material": "clay",
			"object_ref": "BM — (Rm 2, 417)",
			"object_type": "tablet",
			"period": "First Millennium",
			"project": "btto",
			"provenience": "Nineveh",
			"related_compositions": "Q004807",
			"subgenre": "Miscellaneous Lists",
			"supergenre": "LEX",
			"xproject": "CDLI"
		},
		"geometry": {
			"type": "Point",
			"coordinates": [43.151937,36.358684]
		}
	}, {
		"type": "Feature",
		"properties": {
			"id_text": "P395011",
			"museum_no": "BM —",
			"accession_no": "K 03436 + K 03474 + K 04186 + K 04218b + K 04414 + K 04772 + K 08233 + K 12023 + K 13377 + Sm 0372",
			"collection": "British Museum, London, UK",
			"designation": "BM — (K 03436 + K 03474 + K 04186 + K 04218b + K 04414 + K 04772 + K 08233 + K 12023 + K 13377 + Sm 0372)",
			"genre": "Lexical",
			"material": "clay",
			"object_ref": "BM — (K 03436 + K 03474 + K 04186 + K 04218b + K 04414 + K 04772 + K 08233 + K 12023 + K 13377 + Sm 0372)",
			"object_type": "tablet",
			"period": "First Millennium",
			"primary_publication": "[1993] George, House Most High, pl. 02-06",
			"project": "btto",
			"provenience": "Nineveh",
			"related_compositions": "Q004807",
			"subgenre": "Miscellaneous Lists",
			"supergenre": "LEX",
			"xproject": "CDLI"
		},
		"geometry": {
			"type": "Point",
			"coordinates": [43.151937,36.358684]
		}
	}, {
		"type": "Feature",
		"properties": {
			"id_text": "P285560",
			"museum_no": "VAT 10755a+b",
			"collection": "Vorderasiatisches Museum, Berlin, Germany",
			"designation": "VAT 10755a+b",
			"genre": "Lexical",
			"material": "clay",
			"object_ref": "VAT 10755a+b",
			"object_type": "tablet",
			"period": "First Millennium",
			"primary_publication": "[1993] George, House Most High, list no. 7",
			"primary_publication2": "KAV 084",
			"project": "btto",
			"provenience": "Ashur",
			"related_compositions": "Q007947",
			"subgenre": "Miscellaneous Lists",
			"supergenre": "LEX",
			"xproject": "CDLI"
		},
		"geometry": {
			"type": "Point",
			"coordinates": [43.262037,35.458121]
		}
	}, {
		"type": "Feature",
		"properties": {
			"id_text": "P286040",
			"museum_no": "BM 123383 (+) BM 128062",
			"accession_no": "1932-12-10, 0326 (+) 1929-10-12, 0718",
			"collection": "British Museum, London, UK",
			"designation": "BM 123383 (+) BM 128062 (1932-12-10, 0326 (+) 1929-10-12, 0718)",
			"genre": "Lexical",
			"material": "clay",
			"object_ref": "BM 123383 (+) BM 128062 (1932-12-10, 0326 (+) 1929-10-12, 0718)",
			"object_type": "tablet",
			"period": "First Millennium",
			"primary_publication": "[1993] George, House Most High, list no. 7",
			"primary_publication2": "[1972] CT 51, 178-179",
			"project": "btto",
			"provenience": "Nineveh",
			"related_compositions": "Q007947",
			"subgenre": "Miscellaneous Lists",
			"supergenre": "LEX",
			"xproject": "CDLI"
		},
		"geometry": {
			"type": "Point",
			"coordinates": [43.151937,36.358684]
		}
	}, {
		"type": "Feature",
		"properties": {
			"id_text": "P398471",
			"museum_no": "BM —",
			"accession_no": "K 10062",
			"collection": "British Museum, London, UK",
			"copy_period": "Neo-Assyrian",
			"designation": "BM — (K 10062)",
			"genre": "Lexical",
			"material": "clay",
			"object_ref": "BM — (K 10062)",
			"object_type": "tablet",
			"period": "First Millennium",
			"project": "btto",
			"provenience": "Nineveh",
			"related_compositions": "Q004806",
			"subgenre": "Miscellaneous Lists",
			"supergenre": "LEX",
			"xproject": "CDLI"
		},
		"geometry": {
			"type": "Point",
			"coordinates": [43.151937,36.358684]
		}
	}, {
		"type": "Feature",
		"properties": {
			"id_text": "X987002",
			"museum_no": "IM 076975",
			"composition_designation": "BTT 145ff., pl. 34 018c",
			"collection": "National Museum of Iraq, Baghdad, Iraq",
			"designation": "IM 076975 (W 22758/5)",
			"excavation_no": "W 22758/5",
			"genre": "Lexical",
			"material": "clay",
			"object_ref": "IM 076975 (W 22758/5)",
			"object_type": "tablet",
			"period": "First Millennium",
			"primary_publication": "[1992] George, BTT",
			"project": "btto",
			"provenience": "Uruk",
			"related_compositions": "Q004806",
			"subgenre": "Miscellaneous Lists",
			"supergenre": "LEX"
		},
		"geometry": {
			"type": "Point",
			"coordinates": [45.638752,31.32446]
		}
	}, {
		"type": "Feature",
		"properties": {
			"id_text": "X086034",
			"museum_no": "VAT 13816 (+) VAT 13937 + VAT 13997",
			"composition_designation": "Götteradressbuch of Ashur Recension A",
			"collection": "Vorderasiatisches Museum, Berlin, Germany",
			"designation": "VAT 13816 (+) VAT 13937 + VAT 13997",
			"genre": "Lexical",
			"material": "clay",
			"object_ref": "VAT 13816 (+) VAT 13937 + VAT 13997",
			"object_type": "tablet",
			"period": "First Millennium",
			"primary_publication": "[1992] George, BTT",
			"project": "btto",
			"provenience": "Ashur",
			"related_compositions": "Q004802",
			"subgenre": "Miscellaneous Lists",
			"supergenre": "LEX"
		},
		"geometry": {
			"type": "Point",
			"coordinates": [43.262037,35.458121]
		}
	}, {
		"type": "Feature",
		"properties": {
			"id_text": "X086028",
			"museum_no": "VAT 13818",
			"composition_designation": "Götteradressbuch of Ashur Recension C₂",
			"collection": "Vorderasiatisches Museum, Berlin, Germany",
			"designation": "VAT 13818",
			"genre": "Lexical",
			"material": "clay",
			"object_ref": "VAT 13818",
			"object_type": "tablet",
			"period": "First Millennium",
			"primary_publication": "[1992] George, BTT",
			"project": "btto",
			"provenience": "Ashur",
			"related_compositions": "Q004805",
			"subgenre": "Miscellaneous Lists",
			"supergenre": "LEX"
		},
		"geometry": {
			"type": "Point",
			"coordinates": [43.262037,35.458121]
		}
	}, {
		"type": "Feature",
		"properties": {
			"id_text": "P425707",
			"museum_no": "BM —",
			"accession_no": "Sm 1008b",
			"composition_designation": "Götteradressbuch of Ashur Recension C₁",
			"collection": "British Museum, London, UK",
			"designation": "BM — (Sm 1008b)",
			"genre": "Lexical",
			"material": "clay",
			"object_ref": "BM — (Sm 1008b)",
			"object_type": "tablet",
			"period": "First Millennium",
			"primary_publication": "[1992] George, BTT",
			"project": "btto",
			"provenience": "Nineveh",
			"related_compositions": "Q004804",
			"subgenre": "Miscellaneous Lists",
			"supergenre": "LEX",
			"xproject": "CDLI"
		},
		"geometry": {
			"type": "Point",
			"coordinates": [43.151937,36.358684]
		}
	}, {
		"type": "Feature",
		"properties": {
			"id_text": "P452156",
			"museum_no": "BM —",
			"accession_no": "1881-02-04, 0252",
			"composition_designation": "Götteradressbuch of Ashur Recension C₁",
			"collection": "British Museum, London, UK",
			"designation": "BM — (1881-02-04, 0252)",
			"genre": "Lexical",
			"material": "clay",
			"object_ref": "BM — (1881-02-04, 0252)",
			"object_type": "tablet",
			"period": "First Millennium",
			"primary_publication": "[1992] George, BTT",
			"project": "btto",
			"provenience": "Nineveh",
			"related_compositions": "Q004804",
			"subgenre": "Miscellaneous Lists",
			"supergenre": "LEX",
			"xproject": "CDLI"
		},
		"geometry": {
			"type": "Point",
			"coordinates": [43.151937,36.358684]
		}
	}, {
		"type": "Feature",
		"properties": {
			"id_text": "P404337",
			"museum_no": "BM —",
			"accession_no": "K 19521",
			"composition_designation": "Götteradressbuch of Ashur Recension C₁",
			"collection": "British Museum, London, UK",
			"designation": "BM — (K 19521)",
			"genre": "Lexical",
			"material": "clay",
			"object_ref": "BM — (K 19521)",
			"object_type": "tablet",
			"period": "First Millennium",
			"primary_publication": "[1992] George, BTT",
			"project": "btto",
			"provenience": "Nineveh",
			"related_compositions": "Q004804",
			"subgenre": "Miscellaneous Lists",
			"supergenre": "LEX",
			"xproject": "CDLI"
		},
		"geometry": {
			"type": "Point",
			"coordinates": [43.151937,36.358684]
		}
	}, {
		"type": "Feature",
		"properties": {
			"id_text": "X086027",
			"museum_no": "VAT 13815",
			"composition_designation": "Götteradressbuch of Ashur Recension C₁",
			"collection": "Vorderasiatisches Museum, Berlin, Germany",
			"designation": "VAT 13815",
			"genre": "Lexical",
			"material": "clay",
			"object_ref": "VAT 13815",
			"object_type": "tablet",
			"period": "First Millennium",
			"primary_publication": "[1992] George, BTT",
			"project": "btto",
			"provenience": "Ashur",
			"related_compositions": "Q004804",
			"subgenre": "Miscellaneous Lists",
			"supergenre": "LEX"
		},
		"geometry": {
			"type": "Point",
			"coordinates": [43.262037,35.458121]
		}
	}, {
		"type": "Feature",
		"properties": {
			"id_text": "X086030",
			"museum_no": "Scheil, RA 14 (+) VAT 14290",
			"composition_designation": "Götteradressbuch of Ashur Recension B, C₁",
			"collection": "Vorderasiatisches Museum, Berlin, Germany",
			"designation": "Scheil, RA 14 (+) VAT 14290",
			"genre": "Lexical",
			"material": "clay",
			"object_ref": "Scheil, RA 14 (+) VAT 14290",
			"object_type": "tablet",
			"period": "First Millennium",
			"primary_publication": "[1992] George, BTT",
			"primary_publication2": "Scheil, RA 14",
			"project": "btto",
			"provenience": "Ashur",
			"related_compositions": "Q004803; Q004804",
			"subgenre": "Miscellaneous Lists",
			"supergenre": "LEX"
		},
		"geometry": {
			"type": "Point",
			"coordinates": [43.262037,35.458121]
		}
	}, {
		"type": "Feature",
		"properties": {
			"id_text": "P285520",
			"museum_no": "VAT 08675",
			"composition_designation": "Götteradressbuch of Ashur Recension B",
			"collection": "Vorderasiatisches Museum, Berlin, Germany",
			"designation": "VAT 08675",
			"genre": "Lexical",
			"material": "clay",
			"object_ref": "VAT 08675",
			"object_type": "tablet",
			"period": "First Millennium",
			"primary_publication": "[1992] George, BTT",
			"project": "btto",
			"provenience": "Ashur",
			"related_compositions": "Q004803",
			"subgenre": "Miscellaneous Lists",
			"supergenre": "LEX",
			"xproject": "CDLI"
		},
		"geometry": {
			"type": "Point",
			"coordinates": [43.262037,35.458121]
		}
	}, {
		"type": "Feature",
		"properties": {
			"id_text": "P285518",
			"museum_no": "VAT 08918",
			"composition_designation": "Götteradressbuch of Ashur Recension B",
			"collection": "Vorderasiatisches Museum, Berlin, Germany",
			"designation": "VAT 08918",
			"genre": "Lexical",
			"material": "clay",
			"object_ref": "VAT 08918",
			"object_type": "tablet",
			"period": "First Millennium",
			"primary_publication": "[1992] George, BTT",
			"project": "btto",
			"provenience": "Ashur",
			"related_compositions": "Q004803",
			"subgenre": "Miscellaneous Lists",
			"supergenre": "LEX",
			"xproject": "CDLI"
		},
		"geometry": {
			"type": "Point",
			"coordinates": [43.262037,35.458121]
		}
	}, {
		"type": "Feature",
		"properties": {
			"id_text": "P285519",
			"museum_no": "VAT 09932 + VAT 13037",
			"composition_designation": "Götteradressbuch of Ashur Recension B",
			"collection": "Vorderasiatisches Museum, Berlin, Germany",
			"designation": "VAT 09932 + VAT 13037",
			"genre": "Lexical",
			"material": "clay",
			"object_ref": "VAT 09932 + VAT 13037",
			"object_type": "tablet",
			"period": "First Millennium",
			"primary_publication": "[1992] George, BTT",
			"project": "btto",
			"provenience": "Ashur",
			"related_compositions": "Q004803",
			"subgenre": "Miscellaneous Lists",
			"supergenre": "LEX",
			"xproject": "CDLI"
		},
		"geometry": {
			"type": "Point",
			"coordinates": [43.262037,35.458121]
		}
	}, {
		"type": "Feature",
		"properties": {
			"id_text": "X086032",
			"museum_no": "VAT 13819 + VAT 14050",
			"composition_designation": "Götteradressbuch of Ashur Recension B",
			"collection": "Vorderasiatisches Museum, Berlin, Germany",
			"designation": "VAT 13819 + VAT 14050",
			"genre": "Lexical",
			"material": "clay",
			"object_ref": "VAT 13819 + VAT 14050",
			"object_type": "tablet",
			"period": "First Millennium",
			"primary_publication": "[1992] George, BTT",
			"project": "btto",
			"provenience": "Ashur",
			"related_compositions": "Q004803",
			"subgenre": "Miscellaneous Lists",
			"supergenre": "LEX"
		},
		"geometry": {
			"type": "Point",
			"coordinates": [43.262037,35.458121]
		}
	}, {
		"type": "Feature",
		"properties": {
			"id_text": "X086033",
			"museum_no": "VAT 13978",
			"composition_designation": "Götteradressbuch of Ashur Recension B",
			"collection": "Vorderasiatisches Museum, Berlin, Germany",
			"designation": "VAT 13978",
			"genre": "Lexical",
			"material": "clay",
			"object_ref": "VAT 13978",
			"object_type": "tablet",
			"period": "First Millennium",
			"primary_publication": "[1992] George, BTT",
			"project": "btto",
			"provenience": "Ashur",
			"related_compositions": "Q004803",
			"subgenre": "Miscellaneous Lists",
			"supergenre": "LEX"
		},
		"geometry": {
			"type": "Point",
			"coordinates": [43.262037,35.458121]
		}
	}, {
		"type": "Feature",
		"properties": {
			"id_text": "X086029",
			"composition_designation": "Götteradressbuch of Ashur Recension B",
			"designation": "Ass 13956y",
			"excavation_no": "Ass 13956y",
			"genre": "Lexical",
			"material": "clay",
			"object_ref": "Ass 13956y",
			"object_type": "tablet",
			"period": "First Millennium",
			"primary_publication": "[1992] George, BTT",
			"project": "btto",
			"provenience": "Ashur",
			"related_compositions": "Q004803",
			"subgenre": "Miscellaneous Lists",
			"supergenre": "LEX"
		},
		"geometry": {
			"type": "Point",
			"coordinates": [43.262037,35.458121]
		}
	}, {
		"type": "Feature",
		"properties": {
			"id_text": "P238333",
			"museum_no": "BM —",
			"accession_no": "K 04714",
			"composition_designation": "Tintir II",
			"collection": "British Museum, London, UK",
			"designation": "BM — (K 04714)",
			"genre": "Lexical",
			"material": "clay",
			"object_ref": "BM — (K 04714)",
			"object_type": "tablet",
			"period": "First Millennium",
			"primary_publication": "[1992] George, BTT",
			"project": "btto",
			"provenience": "Nineveh",
			"related_compositions": "Q004799",
			"subgenre": "Miscellaneous Lists",
			"supergenre": "LEX",
			"xproject": "CDLI"
		},
		"geometry": {
			"type": "Point",
			"coordinates": [43.151937,36.358684]
		}
	}, {
		"type": "Feature",
		"properties": {
			"id_text": "P370392",
			"museum_no": "VAT 13200",
			"composition_designation": "Tintir II",
			"collection": "Vorderasiatisches Museum, Berlin, Germany",
			"designation": "VAT 13200",
			"genre": "Lexical",
			"material": "clay",
			"object_ref": "VAT 13200",
			"object_type": "tablet",
			"period": "First Millennium",
			"primary_publication": "[1992] George, BTT",
			"project": "btto",
			"provenience": "Babylon",
			"related_compositions": "Q004799",
			"subgenre": "Miscellaneous Lists",
			"supergenre": "LEX",
			"xproject": "CDLI"
		},
		"geometry": {
			"type": "Point",
			"coordinates": [44.422236,32.543395]
		}
	}, {
		"type": "Feature",
		"properties": {
			"id_text": "P285561",
			"museum_no": "VAT 11904",
			"composition_designation": "Tintir II",
			"collection": "Vorderasiatisches Museum, Berlin, Germany",
			"designation": "VAT 11904",
			"genre": "Lexical",
			"material": "clay",
			"object_ref": "VAT 11904",
			"object_type": "tablet",
			"period": "First Millennium",
			"primary_publication": "[1992] George, BTT",
			"project": "btto",
			"provenience": "Babylon",
			"related_compositions": "Q004799",
			"subgenre": "Miscellaneous Lists",
			"supergenre": "LEX",
			"xproject": "CDLI"
		},
		"geometry": {
			"type": "Point",
			"coordinates": [44.422236,32.543395]
		}
	}, {
		"type": "Feature",
		"properties": {
			"id_text": "P414349",
			"museum_no": "VAT 00554",
			"composition_designation": "Tintir V",
			"collection": "Vorderasiatisches Museum, Berlin, Germany",
			"designation": "VAT 00554",
			"genre": "Lexical",
			"material": "clay",
			"object_ref": "VAT 00554",
			"object_type": "tablet",
			"period": "First Millennium",
			"primary_publication": "[1992] George, BTT",
			"primary_publication2": "[1896] Reisner, SBH V",
			"project": "btto",
			"provenience": "Babylon",
			"related_compositions": "Q004801",
			"subgenre": "Miscellaneous Lists",
			"supergenre": "LEX",
			"xproject": "CDLI"
		},
		"geometry": {
			"type": "Point",
			"coordinates": [44.422236,32.543395]
		}
	}, {
		"type": "Feature",
		"properties": {
			"id_text": "P285954",
			"museum_no": "BM 034878",
			"accession_no": "Sp 2, 0385",
			"composition_designation": "Tintir V, Names and Locations of Cultic Daises A",
			"collection": "British Museum, London, UK",
			"designation": "BM 034878 (Sp 2, 0385)",
			"genre": "Lexical",
			"material": "clay",
			"object_ref": "BM 034878 (Sp 2, 0385)",
			"object_type": "tablet",
			"period": "First Millennium",
			"primary_publication": "[1992] George, BTT",
			"project": "btto",
			"provenience": "Babylon",
			"related_compositions": "Q004801; Q007957",
			"subgenre": "Miscellaneous Lists",
			"supergenre": "LEX",
			"xproject": "CDLI"
		},
		"geometry": {
			"type": "Point",
			"coordinates": [44.422236,32.543395]
		}
	}, {
		"type": "Feature",
		"properties": {
			"id_text": "X987003",
			"museum_no": "Ist Si 0605",
			"composition_designation": "Tintir V",
			"collection": "Arkeoloji Müzeleri, Istanbul, Turkey",
			"designation": "Ist Si 0605",
			"genre": "Lexical",
			"material": "clay",
			"object_ref": "Ist Si 0605",
			"object_type": "tablet",
			"period": "First Millennium",
			"primary_publication": "[1992] George, BTT",
			"project": "btto",
			"provenience": "Sippar",
			"related_compositions": "Q004801",
			"subgenre": "Miscellaneous Lists",
			"supergenre": "LEX"
		},
		"geometry": {
			"type": "Point",
			"coordinates": [44.253809,33.059195]
		}
	}, {
		"type": "Feature",
		"properties": {
			"id_text": "X987004",
			"museum_no": "VAT 17115",
			"composition_designation": "BTT 145ff., pl. 34 018c",
			"collection": "Vorderasiatisches Museum, Berlin, Germany",
			"designation": "VAT 17115 (BE 39122)",
			"excavation_no": "BE 39122",
			"genre": "Lexical",
			"material": "clay",
			"object_ref": "VAT 17115 (BE 39122)",
			"object_type": "tablet",
			"period": "First Millennium",
			"primary_publication": "[1992] George, BTT",
			"project": "btto",
			"provenience": "Babylon",
			"related_compositions": "Q007953",
			"subgenre": "Miscellaneous Lists",
			"supergenre": "LEX"
		},
		"geometry": {
			"type": "Point",
			"coordinates": [44.422236,32.543395]
		}
	}, {
		"type": "Feature",
		"properties": {
			"id_text": "X987007",
			"museum_no": "VAT 13817",
			"composition_designation": "BTT pl. 01, VAT 13101",
			"collection": "Vorderasiatisches Museum, Berlin, Germany",
			"designation": "VAT 13817 (Ass 13956ft)",
			"excavation_no": "Ass 13956ft",
			"genre": "Lexical",
			"material": "clay",
			"object_ref": "VAT 13817 (Ass 13956ft)",
			"object_type": "tablet",
			"period": "First Millennium",
			"primary_publication": "[1992] George, BTT",
			"project": "btto",
			"provenience": "Ashur",
			"related_compositions": "Q007955; Q007963",
			"subgenre": "Miscellaneous Lists",
			"supergenre": "LEX"
		},
		"geometry": {
			"type": "Point",
			"coordinates": [43.262037,35.458121]
		}
	}, {
		"type": "Feature",
		"properties": {
			"id_text": "X987008",
			"museum_no": "BM 076312",
			"accession_no": "1883-01-18 AH, 1680",
			"composition_designation": "BTT 145ff., pl. 34 018c",
			"collection": "British Museum, London, UK",
			"designation": "BM 076312 (1883-01-18 AH, 1680)",
			"genre": "Lexical",
			"material": "clay",
			"object_ref": "BM 076312 (1883-01-18 AH, 1680)",
			"object_type": "tablet",
			"period": "First Millennium",
			"primary_publication": "[1992] George, BTT",
			"project": "btto",
			"provenience": "Sippar",
			"related_compositions": "Q007956",
			"subgenre": "Miscellaneous Lists",
			"supergenre": "LEX"
		},
		"geometry": {
			"type": "Point",
			"coordinates": [44.253809,33.059195]
		}
	}, {
		"type": "Feature",
		"properties": {
			"id_text": "P394196",
			"museum_no": "BM —",
			"accession_no": "K 02107 + K 06086 + Sm 1720",
			"composition_designation": "BTT pl. 10, BM 034927",
			"collection": "British Museum, London, UK",
			"designation": "BM — (K 02107 + K 06086 + Sm 1720)",
			"genre": "Lexical",
			"material": "clay",
			"object_ref": "BM — (K 02107 + K 06086 + Sm 1720)",
			"object_type": "tablet",
			"period": "First Millennium",
			"primary_publication": "[1992] George, BTT",
			"project": "btto",
			"provenience": "Nineveh",
			"related_compositions": "Q007960",
			"subgenre": "Miscellaneous Lists",
			"supergenre": "LEX",
			"xproject": "CDLI"
		},
		"geometry": {
			"type": "Point",
			"coordinates": [43.151937,36.358684]
		}
	}, {
		"type": "Feature",
		"properties": {
			"id_text": "P363704",
			"museum_no": "AO 06555",
			"composition_designation": "BTT pl. 10, BM 034927",
			"collection": "Louvre Museum, Paris, France",
			"designation": "AO 06555",
			"genre": "Metrological",
			"material": "clay",
			"object_ref": "AO 06555",
			"object_type": "tablet",
			"period": "First Millennium",
			"primary_publication": "[1992] George, BTT",
			"primary_publication2": "[1922] Thureau-Dangin, TCL 06, 32",
			"project": "btto",
			"provenience": "Uruk",
			"related_compositions": "Q007970",
			"subgenre": "Temple Measurements",
			"supergenre": "unknown",
			"xproject": "CDLI"
		},
		"geometry": {
			"type": "Point",
			"coordinates": [45.638752,31.32446]
		}
	}, {
		"type": "Feature",
		"properties": {
			"id_text": "X987011",
			"museum_no": "VAT 09961 + VAT 10335",
			"composition_designation": "BTT pl. 01, VAT 13101",
			"collection": "Vorderasiatisches Museum, Berlin, Germany",
			"designation": "VAT 09961 + VAT 10335",
			"genre": "Metrological",
			"material": "clay",
			"object_ref": "VAT 09961 + VAT 10335",
			"object_type": "tablet",
			"period": "First Millennium",
			"primary_publication": "[1992] George, BTT",
			"project": "btto",
			"provenience": "Ashur",
			"related_compositions": "Q007971",
			"subgenre": "Temple Measurements",
			"supergenre": "unknown"
		},
		"geometry": {
			"type": "Point",
			"coordinates": [43.262037,35.458121]
		}
	}, {
		"type": "Feature",
		"properties": {
			"id_text": "X987012",
			"museum_no": "BM 054634",
			"accession_no": "1882-05-22, 0954",
			"composition_designation": "BTT 145ff., pl. 34 018c",
			"collection": "British Museum, London, UK",
			"designation": "BM 054634 (1882-05-22, 0954)",
			"genre": "Metrological",
			"material": "clay",
			"object_ref": "BM 054634 (1882-05-22, 0954)",
			"object_type": "tablet",
			"period": "First Millennium",
			"primary_publication": "[1992] George, BTT",
			"project": "btto",
			"provenience": "Babylon",
			"related_compositions": "Q007972",
			"subgenre": "City Wall Measurements",
			"supergenre": "unknown"
		},
		"geometry": {
			"type": "Point",
			"coordinates": [44.422236,32.543395]
		}
	}, {
		"type": "Feature",
		"properties": {
			"id_text": "P365727",
			"museum_no": "BM 035385",
			"accession_no": "Sp 2, 0967",
			"composition_designation": "BTT 145ff., pl. 34 018c",
			"collection": "British Museum, London, UK",
			"designation": "BM 035385 (Sp 2, 0967)",
			"genre": "Metrological",
			"material": "clay",
			"object_ref": "BM 035385 (Sp 2, 0967)",
			"object_type": "tablet",
			"period": "First Millennium",
			"primary_publication": "[1992] George, BTT",
			"primary_publication2": "[1906] Campbell Thompson, CT 22, pl. 49",
			"project": "btto",
			"provenience": "Babylon",
			"related_compositions": "Q007973",
			"subgenre": "City Wall Measurements",
			"supergenre": "unknown",
			"xproject": "CDLI"
		},
		"geometry": {
			"type": "Point",
			"coordinates": [44.422236,32.543395]
		}
	}, {
		"type": "Feature",
		"properties": {
			"id_text": "X987014",
			"museum_no": "BM 076493 + BM 083025",
			"accession_no": "1883-01-18 AH, 1863 + 1883-01-21, 0188",
			"composition_designation": "BTT 145ff., pl. 34 018c",
			"collection": "British Museum, London, UK",
			"designation": "BM 076493 + BM 083025 (1883-01-18 AH, 1863 + 1883-01-21, 0188)",
			"genre": "Lexical",
			"material": "clay",
			"object_ref": "BM 076493 + BM 083025 (1883-01-18 AH, 1863 + 1883-01-21, 0188)",
			"object_type": "tablet",
			"period": "First Millennium",
			"primary_publication": "[1992] George, BTT",
			"project": "btto",
			"provenience": "Sippar",
			"related_compositions": "Q007961",
			"subgenre": "Miscellaneous Lists",
			"supergenre": "LEX"
		},
		"geometry": {
			"type": "Point",
			"coordinates": [44.253809,33.059195]
		}
	}, {
		"type": "Feature",
		"properties": {
			"id_text": "P285858",
			"museum_no": "BM 134502",
			"accession_no": "1932-12-12, 0497",
			"composition_designation": "BTT 145ff., pl. 34 018c",
			"collection": "British Museum, London, UK",
			"designation": "BM 134502 (1932-12-12, 0497; TM 1932-079 + TM 1932-138)",
			"excavation_no": "TM 1932-079 + TM 1932-138",
			"genre": "Lexical",
			"material": "clay",
			"object_ref": "BM 134502 (1932-12-12, 0497; TM 1932-079 + TM 1932-138)",
			"object_type": "tablet",
			"period": "First Millennium",
			"primary_publication": "[1992] George, BTT",
			"project": "btto",
			"provenience": "Nineveh",
			"related_compositions": "Q007962",
			"subgenre": "Miscellaneous Lists",
			"supergenre": "LEX",
			"xproject": "CDLI"
		},
		"geometry": {
			"type": "Point",
			"coordinates": [43.151937,36.358684]
		}
	}, {
		"type": "Feature",
		"properties": {
			"id_text": "P285558",
			"museum_no": "VAT 10111",
			"composition_designation": "BTT pl. 01, VAT 13101",
			"collection": "Vorderasiatisches Museum, Berlin, Germany",
			"designation": "VAT 10111",
			"genre": "Lexical",
			"material": "clay",
			"object_ref": "VAT 10111",
			"object_type": "tablet",
			"period": "First Millennium",
			"primary_publication": "[1992] George, BTT",
			"primary_publication2": "[1920] Schroeder, KAV 082",
			"project": "btto",
			"provenience": "Ashur",
			"related_compositions": "Q007964",
			"subgenre": "Miscellaneous Lists",
			"supergenre": "LEX",
			"xproject": "CDLI"
		},
		"geometry": {
			"type": "Point",
			"coordinates": [43.262037,35.458121]
		}
	}, {
		"type": "Feature",
		"properties": {
			"id_text": "P285562",
			"museum_no": "VAT 10942",
			"composition_designation": "BTT pl. 01, VAT 13101",
			"collection": "Vorderasiatisches Museum, Berlin, Germany",
			"designation": "VAT 10942",
			"genre": "Lexical",
			"material": "clay",
			"object_ref": "VAT 10942",
			"object_type": "tablet",
			"period": "First Millennium",
			"primary_publication": "[1992] George, BTT",
			"primary_publication2": "[1920] Schroeder, KAV 086",
			"project": "btto",
			"provenience": "Ashur",
			"related_compositions": "Q007965",
			"subgenre": "Miscellaneous Lists",
			"supergenre": "LEX",
			"xproject": "CDLI"
		},
		"geometry": {
			"type": "Point",
			"coordinates": [43.262037,35.458121]
		}
	}, {
		"type": "Feature",
		"properties": {
			"id_text": "X987015",
			"museum_no": "IM 074458",
			"composition_designation": "House Most High, p. 004 IM 096881",
			"collection": "National Museum of Iraq, Baghdad, Iraq",
			"designation": "IM 074458 (W 22282a)",
			"excavation_no": "W 22282a",
			"genre": "Lexical",
			"material": "clay",
			"object_ref": "IM 074458 (W 22282a)",
			"object_type": "tablet",
			"period": "First Millennium",
			"primary_publication": "IB 1559",
			"primary_publication2": "[1993] George, HMH",
			"project": "btto",
			"provenience": "Uruk",
			"related_compositions": "Q007966",
			"subgenre": "Miscellaneous Lists",
			"supergenre": "LEX"
		},
		"geometry": {
			"type": "Point",
			"coordinates": [45.638752,31.32446]
		}
	}, {
		"type": "Feature",
		"properties": {
			"id_text": "P247815",
			"museum_no": "BM —",
			"composition_designation": "BTT 145ff., pl. 34 018c",
			"collection": "British Museum, London, UK",
			"designation": "BM — (Ur —)",
			"excavation_no": "Ur —",
			"genre": "Lexical",
			"material": "clay",
			"object_ref": "BM — (Ur —)",
			"object_type": "tablet",
			"period": "First Millennium",
			"primary_publication": "[1992] George, BTT",
			"primary_publication2": "[1974] Gurney, UET 7, 0132",
			"project": "btto",
			"provenience": "Ur",
			"related_compositions": "Q007967",
			"subgenre": "Miscellaneous Lists",
			"supergenre": "LEX",
			"xproject": "CDLI"
		},
		"geometry": {
			"type": "Point",
			"coordinates": [46.104748,30.961580]
		}
	}, {
		"type": "Feature",
		"properties": {
			"id_text": "P347092",
			"museum_no": "BM —",
			"composition_designation": "BTT 145ff., pl. 34 018c",
			"collection": "British Museum, London, UK",
			"designation": "BM — (Ur —)",
			"excavation_no": "Ur —",
			"genre": "Lexical",
			"material": "clay",
			"object_ref": "BM — (Ur —)",
			"object_type": "tablet",
			"period": "First Millennium",
			"primary_publication": "[1992] George, BTT",
			"primary_publication2": "[1974] Gurney, UET 7, 0134",
			"project": "btto",
			"provenience": "Ur",
			"related_compositions": "Q007968",
			"subgenre": "Miscellaneous Lists",
			"supergenre": "LEX",
			"xproject": "CDLI"
		},
		"geometry": {
			"type": "Point",
			"coordinates": [46.104748,30.961580]
		}
	}, {
		"type": "Feature",
		"properties": {
			"id_text": "P247835",
			"museum_no": "BM —",
			"composition_designation": "BTT 145ff., pl. 34 018c",
			"collection": "British Museum, London, UK",
			"designation": "BM — (Ur —)",
			"excavation_no": "Ur —",
			"genre": "Lexical",
			"material": "clay",
			"object_ref": "BM — (Ur —)",
			"object_type": "tablet",
			"period": "First Millennium",
			"primary_publication": "[1992] George, BTT",
			"primary_publication2": "[1974] Gurney, UET 7, 0139",
			"project": "btto",
			"provenience": "Ur",
			"related_compositions": "Q007969",
			"subgenre": "Miscellaneous Lists",
			"supergenre": "LEX",
			"xproject": "CDLI"
		},
		"geometry": {
			"type": "Point",
			"coordinates": [46.104748,30.961580]
		}
	}, {
		"type": "Feature",
		"properties": {
			"id_text": "X987018",
			"museum_no": "BM 087224",
			"composition_designation": "Tintir I",
			"collection": "British Museum, London, UK",
			"designation": "BM 087224",
			"genre": "Lexical",
			"material": "clay",
			"object_ref": "BM 087224",
			"object_type": "tablet",
			"period": "First Millennium",
			"primary_publication": "[1997] George, &apos;Bond of the Lands&apos;",
			"project": "btto",
			"provenience": "Babylon",
			"related_compositions": "Q004798",
			"subgenre": "Miscellaneous Lists",
			"supergenre": "LEX"
		},
		"geometry": {
			"type": "Point",
			"coordinates": [44.422236,32.543395]
		}
	}, {
		"type": "Feature",
		"properties": {
			"id_text": "X987017",
			"museum_no": "BM 076101",
			"composition_designation": "Tintir I",
			"collection": "British Museum, London, UK",
			"designation": "BM 076101",
			"genre": "Lexical",
			"material": "clay",
			"object_ref": "BM 076101",
			"object_type": "tablet",
			"period": "First Millennium",
			"primary_publication": "[1997] George, &apos;Bond of the Lands&apos;",
			"project": "btto",
			"provenience": "Sippar",
			"related_compositions": "Q004798",
			"subgenre": "Miscellaneous Lists",
			"supergenre": "LEX"
		},
		"geometry": {
			"type": "Point",
			"coordinates": [44.253809,33.059195]
		}
	}]
}
