{
	"type": "FeatureCollection",
	"features": [{
		"type": "Feature",
		"properties": {
			"project": "tilbarsip",
			"id_text": "P522592",
			"primary_publication": "Til-Barsip 01",
			"provenience": "Tell Ahmar (Til Barsip)",
			"excavation_no": "T 01",
			"archive": "001 - Hanni Archive (House C1)",
			"atae_attribution": "Adapted from Stephanie Dalley, “Neo-Assyrian Tablets from Til Barsib,&quot; Abr-Nahrain 34 (1996–97) pp. 66–99, by Jamie Novotny and Poppy Tushingham (2021) for the Munich Open-access Cuneiform Corpus Initiative (MOCCI), which is funded by LMU Munich and the Alexander von Humboldt Foundation at the Historisches Seminar - Abteilung Alte Geschichte of Ludwig-Maximilians-Universität München. The text was lemmatized by Jamie Novotny and the English translation was adapted by Poppy Tushingham from Dalley’s translation. The online edition is released under the Creative Commons Attribution Share-Alike license 3.0.",
			"cite_as": "Please cite this page as http://oracc.org/atae/P522592/.",
			"collection": "National Museum of Syria, Aleppo, Syria",
			"composite_witness": "witness",
			"credits": "Adapted from Stephanie Dalley, “Neo-Assyrian Tablets from Til Barsib,&quot; Abr-Nahrain 34 (1996–97) pp. 66–99, by Jamie Novotny and Poppy Tushingham (2021) for the Munich Open-access Cuneiform Corpus Initiative (MOCCI), which is funded by LMU Munich and the Alexander von Humboldt Foundation at the Historisches Seminar - Abteilung Alte Geschichte of Ludwig-Maximilians-Universität München. The text was lemmatized by Jamie Novotny and the English translation was adapted by Poppy Tushingham from Dalley’s translation. The online edition is released under the Creative Commons Attribution Share-Alike license 3.0. Please cite this page as http://oracc.org/atae/P522592/.",
			"date_of_origin": "00.000.00.00",
			"designation": "Til-Barsip 01",
			"dialect": "Neo-Assyrian",
			"genre": "Administrative Record",
			"has_date": "no",
			"language": "Akkadian",
			"last_mod_by": "Jamie Novotny",
			"last_modified": "23.10.2021",
			"list_name": "atae/tilbarsip:P522592",
			"material": "clay",
			"object_type": "tablet",
			"period": "Neo-Assyrian",
			"script": "Neo-Assyrian",
			"script_remarks": "inscribed",
			"script_type": "Cuneiform",
			"sealed_marked": "no",
			"subgenre": "list (rations)"
		},
		"geometry": {
			"type": "Point",
			"coordinates": [38.1191944, 36.6749623]
		}
	}, {
		"type": "Feature",
		"properties": {
			"project": "tilbarsip",
			"id_text": "P522593",
			"primary_publication": "Til-Barsip 02",
			"provenience": "Tell Ahmar (Til Barsip)",
			"excavation_no": "T 02",
			"archive": "001 - Hanni Archive (House C1)",
			"date": "[...]-VII-[...]",
			"long_date": "Tašrītu [...th], eponymy of Ašš[ur?-...]",
			"ancient_creditor": "Hanni",
			"ancient_debtor": "Nabû-kin-[...]",
			"atae_attribution": "Adapted from Stephanie Dalley, “Neo-Assyrian Tablets from Til Barsib,&quot; Abr-Nahrain 34 (1996–97) pp. 66–99, by Jamie Novotny and Poppy Tushingham (2021) for the Munich Open-access Cuneiform Corpus Initiative (MOCCI), which is funded by LMU Munich and the Alexander von Humboldt Foundation at the Historisches Seminar - Abteilung Alte Geschichte of Ludwig-Maximilians-Universität München. The text was lemmatized by Jamie Novotny and the English translation was adapted by Poppy Tushingham from Dalley’s translation. The online edition is released under the Creative Commons Attribution Share-Alike license 3.0.",
			"cite_as": "Please cite this page as http://oracc.org/atae/P522593/.",
			"collection": "National Museum of Syria, Aleppo, Syria",
			"composite_witness": "witness",
			"credits": "Adapted from Stephanie Dalley, “Neo-Assyrian Tablets from Til Barsib,&quot; Abr-Nahrain 34 (1996–97) pp. 66–99, by Jamie Novotny and Poppy Tushingham (2021) for the Munich Open-access Cuneiform Corpus Initiative (MOCCI), which is funded by LMU Munich and the Alexander von Humboldt Foundation at the Historisches Seminar - Abteilung Alte Geschichte of Ludwig-Maximilians-Universität München. The text was lemmatized by Jamie Novotny and the English translation was adapted by Poppy Tushingham from Dalley’s translation. The online edition is released under the Creative Commons Attribution Share-Alike license 3.0. Please cite this page as http://oracc.org/atae/P522593/.",
			"date_gen": "[...]-VII-[...]",
			"date_of_origin": "00.000.07.00",
			"day": "[...]",
			"designation": "Til-Barsip 02",
			"dialect": "Neo-Assyrian",
			"genre": "Legal Transaction",
			"has_date": "yes, but date partially preserved",
			"language": "Akkadian",
			"last_mod_by": "Jamie Novotny",
			"last_modified": "23.10.2021",
			"list_name": "atae/tilbarsip:P522593",
			"long_date_gen": "Tašrītu ...th, [eponymy of ...]",
			"material": "clay",
			"month": "VII",
			"object_type": "tablet",
			"period": "Neo-Assyrian",
			"script": "Neo-Assyrian",
			"script_remarks": "inscribed",
			"script_type": "Cuneiform",
			"sealed_marked": "no",
			"subgenre": "debt note",
			"year": "[...]"
		},
		"geometry": {
			"type": "Point",
			"coordinates": [38.1191944, 36.6749623]
		}
	}, {
		"type": "Feature",
		"properties": {
			"project": "tilbarsip",
			"id_text": "P522594",
			"primary_publication": "Til-Barsip 03",
			"provenience": "Tell Ahmar (Til Barsip)",
			"excavation_no": "T 03",
			"archive": "001 - Hanni Archive (House C1)",
			"date": "650-VII-01",
			"long_date": "Tašrītu 1[st], eponymy of Bēl-Harrān-šadd[û’a]",
			"atae_attribution": "Adapted from Stephanie Dalley, “Neo-Assyrian Tablets from Til Barsib,&quot; Abr-Nahrain 34 (1996–97) pp. 66–99, by Jamie Novotny and Poppy Tushingham (2021) for the Munich Open-access Cuneiform Corpus Initiative (MOCCI), which is funded by LMU Munich and the Alexander von Humboldt Foundation at the Historisches Seminar - Abteilung Alte Geschichte of Ludwig-Maximilians-Universität München. The text was lemmatized by Jamie Novotny and the English translation was adapted by Poppy Tushingham from Dalley’s translation. The online edition is released under the Creative Commons Attribution Share-Alike license 3.0.",
			"cite_as": "Please cite this page as http://oracc.org/atae/P522594/.",
			"collection": "National Museum of Syria, Aleppo, Syria",
			"composite_witness": "witness",
			"credits": "Adapted from Stephanie Dalley, “Neo-Assyrian Tablets from Til Barsib,&quot; Abr-Nahrain 34 (1996–97) pp. 66–99, by Jamie Novotny and Poppy Tushingham (2021) for the Munich Open-access Cuneiform Corpus Initiative (MOCCI), which is funded by LMU Munich and the Alexander von Humboldt Foundation at the Historisches Seminar - Abteilung Alte Geschichte of Ludwig-Maximilians-Universität München. The text was lemmatized by Jamie Novotny and the English translation was adapted by Poppy Tushingham from Dalley’s translation. The online edition is released under the Creative Commons Attribution Share-Alike license 3.0. Please cite this page as http://oracc.org/atae/P522594/.",
			"date_gen": "650-VII-01",
			"date_of_origin": "Assurbanipal.limu Bel-Harran-shaddu’a.07.01",
			"day": "01",
			"designation": "Til-Barsip 03",
			"dialect": "Neo-Assyrian",
			"eponym": "Bēl-Harrān-šaddû’a",
			"genre": "Legal Transaction",
			"has_date": "yes",
			"language": "Akkadian",
			"last_mod_by": "Jamie Novotny",
			"last_modified": "23.10.2021",
			"list_name": "atae/tilbarsip:P522594",
			"long_date_gen": "Tašrītu 1st, eponymy of Bēl-Harrān-šaddû’a",
			"material": "clay",
			"month": "VII",
			"object_type": "envelope",
			"period": "Neo-Assyrian",
			"regnal_dates": "668–ca. 631 BC",
			"ruler": "Ashurbanipal",
			"script": "Neo-Assyrian",
			"script_remarks": "inscribed",
			"script_type": "Cuneiform",
			"sealed_marked": "unknown",
			"year": "650"
		},
		"geometry": {
			"type": "Point",
			"coordinates": [38.1191944, 36.6749623]
		}
	}, {
		"type": "Feature",
		"properties": {
			"project": "tilbarsip",
			"id_text": "P522595",
			"primary_publication": "Til-Barsip 04",
			"provenience": "Tell Ahmar (Til Barsip)",
			"excavation_no": "T 04",
			"archive": "001 - Hanni Archive (House C1)",
			"date": "650-VII-01",
			"long_date": "Tašrītu 1st, eponymy of Bēl-Harrān-šadd[û’a]",
			"ancient_creditor": "Hanni",
			"ancient_debtor": "Šarru-lu-dari",
			"atae_attribution": "Adapted from Stephanie Dalley, “Neo-Assyrian Tablets from Til Barsib,&quot; Abr-Nahrain 34 (1996–97) pp. 66–99, by Jamie Novotny and Poppy Tushingham (2021) for the Munich Open-access Cuneiform Corpus Initiative (MOCCI), which is funded by LMU Munich and the Alexander von Humboldt Foundation at the Historisches Seminar - Abteilung Alte Geschichte of Ludwig-Maximilians-Universität München. The text was lemmatized by Jamie Novotny and the English translation was adapted by Poppy Tushingham from Dalley’s translation. The online edition is released under the Creative Commons Attribution Share-Alike license 3.0.",
			"cite_as": "Please cite this page as http://oracc.org/atae/P522595/.",
			"collection": "National Museum of Syria, Aleppo, Syria",
			"composite_witness": "witness",
			"credits": "Adapted from Stephanie Dalley, “Neo-Assyrian Tablets from Til Barsib,&quot; Abr-Nahrain 34 (1996–97) pp. 66–99, by Jamie Novotny and Poppy Tushingham (2021) for the Munich Open-access Cuneiform Corpus Initiative (MOCCI), which is funded by LMU Munich and the Alexander von Humboldt Foundation at the Historisches Seminar - Abteilung Alte Geschichte of Ludwig-Maximilians-Universität München. The text was lemmatized by Jamie Novotny and the English translation was adapted by Poppy Tushingham from Dalley’s translation. The online edition is released under the Creative Commons Attribution Share-Alike license 3.0. Please cite this page as http://oracc.org/atae/P522595/.",
			"date_gen": "650-VII-01",
			"date_of_origin": "Assurbanipal.limu Bel-Harran-shaddu’a.07.01",
			"day": "01",
			"designation": "Til-Barsip 04",
			"dialect": "Neo-Assyrian",
			"eponym": "Bēl-Harrān-šaddû’a",
			"genre": "Legal Transaction",
			"has_date": "yes",
			"language": "Akkadian",
			"last_mod_by": "Jamie Novotny",
			"last_modified": "23.10.2021",
			"list_name": "atae/tilbarsip:P522595",
			"long_date_gen": "Tašrītu 1st, eponymy of Bēl-Harrān-šaddû’a",
			"material": "clay",
			"month": "VII",
			"object_type": "tablet",
			"period": "Neo-Assyrian",
			"regnal_dates": "668–ca. 631 BC",
			"ruler": "Ashurbanipal",
			"script": "Neo-Assyrian",
			"script_remarks": "inscribed",
			"script_type": "Cuneiform",
			"sealed_marked": "no",
			"subgenre": "debt note (silver)",
			"year": "650"
		},
		"geometry": {
			"type": "Point",
			"coordinates": [38.1191944, 36.6749623]
		}
	}, {
		"type": "Feature",
		"properties": {
			"project": "tilbarsip",
			"id_text": "P522596",
			"primary_publication": "Til-Barsip 05",
			"provenience": "Tell Ahmar (Til Barsip)",
			"excavation_no": "T 05",
			"archive": "001 - Hanni Archive (House C1)",
			"atae_attribution": "Adapted from Stephanie Dalley, “Neo-Assyrian Tablets from Til Barsib,&quot; Abr-Nahrain 34 (1996–97) pp. 66–99, by Jamie Novotny and Poppy Tushingham (2021) for the Munich Open-access Cuneiform Corpus Initiative (MOCCI), which is funded by LMU Munich and the Alexander von Humboldt Foundation at the Historisches Seminar - Abteilung Alte Geschichte of Ludwig-Maximilians-Universität München. The text was lemmatized by Jamie Novotny and the English translation was adapted by Poppy Tushingham from Dalley’s translation. The online edition is released under the Creative Commons Attribution Share-Alike license 3.0.",
			"cite_as": "Please cite this page as http://oracc.org/atae/P522596/.",
			"collection": "National Museum of Syria, Aleppo, Syria",
			"composite_witness": "witness",
			"credits": "Adapted from Stephanie Dalley, “Neo-Assyrian Tablets from Til Barsib,&quot; Abr-Nahrain 34 (1996–97) pp. 66–99, by Jamie Novotny and Poppy Tushingham (2021) for the Munich Open-access Cuneiform Corpus Initiative (MOCCI), which is funded by LMU Munich and the Alexander von Humboldt Foundation at the Historisches Seminar - Abteilung Alte Geschichte of Ludwig-Maximilians-Universität München. The text was lemmatized by Jamie Novotny and the English translation was adapted by Poppy Tushingham from Dalley’s translation. The online edition is released under the Creative Commons Attribution Share-Alike license 3.0. Please cite this page as http://oracc.org/atae/P522596/.",
			"date_of_origin": "00.000.00.00",
			"designation": "Til-Barsip 05",
			"dialect": "Neo-Assyrian",
			"genre": "Legal Transaction",
			"has_date": "yes, but date completely destroyed",
			"language": "Akkadian",
			"last_mod_by": "Jamie Novotny",
			"last_modified": "23.10.2021",
			"list_name": "atae/tilbarsip:P522596",
			"material": "clay",
			"object_type": "tablet",
			"period": "Neo-Assyrian",
			"script": "Neo-Assyrian",
			"script_remarks": "inscribed",
			"script_type": "Cuneiform",
			"sealed_marked": "unknown",
			"subgenre": "sales document"
		},
		"geometry": {
			"type": "Point",
			"coordinates": [38.1191944, 36.6749623]
		}
	}, {
		"type": "Feature",
		"properties": {
			"project": "tilbarsip",
			"id_text": "P522597",
			"primary_publication": "Til-Barsip 06",
			"provenience": "Tell Ahmar (Til Barsip)",
			"excavation_no": "T 06",
			"archive": "001 - Hanni Archive (House C1)",
			"date": "640*-IX",
			"long_date": "Kislīmu, eponymy after that of Aššur-garu’a-[nere]",
			"ancient_creditor": "Hanni",
			"ancient_debtor": "Ilu-badi; Adad-ahu-[...]",
			"atae_attribution": "Adapted from Stephanie Dalley, “Neo-Assyrian Tablets from Til Barsib,&quot; Abr-Nahrain 34 (1996–97) pp. 66–99, by Jamie Novotny and Poppy Tushingham (2021) for the Munich Open-access Cuneiform Corpus Initiative (MOCCI), which is funded by LMU Munich and the Alexander von Humboldt Foundation at the Historisches Seminar - Abteilung Alte Geschichte of Ludwig-Maximilians-Universität München. The text was lemmatized by Jamie Novotny and the English translation was adapted by Poppy Tushingham from Dalley’s translation. The online edition is released under the Creative Commons Attribution Share-Alike license 3.0.",
			"cite_as": "Please cite this page as http://oracc.org/atae/P522597/.",
			"collection": "National Museum of Syria, Aleppo, Syria",
			"composite_witness": "witness",
			"credits": "Adapted from Stephanie Dalley, “Neo-Assyrian Tablets from Til Barsib,&quot; Abr-Nahrain 34 (1996–97) pp. 66–99, by Jamie Novotny and Poppy Tushingham (2021) for the Munich Open-access Cuneiform Corpus Initiative (MOCCI), which is funded by LMU Munich and the Alexander von Humboldt Foundation at the Historisches Seminar - Abteilung Alte Geschichte of Ludwig-Maximilians-Universität München. The text was lemmatized by Jamie Novotny and the English translation was adapted by Poppy Tushingham from Dalley’s translation. The online edition is released under the Creative Commons Attribution Share-Alike license 3.0. Please cite this page as http://oracc.org/atae/P522597/.",
			"date_gen": "640*-IX",
			"date_of_origin": "Assurbanipal.limu Shamash-metu-uballit.09.00",
			"designation": "Til-Barsip 06",
			"dialect": "Neo-Assyrian",
			"eponym": "Šamaš-mētu-uballiṭ",
			"genre": "Legal Transaction",
			"has_date": "yes",
			"language": "Akkadian",
			"last_mod_by": "Jamie Novotny",
			"last_modified": "23.10.2021",
			"list_name": "atae/tilbarsip:P522597",
			"long_date_gen": "Kislīmu , eponymy of Šamaš-mētu-uballiṭ",
			"material": "clay",
			"month": "IX",
			"object_type": "tablet",
			"period": "Neo-Assyrian",
			"regnal_dates": "668–ca. 631 BC",
			"ruler": "Ashurbanipal",
			"script": "Neo-Assyrian",
			"script_remarks": "inscribed",
			"script_type": "Cuneiform",
			"sealed_marked": "no",
			"subgenre": "debt note (silver)",
			"year": "640*"
		},
		"geometry": {
			"type": "Point",
			"coordinates": [38.1191944, 36.6749623]
		}
	}, {
		"type": "Feature",
		"properties": {
			"project": "tilbarsip",
			"id_text": "P522598",
			"primary_publication": "Til-Barsip 07",
			"provenience": "Tell Ahmar (Til Barsip)",
			"excavation_no": "T 07",
			"archive": "001 - Hanni Archive (House C1)",
			"atae_attribution": "Adapted from Stephanie Dalley, “Neo-Assyrian Tablets from Til Barsib,&quot; Abr-Nahrain 34 (1996–97) pp. 66–99, by Jamie Novotny and Poppy Tushingham (2021) for the Munich Open-access Cuneiform Corpus Initiative (MOCCI), which is funded by LMU Munich and the Alexander von Humboldt Foundation at the Historisches Seminar - Abteilung Alte Geschichte of Ludwig-Maximilians-Universität München. The text was lemmatized by Jamie Novotny and the English translation was adapted by Poppy Tushingham from Dalley’s translation. The online edition is released under the Creative Commons Attribution Share-Alike license 3.0.",
			"cite_as": "Please cite this page as http://oracc.org/atae/P522598/.",
			"collection": "National Museum of Syria, Aleppo, Syria",
			"composite_witness": "witness",
			"credits": "Adapted from Stephanie Dalley, “Neo-Assyrian Tablets from Til Barsib,&quot; Abr-Nahrain 34 (1996–97) pp. 66–99, by Jamie Novotny and Poppy Tushingham (2021) for the Munich Open-access Cuneiform Corpus Initiative (MOCCI), which is funded by LMU Munich and the Alexander von Humboldt Foundation at the Historisches Seminar - Abteilung Alte Geschichte of Ludwig-Maximilians-Universität München. The text was lemmatized by Jamie Novotny and the English translation was adapted by Poppy Tushingham from Dalley’s translation. The online edition is released under the Creative Commons Attribution Share-Alike license 3.0. Please cite this page as http://oracc.org/atae/P522598/.",
			"date_of_origin": "00.000.00.00",
			"designation": "Til-Barsip 07",
			"dialect": "Neo-Assyrian",
			"genre": "Legal Transaction",
			"language": "Akkadian",
			"last_mod_by": "Jamie Novotny",
			"last_modified": "23.10.2021",
			"list_name": "atae/tilbarsip:P522598",
			"material": "clay",
			"object_type": "envelope",
			"period": "Neo-Assyrian",
			"script": "Neo-Assyrian",
			"script_remarks": "inscribed",
			"script_type": "Cuneiform",
			"sealed_marked": "unknown"
		},
		"geometry": {
			"type": "Point",
			"coordinates": [38.1191944, 36.6749623]
		}
	}, {
		"type": "Feature",
		"properties": {
			"project": "tilbarsip",
			"id_text": "P522599",
			"primary_publication": "Til-Barsip 08",
			"provenience": "Tell Ahmar (Til Barsip)",
			"excavation_no": "T 08",
			"archive": "001 - Hanni Archive (House C1)",
			"date": "[...]-II-03",
			"long_date": "Ayyāru 3rd, eponymy of Man[nu-...]",
			"ancient_buyer": "Hanni",
			"ancient_seller": "Ilu-id[dina]",
			"atae_attribution": "Adapted from Stephanie Dalley, “Neo-Assyrian Tablets from Til Barsib,&quot; Abr-Nahrain 34 (1996–97) pp. 66–99, by Jamie Novotny and Poppy Tushingham (2021) for the Munich Open-access Cuneiform Corpus Initiative (MOCCI), which is funded by LMU Munich and the Alexander von Humboldt Foundation at the Historisches Seminar - Abteilung Alte Geschichte of Ludwig-Maximilians-Universität München. The text was lemmatized by Jamie Novotny and the English translation was adapted by Poppy Tushingham from Dalley’s translation. The online edition is released under the Creative Commons Attribution Share-Alike license 3.0.",
			"cite_as": "Please cite this page as http://oracc.org/atae/P522599/.",
			"collection": "National Museum of Syria, Aleppo, Syria",
			"composite_witness": "witness",
			"credits": "Adapted from Stephanie Dalley, “Neo-Assyrian Tablets from Til Barsib,&quot; Abr-Nahrain 34 (1996–97) pp. 66–99, by Jamie Novotny and Poppy Tushingham (2021) for the Munich Open-access Cuneiform Corpus Initiative (MOCCI), which is funded by LMU Munich and the Alexander von Humboldt Foundation at the Historisches Seminar - Abteilung Alte Geschichte of Ludwig-Maximilians-Universität München. The text was lemmatized by Jamie Novotny and the English translation was adapted by Poppy Tushingham from Dalley’s translation. The online edition is released under the Creative Commons Attribution Share-Alike license 3.0. Please cite this page as http://oracc.org/atae/P522599/.",
			"date_gen": "[...]-II-03",
			"date_of_origin": "00.000.02.03",
			"day": "03",
			"designation": "Til-Barsip 08",
			"dialect": "Neo-Assyrian",
			"genre": "Legal Transaction",
			"has_date": "yes, but date partially preserved",
			"language": "Akkadian",
			"last_mod_by": "Jamie Novotny",
			"last_modified": "23.10.2021",
			"list_name": "atae/tilbarsip:P522599",
			"long_date_gen": "Ayyāru 3rd, [eponymy of ...]",
			"material": "clay",
			"month": "II",
			"object_type": "tablet",
			"period": "Neo-Assyrian",
			"script": "Neo-Assyrian",
			"script_remarks": "inscribed",
			"script_type": "Cuneiform",
			"seal_mark_type": "stamp seal",
			"seal_owner": "Ilu-id[dina]",
			"sealed_marked": "yes",
			"subgenre": "sales document (person)",
			"year": "[...]"
		},
		"geometry": {
			"type": "Point",
			"coordinates": [38.1191944, 36.6749623]
		}
	}, {
		"type": "Feature",
		"properties": {
			"project": "tilbarsip",
			"id_text": "P522600",
			"primary_publication": "Til-Barsip 09",
			"provenience": "Tell Ahmar (Til Barsip)",
			"excavation_no": "T 09",
			"archive": "001 - Hanni Archive (House C1)",
			"ancient_buyer": "Hanni",
			"atae_attribution": "Adapted from Stephanie Dalley, “Neo-Assyrian Tablets from Til Barsib,&quot; Abr-Nahrain 34 (1996–97) pp. 66–99, by Jamie Novotny and Poppy Tushingham (2021) for the Munich Open-access Cuneiform Corpus Initiative (MOCCI), which is funded by LMU Munich and the Alexander von Humboldt Foundation at the Historisches Seminar - Abteilung Alte Geschichte of Ludwig-Maximilians-Universität München. The text was lemmatized by Jamie Novotny and the English translation was adapted by Poppy Tushingham from Dalley’s translation. The online edition is released under the Creative Commons Attribution Share-Alike license 3.0.",
			"cite_as": "Please cite this page as http://oracc.org/atae/P522600/.",
			"collection": "National Museum of Syria, Aleppo, Syria",
			"composite_witness": "witness",
			"credits": "Adapted from Stephanie Dalley, “Neo-Assyrian Tablets from Til Barsib,&quot; Abr-Nahrain 34 (1996–97) pp. 66–99, by Jamie Novotny and Poppy Tushingham (2021) for the Munich Open-access Cuneiform Corpus Initiative (MOCCI), which is funded by LMU Munich and the Alexander von Humboldt Foundation at the Historisches Seminar - Abteilung Alte Geschichte of Ludwig-Maximilians-Universität München. The text was lemmatized by Jamie Novotny and the English translation was adapted by Poppy Tushingham from Dalley’s translation. The online edition is released under the Creative Commons Attribution Share-Alike license 3.0. Please cite this page as http://oracc.org/atae/P522600/.",
			"date_of_origin": "00.000.00.00",
			"designation": "Til-Barsip 09",
			"dialect": "Neo-Assyrian",
			"genre": "Legal Transaction",
			"has_date": "yes, but date completely destroyed",
			"language": "Akkadian",
			"last_mod_by": "Jamie Novotny",
			"last_modified": "23.10.2021",
			"list_name": "atae/tilbarsip:P522600",
			"material": "clay",
			"object_type": "tablet",
			"period": "Neo-Assyrian",
			"script": "Neo-Assyrian",
			"script_remarks": "inscribed",
			"script_type": "Cuneiform",
			"seal_mark_type": "stamp seal",
			"sealed_marked": "yes",
			"subgenre": "sales document (person)"
		},
		"geometry": {
			"type": "Point",
			"coordinates": [38.1191944, 36.6749623]
		}
	}, {
		"type": "Feature",
		"properties": {
			"project": "tilbarsip",
			"id_text": "P522601",
			"primary_publication": "Til-Barsip 10",
			"provenience": "Tell Ahmar (Til Barsip)",
			"excavation_no": "T 10",
			"archive": "001 - Hanni Archive (House C1)",
			"atae_attribution": "Adapted from Stephanie Dalley, “Neo-Assyrian Tablets from Til Barsib,&quot; Abr-Nahrain 34 (1996–97) pp. 66–99, by Jamie Novotny and Poppy Tushingham (2021) for the Munich Open-access Cuneiform Corpus Initiative (MOCCI), which is funded by LMU Munich and the Alexander von Humboldt Foundation at the Historisches Seminar - Abteilung Alte Geschichte of Ludwig-Maximilians-Universität München. The text was lemmatized by Jamie Novotny and the English translation was adapted by Poppy Tushingham from Dalley’s translation. The online edition is released under the Creative Commons Attribution Share-Alike license 3.0.",
			"cite_as": "Please cite this page as http://oracc.org/atae/P522601/.",
			"collection": "National Museum of Syria, Aleppo, Syria",
			"composite_witness": "witness",
			"credits": "Adapted from Stephanie Dalley, “Neo-Assyrian Tablets from Til Barsib,&quot; Abr-Nahrain 34 (1996–97) pp. 66–99, by Jamie Novotny and Poppy Tushingham (2021) for the Munich Open-access Cuneiform Corpus Initiative (MOCCI), which is funded by LMU Munich and the Alexander von Humboldt Foundation at the Historisches Seminar - Abteilung Alte Geschichte of Ludwig-Maximilians-Universität München. The text was lemmatized by Jamie Novotny and the English translation was adapted by Poppy Tushingham from Dalley’s translation. The online edition is released under the Creative Commons Attribution Share-Alike license 3.0. Please cite this page as http://oracc.org/atae/P522601/.",
			"date_of_origin": "00.000.00.00",
			"designation": "Til-Barsip 10",
			"dialect": "Neo-Assyrian",
			"genre": "Legal Transaction",
			"language": "Akkadian",
			"last_mod_by": "Jamie Novotny",
			"last_modified": "23.10.2021",
			"list_name": "atae/tilbarsip:P522601",
			"material": "clay",
			"object_type": "envelope",
			"period": "Neo-Assyrian",
			"script": "Neo-Assyrian",
			"script_remarks": "inscribed",
			"script_type": "Cuneiform"
		},
		"geometry": {
			"type": "Point",
			"coordinates": [38.1191944, 36.6749623]
		}
	}, {
		"type": "Feature",
		"properties": {
			"project": "tilbarsip",
			"id_text": "P522602",
			"primary_publication": "Til-Barsip 11",
			"provenience": "Tell Ahmar (Til Barsip)",
			"excavation_no": "T 11",
			"archive": "001 - Hanni Archive (House C1)",
			"atae_attribution": "Adapted from P. Bordreuil and F. Briquel-Chatonnet, &quot;Aramaic Documents from Til Barsib,&quot; Abr-Nahrain 34 (1996–97): 100–1079, by Jamie Novotny and Poppy Tushingham (2021) for the Munich Open-access Cuneiform Corpus Initiative (MOCCI), which is funded by LMU Munich and the Alexander von Humboldt Foundation at the Historisches Seminar - Abteilung Alte Geschichte of Ludwig-Maximilians-Universität München. The text was lemmatized by Jamie Novotny and the English translation was prepared by Poppy Tushingham. The online edition is released under the Creative Commons Attribution Share-Alike license 3.0.",
			"cite_as": "Please cite this page as http://oracc.org/atae/P522602/.",
			"collection": "National Museum of Syria, Aleppo, Syria",
			"composite_witness": "witness",
			"credits": "Adapted from P. Bordreuil and F. Briquel-Chatonnet, &quot;Aramaic Documents from Til Barsib,&quot; Abr-Nahrain 34 (1996–97): 100–1079, by Jamie Novotny and Poppy Tushingham (2021) for the Munich Open-access Cuneiform Corpus Initiative (MOCCI), which is funded by LMU Munich and the Alexander von Humboldt Foundation at the Historisches Seminar - Abteilung Alte Geschichte of Ludwig-Maximilians-Universität München. The text was lemmatized by Jamie Novotny and the English translation was prepared by Poppy Tushingham. The online edition is released under the Creative Commons Attribution Share-Alike license 3.0. Please cite this page as http://oracc.org/atae/P522602/.",
			"date_of_origin": "00.000.00.00",
			"designation": "Til-Barsip 11",
			"language": "Aramaic",
			"last_mod_by": "Jamie Novotny",
			"last_modified": "26.03.2021",
			"list_name": "atae/tilbarsip:P522602",
			"material": "clay",
			"object_type": "tablet",
			"period": "Neo-Assyrian",
			"script_type": "Cuneiform"
		},
		"geometry": {
			"type": "Point",
			"coordinates": [38.1191944, 36.6749623]
		}
	}, {
		"type": "Feature",
		"properties": {
			"project": "tilbarsip",
			"id_text": "P522603",
			"primary_publication": "Til-Barsip 12",
			"provenience": "Tell Ahmar (Til Barsip)",
			"excavation_no": "T 12",
			"archive": "001 - Hanni Archive (House C1)",
			"atae_attribution": "Adapted from Stephanie Dalley, “Neo-Assyrian Tablets from Til Barsib,&quot; Abr-Nahrain 34 (1996–97) pp. 66–99, by Jamie Novotny and Poppy Tushingham (2021) for the Munich Open-access Cuneiform Corpus Initiative (MOCCI), which is funded by LMU Munich and the Alexander von Humboldt Foundation at the Historisches Seminar - Abteilung Alte Geschichte of Ludwig-Maximilians-Universität München. The text was lemmatized by Jamie Novotny and the English translation was adapted by Poppy Tushingham from Dalley’s translation. The online edition is released under the Creative Commons Attribution Share-Alike license 3.0.",
			"cite_as": "Please cite this page as http://oracc.org/atae/P522603/.",
			"collection": "National Museum of Syria, Aleppo, Syria",
			"composite_witness": "witness",
			"credits": "Adapted from Stephanie Dalley, “Neo-Assyrian Tablets from Til Barsib,&quot; Abr-Nahrain 34 (1996–97) pp. 66–99, by Jamie Novotny and Poppy Tushingham (2021) for the Munich Open-access Cuneiform Corpus Initiative (MOCCI), which is funded by LMU Munich and the Alexander von Humboldt Foundation at the Historisches Seminar - Abteilung Alte Geschichte of Ludwig-Maximilians-Universität München. The text was lemmatized by Jamie Novotny and the English translation was adapted by Poppy Tushingham from Dalley’s translation. The online edition is released under the Creative Commons Attribution Share-Alike license 3.0. Please cite this page as http://oracc.org/atae/P522603/.",
			"date_of_origin": "00.000.00.00",
			"designation": "Til-Barsip 12",
			"dialect": "Neo-Assyrian",
			"genre": "Administrative Record",
			"has_date": "no",
			"language": "Akkadian",
			"last_mod_by": "Jamie Novotny",
			"last_modified": "23.10.2021",
			"list_name": "atae/tilbarsip:P522603",
			"material": "clay",
			"object_type": "tablet",
			"period": "Neo-Assyrian",
			"script": "Neo-Assyrian",
			"script_remarks": "inscribed",
			"script_type": "Cuneiform",
			"subgenre": "list"
		},
		"geometry": {
			"type": "Point",
			"coordinates": [38.1191944, 36.6749623]
		}
	}, {
		"type": "Feature",
		"properties": {
			"project": "tilbarsip",
			"id_text": "P522604",
			"primary_publication": "Til-Barsip 13",
			"provenience": "Tell Ahmar (Til Barsip)",
			"excavation_no": "T 13",
			"archive": "001 - Hanni Archive (House C1)",
			"date": "643*-II-21",
			"long_date": "Ayyāru 21st, eponymy of Šamaš-da[’’in]anni",
			"ancient_buyer": "the šakintu",
			"ancient_seller": "Tabaya",
			"atae_attribution": "Adapted from Stephanie Dalley, “Neo-Assyrian Tablets from Til Barsib,&quot; Abr-Nahrain 34 (1996–97) pp. 66–99, by Jamie Novotny and Poppy Tushingham (2021) for the Munich Open-access Cuneiform Corpus Initiative (MOCCI), which is funded by LMU Munich and the Alexander von Humboldt Foundation at the Historisches Seminar - Abteilung Alte Geschichte of Ludwig-Maximilians-Universität München. The text was lemmatized by Jamie Novotny and the English translation was adapted by Poppy Tushingham from Dalley’s translation. The online edition is released under the Creative Commons Attribution Share-Alike license 3.0.",
			"cite_as": "Please cite this page as http://oracc.org/atae/P522604/.",
			"collection": "National Museum of Syria, Aleppo, Syria",
			"composite_witness": "witness",
			"credits": "Adapted from Stephanie Dalley, “Neo-Assyrian Tablets from Til Barsib,&quot; Abr-Nahrain 34 (1996–97) pp. 66–99, by Jamie Novotny and Poppy Tushingham (2021) for the Munich Open-access Cuneiform Corpus Initiative (MOCCI), which is funded by LMU Munich and the Alexander von Humboldt Foundation at the Historisches Seminar - Abteilung Alte Geschichte of Ludwig-Maximilians-Universität München. The text was lemmatized by Jamie Novotny and the English translation was adapted by Poppy Tushingham from Dalley’s translation. The online edition is released under the Creative Commons Attribution Share-Alike license 3.0. Please cite this page as http://oracc.org/atae/P522604/.",
			"date_gen": "643*-II-21",
			"date_of_origin": "Assurbanipal.limu Assur-sharru-usur.02.21",
			"day": "21",
			"designation": "Til-Barsip 13",
			"dialect": "Neo-Assyrian",
			"eponym": "Aššur-šarru-uṣur",
			"genre": "Legal Transaction",
			"has_date": "yes",
			"language": "Akkadian",
			"last_mod_by": "Jamie Novotny",
			"last_modified": "23.10.2021",
			"list_name": "atae/tilbarsip:P522604",
			"long_date_gen": "Ayyāru 21st, eponymy of Aššur-šarru-uṣur",
			"material": "clay",
			"month": "II",
			"object_type": "tablet",
			"period": "Neo-Assyrian",
			"regnal_dates": "668–ca. 631 BC",
			"ruler": "Ashurbanipal",
			"script": "Neo-Assyrian",
			"script_remarks": "inscribed",
			"script_type": "Cuneiform",
			"seal_mark_type": "stamp seal",
			"seal_owner": "Tabaya",
			"sealed_marked": "yes",
			"subgenre": "sales document (person)",
			"year": "643*"
		},
		"geometry": {
			"type": "Point",
			"coordinates": [38.1191944, 36.6749623]
		}
	}, {
		"type": "Feature",
		"properties": {
			"project": "tilbarsip",
			"id_text": "P522605",
			"primary_publication": "Til-Barsip 14",
			"provenience": "Tell Ahmar (Til Barsip)",
			"excavation_no": "T 14",
			"archive": "001 - Hanni Archive (House C1)",
			"date": "658-XI-07",
			"long_date": "Šabāṭu 7th, eponymy of Ša-Nabû-šû",
			"atae_attribution": "Adapted from Stephanie Dalley, “Neo-Assyrian Tablets from Til Barsib,&quot; Abr-Nahrain 34 (1996–97) pp. 66–99, by Jamie Novotny and Poppy Tushingham (2021) for the Munich Open-access Cuneiform Corpus Initiative (MOCCI), which is funded by LMU Munich and the Alexander von Humboldt Foundation at the Historisches Seminar - Abteilung Alte Geschichte of Ludwig-Maximilians-Universität München. The text was lemmatized by Jamie Novotny and the English translation was adapted by Poppy Tushingham from Dalley’s translation. The online edition is released under the Creative Commons Attribution Share-Alike license 3.0.",
			"cite_as": "Please cite this page as http://oracc.org/atae/P522605/.",
			"collection": "National Museum of Syria, Aleppo, Syria",
			"composite_witness": "witness",
			"credits": "Adapted from Stephanie Dalley, “Neo-Assyrian Tablets from Til Barsib,&quot; Abr-Nahrain 34 (1996–97) pp. 66–99, by Jamie Novotny and Poppy Tushingham (2021) for the Munich Open-access Cuneiform Corpus Initiative (MOCCI), which is funded by LMU Munich and the Alexander von Humboldt Foundation at the Historisches Seminar - Abteilung Alte Geschichte of Ludwig-Maximilians-Universität München. The text was lemmatized by Jamie Novotny and the English translation was adapted by Poppy Tushingham from Dalley’s translation. The online edition is released under the Creative Commons Attribution Share-Alike license 3.0. Please cite this page as http://oracc.org/atae/P522605/.",
			"date_gen": "658-XI-07",
			"date_of_origin": "Assurbanipal.limu Sha-Nabu-shu.11.07",
			"day": "07",
			"designation": "Til-Barsip 14",
			"dialect": "Neo-Assyrian",
			"eponym": "Ša-Nabû-šû",
			"genre": "Legal Transaction",
			"has_date": "yes",
			"language": "Akkadian",
			"last_mod_by": "Jamie Novotny",
			"last_modified": "23.10.2021",
			"list_name": "atae/tilbarsip:P522605",
			"long_date_gen": "Šabāṭu 7th, eponymy of Ša-Nabû-šû",
			"material": "clay",
			"month": "XI",
			"object_type": "tablet",
			"period": "Neo-Assyrian",
			"regnal_dates": "668–ca. 631 BC",
			"ruler": "Ashurbanipal",
			"script": "Neo-Assyrian",
			"script_remarks": "inscribed",
			"script_type": "Cuneiform",
			"seal_mark_type": "stamp seal",
			"seal_owner": "Šulmu-ahhē; Iqbi-Aššur",
			"sealed_marked": "yes",
			"subgenre": "judicial document",
			"year": "658"
		},
		"geometry": {
			"type": "Point",
			"coordinates": [38.1191944, 36.6749623]
		}
	}, {
		"type": "Feature",
		"properties": {
			"project": "tilbarsip",
			"id_text": "P522606",
			"primary_publication": "Til-Barsip 15",
			"provenience": "Tell Ahmar (Til Barsip)",
			"excavation_no": "T 15",
			"archive": "001 - Hanni Archive (House C1)",
			"date": "683-X-01",
			"long_date": "Kanūnu 1st, eponymy of Mannu-kī-Adad",
			"ancient_creditor": "Turiki",
			"ancient_debtor": "Liphur-ilu",
			"atae_attribution": "Adapted from Stephanie Dalley, “Neo-Assyrian Tablets from Til Barsib,&quot; Abr-Nahrain 34 (1996–97) pp. 66–99, by Jamie Novotny and Poppy Tushingham (2021) for the Munich Open-access Cuneiform Corpus Initiative (MOCCI), which is funded by LMU Munich and the Alexander von Humboldt Foundation at the Historisches Seminar - Abteilung Alte Geschichte of Ludwig-Maximilians-Universität München. The text was lemmatized by Jamie Novotny and the English translation was adapted by Poppy Tushingham from Dalley’s translation. The online edition is released under the Creative Commons Attribution Share-Alike license 3.0.",
			"cite_as": "Please cite this page as http://oracc.org/atae/P522606/.",
			"collection": "National Museum of Syria, Aleppo, Syria",
			"composite_witness": "witness",
			"credits": "Adapted from Stephanie Dalley, “Neo-Assyrian Tablets from Til Barsib,&quot; Abr-Nahrain 34 (1996–97) pp. 66–99, by Jamie Novotny and Poppy Tushingham (2021) for the Munich Open-access Cuneiform Corpus Initiative (MOCCI), which is funded by LMU Munich and the Alexander von Humboldt Foundation at the Historisches Seminar - Abteilung Alte Geschichte of Ludwig-Maximilians-Universität München. The text was lemmatized by Jamie Novotny and the English translation was adapted by Poppy Tushingham from Dalley’s translation. The online edition is released under the Creative Commons Attribution Share-Alike license 3.0. Please cite this page as http://oracc.org/atae/P522606/.",
			"date_gen": "683-X-01",
			"date_of_origin": "Sennacherib.limu Mannu-ki-Adad.10.01",
			"day": "01",
			"designation": "Til-Barsip 15",
			"dialect": "Neo-Assyrian",
			"eponym": "Mannu-kī-Adad",
			"genre": "Legal Transaction",
			"has_date": "yes",
			"language": "Akkadian",
			"last_mod_by": "Jamie Novotny",
			"last_modified": "23.10.2021",
			"list_name": "atae/tilbarsip:P522606",
			"long_date_gen": "Kanūnu 1st, eponymy of Mannu-kī-Adad",
			"material": "clay",
			"month": "X",
			"object_type": "tablet, envelope",
			"period": "Neo-Assyrian",
			"regnal_dates": "704–681 BC",
			"ruler": "Sennacherib",
			"script": "Neo-Assyrian",
			"script_remarks": "inscribed",
			"script_type": "Cuneiform",
			"seal_mark_type": "stamp seal",
			"sealed_marked": "yes",
			"subgenre": "debt note (silver)",
			"year": "683"
		},
		"geometry": {
			"type": "Point",
			"coordinates": [38.1191944, 36.6749623]
		}
	}, {
		"type": "Feature",
		"properties": {
			"project": "tilbarsip",
			"id_text": "P522607",
			"primary_publication": "Til-Barsip 16 + 17",
			"provenience": "Tell Ahmar (Til Barsip)",
			"excavation_no": "T 16 + T 17",
			"archive": "001 - Hanni Archive (House C1)",
			"atae_attribution": "Adapted from Stephanie Dalley, “Neo-Assyrian Tablets from Til Barsib,&quot; Abr-Nahrain 34 (1996–97) pp. 66–99, by Jamie Novotny and Poppy Tushingham (2021) for the Munich Open-access Cuneiform Corpus Initiative (MOCCI), which is funded by LMU Munich and the Alexander von Humboldt Foundation at the Historisches Seminar - Abteilung Alte Geschichte of Ludwig-Maximilians-Universität München. The text was lemmatized by Jamie Novotny and the English translation was adapted by Poppy Tushingham from Dalley’s translation. The online edition is released under the Creative Commons Attribution Share-Alike license 3.0.",
			"cite_as": "Please cite this page as http://oracc.org/atae/P522607/.",
			"collection": "National Museum of Syria, Aleppo, Syria",
			"composite_witness": "witness",
			"credits": "Adapted from Stephanie Dalley, “Neo-Assyrian Tablets from Til Barsib,&quot; Abr-Nahrain 34 (1996–97) pp. 66–99, by Jamie Novotny and Poppy Tushingham (2021) for the Munich Open-access Cuneiform Corpus Initiative (MOCCI), which is funded by LMU Munich and the Alexander von Humboldt Foundation at the Historisches Seminar - Abteilung Alte Geschichte of Ludwig-Maximilians-Universität München. The text was lemmatized by Jamie Novotny and the English translation was adapted by Poppy Tushingham from Dalley’s translation. The online edition is released under the Creative Commons Attribution Share-Alike license 3.0. Please cite this page as http://oracc.org/atae/P522607/.",
			"date_of_origin": "00.000.00.00",
			"designation": "Til-Barsip 16 + 17",
			"dialect": "Neo-Assyrian",
			"genre": "Legal Transaction",
			"language": "Akkadian",
			"last_mod_by": "Jamie Novotny",
			"last_modified": "23.10.2021",
			"list_name": "atae/tilbarsip:P522607",
			"material": "clay",
			"object_type": "envelope",
			"period": "Neo-Assyrian",
			"script": "Neo-Assyrian",
			"script_remarks": "inscribed",
			"script_type": "Cuneiform",
			"sealed_marked": "unknown"
		},
		"geometry": {
			"type": "Point",
			"coordinates": [38.1191944, 36.6749623]
		}
	}, {
		"type": "Feature",
		"properties": {
			"project": "tilbarsip",
			"id_text": "P522608",
			"primary_publication": "Til-Barsip 18",
			"provenience": "Tell Ahmar (Til Barsip)",
			"excavation_no": "T 18",
			"archive": "001 - Hanni Archive (House C1)",
			"atae_attribution": "Adapted from Stephanie Dalley, “Neo-Assyrian Tablets from Til Barsib,&quot; Abr-Nahrain 34 (1996–97) pp. 66–99, by Jamie Novotny and Poppy Tushingham (2021) for the Munich Open-access Cuneiform Corpus Initiative (MOCCI), which is funded by LMU Munich and the Alexander von Humboldt Foundation at the Historisches Seminar - Abteilung Alte Geschichte of Ludwig-Maximilians-Universität München. The text was lemmatized by Jamie Novotny and the English translation was adapted by Poppy Tushingham from Dalley’s translation. The online edition is released under the Creative Commons Attribution Share-Alike license 3.0.",
			"cite_as": "Please cite this page as http://oracc.org/atae/P522608/.",
			"collection": "National Museum of Syria, Aleppo, Syria",
			"composite_witness": "witness",
			"credits": "Adapted from Stephanie Dalley, “Neo-Assyrian Tablets from Til Barsib,&quot; Abr-Nahrain 34 (1996–97) pp. 66–99, by Jamie Novotny and Poppy Tushingham (2021) for the Munich Open-access Cuneiform Corpus Initiative (MOCCI), which is funded by LMU Munich and the Alexander von Humboldt Foundation at the Historisches Seminar - Abteilung Alte Geschichte of Ludwig-Maximilians-Universität München. The text was lemmatized by Jamie Novotny and the English translation was adapted by Poppy Tushingham from Dalley’s translation. The online edition is released under the Creative Commons Attribution Share-Alike license 3.0. Please cite this page as http://oracc.org/atae/P522608/.",
			"date_of_origin": "00.000.00.00",
			"designation": "Til-Barsip 18",
			"dialect": "Neo-Assyrian",
			"genre": "Administrative Record",
			"language": "Akkadian",
			"last_mod_by": "Jamie Novotny",
			"last_modified": "23.10.2021",
			"list_name": "atae/tilbarsip:P522608",
			"material": "clay",
			"object_type": "tablet",
			"period": "Neo-Assyrian",
			"script": "Neo-Assyrian",
			"script_remarks": "inscribed",
			"script_type": "Cuneiform",
			"sealed_marked": "no",
			"subgenre": "list"
		},
		"geometry": {
			"type": "Point",
			"coordinates": [38.1191944, 36.6749623]
		}
	}, {
		"type": "Feature",
		"properties": {
			"project": "tilbarsip",
			"id_text": "P522609",
			"primary_publication": "Til-Barsip 19",
			"provenience": "Tell Ahmar (Til Barsip)",
			"excavation_no": "T 19",
			"archive": "001 - Hanni Archive (House C1)",
			"atae_attribution": "Adapted from Stephanie Dalley, “Neo-Assyrian Tablets from Til Barsib,&quot; Abr-Nahrain 34 (1996–97) pp. 66–99, by Jamie Novotny and Poppy Tushingham (2021) for the Munich Open-access Cuneiform Corpus Initiative (MOCCI), which is funded by LMU Munich and the Alexander von Humboldt Foundation at the Historisches Seminar - Abteilung Alte Geschichte of Ludwig-Maximilians-Universität München. The text was lemmatized by Jamie Novotny and the English translation was adapted by Poppy Tushingham from Dalley’s translation. The online edition is released under the Creative Commons Attribution Share-Alike license 3.0.",
			"cite_as": "Please cite this page as http://oracc.org/atae/P522609/.",
			"collection": "National Museum of Syria, Aleppo, Syria",
			"composite_witness": "witness",
			"credits": "Adapted from Stephanie Dalley, “Neo-Assyrian Tablets from Til Barsib,&quot; Abr-Nahrain 34 (1996–97) pp. 66–99, by Jamie Novotny and Poppy Tushingham (2021) for the Munich Open-access Cuneiform Corpus Initiative (MOCCI), which is funded by LMU Munich and the Alexander von Humboldt Foundation at the Historisches Seminar - Abteilung Alte Geschichte of Ludwig-Maximilians-Universität München. The text was lemmatized by Jamie Novotny and the English translation was adapted by Poppy Tushingham from Dalley’s translation. The online edition is released under the Creative Commons Attribution Share-Alike license 3.0. Please cite this page as http://oracc.org/atae/P522609/.",
			"date_of_origin": "00.000.00.00",
			"designation": "Til-Barsip 19",
			"dialect": "Neo-Assyrian",
			"has_date": "no",
			"language": "Akkadian",
			"last_mod_by": "Jamie Novotny",
			"last_modified": "23.10.2021",
			"list_name": "atae/tilbarsip:P522609",
			"material": "clay",
			"object_type": "tablet",
			"period": "Neo-Assyrian",
			"script": "Neo-Assyrian",
			"script_remarks": "inscribed",
			"script_type": "Cuneiform",
			"sealed_marked": "no"
		},
		"geometry": {
			"type": "Point",
			"coordinates": [38.1191944, 36.6749623]
		}
	}, {
		"type": "Feature",
		"properties": {
			"project": "tilbarsip",
			"id_text": "P522610",
			"primary_publication": "Til-Barsip 20",
			"provenience": "Tell Ahmar (Til Barsip)",
			"excavation_no": "T 20",
			"archive": "001 - Hanni Archive (House C1)",
			"date": "649-III-02",
			"long_date": "Simānu 2nd, eponymy after that of Bēl-Harrān-šaddû’a",
			"ancient_creditor": "Sasî",
			"ancient_debtor": "Zabinu",
			"atae_attribution": "Adapted from Stephanie Dalley, “Neo-Assyrian Tablets from Til Barsib,&quot; Abr-Nahrain 34 (1996–97) pp. 66–99, by Jamie Novotny and Poppy Tushingham (2021) for the Munich Open-access Cuneiform Corpus Initiative (MOCCI), which is funded by LMU Munich and the Alexander von Humboldt Foundation at the Historisches Seminar - Abteilung Alte Geschichte of Ludwig-Maximilians-Universität München. The text was lemmatized by Jamie Novotny and the English translation was adapted by Poppy Tushingham from Dalley’s translation. The online edition is released under the Creative Commons Attribution Share-Alike license 3.0.",
			"cite_as": "Please cite this page as http://oracc.org/atae/P522610/.",
			"collection": "National Museum of Syria, Aleppo, Syria",
			"composite_witness": "witness",
			"credits": "Adapted from Stephanie Dalley, “Neo-Assyrian Tablets from Til Barsib,&quot; Abr-Nahrain 34 (1996–97) pp. 66–99, by Jamie Novotny and Poppy Tushingham (2021) for the Munich Open-access Cuneiform Corpus Initiative (MOCCI), which is funded by LMU Munich and the Alexander von Humboldt Foundation at the Historisches Seminar - Abteilung Alte Geschichte of Ludwig-Maximilians-Universität München. The text was lemmatized by Jamie Novotny and the English translation was adapted by Poppy Tushingham from Dalley’s translation. The online edition is released under the Creative Commons Attribution Share-Alike license 3.0. Please cite this page as http://oracc.org/atae/P522610/.",
			"date_gen": "649-III-02",
			"date_of_origin": "Assurbanipal.limu Ahu-ila’i.03.02",
			"day": "02",
			"designation": "Til-Barsip 20",
			"dialect": "Neo-Assyrian",
			"eponym": "Ahu-ilā’ī",
			"genre": "Legal Transaction",
			"has_date": "yes",
			"language": "Akkadian, Aramaic?",
			"last_mod_by": "Jamie Novotny",
			"last_modified": "23.10.2021",
			"list_name": "atae/tilbarsip:P522610",
			"long_date_gen": "Simānu 2nd, eponymy of Ahu-ilā’ī",
			"material": "clay",
			"month": "III",
			"object_type": "tablet, envelope",
			"period": "Neo-Assyrian",
			"regnal_dates": "668–ca. 631 BC",
			"ruler": "Ashurbanipal",
			"script": "Neo-Assyrian",
			"script_remarks": "inscribed",
			"script_type": "Cuneiform",
			"seal_mark_type": "stamp seal",
			"seal_owner": "Zabinu",
			"sealed_marked": "yes",
			"subgenre": "debt note (silver)",
			"year": "649"
		},
		"geometry": {
			"type": "Point",
			"coordinates": [38.1191944, 36.6749623]
		}
	}, {
		"type": "Feature",
		"properties": {
			"project": "tilbarsip",
			"id_text": "P522611",
			"primary_publication": "Til-Barsip 21",
			"provenience": "Tell Ahmar (Til Barsip)",
			"excavation_no": "T 21",
			"archive": "001 - Hanni Archive (House C1)",
			"atae_attribution": "Adapted from Stephanie Dalley, “Neo-Assyrian Tablets from Til Barsib,&quot; Abr-Nahrain 34 (1996–97) pp. 66–99, by Jamie Novotny and Poppy Tushingham (2021) for the Munich Open-access Cuneiform Corpus Initiative (MOCCI), which is funded by LMU Munich and the Alexander von Humboldt Foundation at the Historisches Seminar - Abteilung Alte Geschichte of Ludwig-Maximilians-Universität München. The text was lemmatized by Jamie Novotny and the English translation was adapted by Poppy Tushingham from Dalley’s translation. The online edition is released under the Creative Commons Attribution Share-Alike license 3.0.",
			"cite_as": "Please cite this page as http://oracc.org/atae/P522611/.",
			"collection": "National Museum of Syria, Aleppo, Syria",
			"composite_witness": "witness",
			"credits": "Adapted from Stephanie Dalley, “Neo-Assyrian Tablets from Til Barsib,&quot; Abr-Nahrain 34 (1996–97) pp. 66–99, by Jamie Novotny and Poppy Tushingham (2021) for the Munich Open-access Cuneiform Corpus Initiative (MOCCI), which is funded by LMU Munich and the Alexander von Humboldt Foundation at the Historisches Seminar - Abteilung Alte Geschichte of Ludwig-Maximilians-Universität München. The text was lemmatized by Jamie Novotny and the English translation was adapted by Poppy Tushingham from Dalley’s translation. The online edition is released under the Creative Commons Attribution Share-Alike license 3.0. Please cite this page as http://oracc.org/atae/P522611/.",
			"date_of_origin": "00.000.00.00",
			"designation": "Til-Barsip 21",
			"dialect": "Neo-Assyrian",
			"language": "Akkadian",
			"last_mod_by": "Jamie Novotny",
			"last_modified": "23.10.2021",
			"list_name": "atae/tilbarsip:P522611",
			"material": "clay",
			"object_type": "envelope",
			"period": "Neo-Assyrian",
			"script": "Neo-Assyrian",
			"script_remarks": "inscribed",
			"script_type": "Cuneiform"
		},
		"geometry": {
			"type": "Point",
			"coordinates": [38.1191944, 36.6749623]
		}
	}, {
		"type": "Feature",
		"properties": {
			"project": "tilbarsip",
			"id_text": "P522612",
			"primary_publication": "Til-Barsip 22",
			"provenience": "Tell Ahmar (Til Barsip)",
			"excavation_no": "T 22",
			"archive": "001 - Hanni Archive (House C1)",
			"atae_attribution": "Adapted from Stephanie Dalley, “Neo-Assyrian Tablets from Til Barsib,&quot; Abr-Nahrain 34 (1996–97) pp. 66–99, by Jamie Novotny and Poppy Tushingham (2021) for the Munich Open-access Cuneiform Corpus Initiative (MOCCI), which is funded by LMU Munich and the Alexander von Humboldt Foundation at the Historisches Seminar - Abteilung Alte Geschichte of Ludwig-Maximilians-Universität München. The text was lemmatized by Jamie Novotny and the English translation was adapted by Poppy Tushingham from Dalley’s translation. The online edition is released under the Creative Commons Attribution Share-Alike license 3.0.",
			"cite_as": "Please cite this page as http://oracc.org/atae/P522612/.",
			"collection": "National Museum of Syria, Aleppo, Syria",
			"composite_witness": "witness",
			"credits": "Adapted from Stephanie Dalley, “Neo-Assyrian Tablets from Til Barsib,&quot; Abr-Nahrain 34 (1996–97) pp. 66–99, by Jamie Novotny and Poppy Tushingham (2021) for the Munich Open-access Cuneiform Corpus Initiative (MOCCI), which is funded by LMU Munich and the Alexander von Humboldt Foundation at the Historisches Seminar - Abteilung Alte Geschichte of Ludwig-Maximilians-Universität München. The text was lemmatized by Jamie Novotny and the English translation was adapted by Poppy Tushingham from Dalley’s translation. The online edition is released under the Creative Commons Attribution Share-Alike license 3.0. Please cite this page as http://oracc.org/atae/P522612/.",
			"date_of_origin": "00.000.00.00",
			"designation": "Til-Barsip 22",
			"dialect": "Neo-Assyrian",
			"genre": "Legal Transaction",
			"has_date": "yes, but date completely destroyed",
			"language": "Akkadian",
			"last_mod_by": "Jamie Novotny",
			"last_modified": "23.10.2021",
			"list_name": "atae/tilbarsip:P522612",
			"material": "clay",
			"object_type": "tablet",
			"period": "Neo-Assyrian",
			"script": "Neo-Assyrian",
			"script_remarks": "inscribed",
			"script_type": "Cuneiform",
			"sealed_marked": "unknown",
			"subgenre": "sales document"
		},
		"geometry": {
			"type": "Point",
			"coordinates": [38.1191944, 36.6749623]
		}
	}, {
		"type": "Feature",
		"properties": {
			"project": "tilbarsip",
			"id_text": "P522613",
			"primary_publication": "Til-Barsip 23",
			"provenience": "Tell Ahmar (Til Barsip)",
			"excavation_no": "T 23",
			"archive": "001 - Hanni Archive (House C1)",
			"atae_attribution": "Adapted from P. Bordreuil and F. Briquel-Chatonnet, &quot;Aramaic Documents from Til Barsib,&quot; Abr-Nahrain 34 (1996–97): 100–107, by Jamie Novotny and Poppy Tushingham (2021) for the Munich Open-access Cuneiform Corpus Initiative (MOCCI), which is funded by LMU Munich and the Alexander von Humboldt Foundation at the Historisches Seminar - Abteilung Alte Geschichte of Ludwig-Maximilians-Universität München. The text was lemmatized by Jamie Novotny and the English translation was prepared by Poppy Tushingham. The online edition is released under the Creative Commons Attribution Share-Alike license 3.0.",
			"cite_as": "Please cite this page as http://oracc.org/atae/P522613/.",
			"collection": "National Museum of Syria, Aleppo, Syria",
			"composite_witness": "witness",
			"credits": "Adapted from P. Bordreuil and F. Briquel-Chatonnet, &quot;Aramaic Documents from Til Barsib,&quot; Abr-Nahrain 34 (1996–97): 100–107, by Jamie Novotny and Poppy Tushingham (2021) for the Munich Open-access Cuneiform Corpus Initiative (MOCCI), which is funded by LMU Munich and the Alexander von Humboldt Foundation at the Historisches Seminar - Abteilung Alte Geschichte of Ludwig-Maximilians-Universität München. The text was lemmatized by Jamie Novotny and the English translation was prepared by Poppy Tushingham. The online edition is released under the Creative Commons Attribution Share-Alike license 3.0. Please cite this page as http://oracc.org/atae/P522613/.",
			"date_of_origin": "00.000.00.00",
			"designation": "Til-Barsip 23",
			"language": "Aramaic",
			"last_mod_by": "Jamie Novotny",
			"last_modified": "26.03.2021",
			"list_name": "atae/tilbarsip:P522613",
			"material": "clay",
			"object_type": "tablet",
			"period": "Neo-Assyrian",
			"script_type": "Cuneiform"
		},
		"geometry": {
			"type": "Point",
			"coordinates": [38.1191944, 36.6749623]
		}
	}]
}
